{
"type": "FeatureCollection",
"name": "low_growth_75_market_gravity_epsg4326_centroids",
"crs": { "type": "name", "properties": { "name": "urn:ogc:def:crs:OGC:1.3:CRS84" } },
"features": [
{ "type": "Feature", "properties": { "id": "1_0", "growth_scenario": "low", "market_gravity_weight": 75 }, "geometry": { "type": "Point", "coordinates": [ -86.626063192751985, 34.836800523816258 ] } },
{ "type": "Feature", "properties": { "id": "1_1", "growth_scenario": "low", "market_gravity_weight": 75 }, "geometry": { "type": "Point", "coordinates": [ -86.637299903992812, 34.8473131456876 ] } },
{ "type": "Feature", "properties": { "id": "4_0", "growth_scenario": "low", "market_gravity_weight": 75 }, "geometry": { "type": "Point", "coordinates": [ -111.707943496201096, 33.478703904142215 ] } },
{ "type": "Feature", "properties": { "id": "4_1", "growth_scenario": "low", "market_gravity_weight": 75 }, "geometry": { "type": "Point", "coordinates": [ -111.799503071621089, 33.383776817120889 ] } },
{ "type": "Feature", "properties": { "id": "4_2", "growth_scenario": "low", "market_gravity_weight": 75 }, "geometry": { "type": "Point", "coordinates": [ -111.778890117146929, 33.47053330270586 ] } },
{ "type": "Feature", "properties": { "id": "4_3", "growth_scenario": "low", "market_gravity_weight": 75 }, "geometry": { "type": "Point", "coordinates": [ -111.912201848662534, 33.431641762691719 ] } },
{ "type": "Feature", "properties": { "id": "4_4", "growth_scenario": "low", "market_gravity_weight": 75 }, "geometry": { "type": "Point", "coordinates": [ -111.666013613760839, 33.443356332131508 ] } },
{ "type": "Feature", "properties": { "id": "4_5", "growth_scenario": "low", "market_gravity_weight": 75 }, "geometry": { "type": "Point", "coordinates": [ -111.710153144083392, 33.484753724633585 ] } },
{ "type": "Feature", "properties": { "id": "4_6", "growth_scenario": "low", "market_gravity_weight": 75 }, "geometry": { "type": "Point", "coordinates": [ -111.703954081057788, 33.479072309947959 ] } },
{ "type": "Feature", "properties": { "id": "4_7", "growth_scenario": "low", "market_gravity_weight": 75 }, "geometry": { "type": "Point", "coordinates": [ -111.73378301971043, 33.472868662990891 ] } },
{ "type": "Feature", "properties": { "id": "4_8", "growth_scenario": "low", "market_gravity_weight": 75 }, "geometry": { "type": "Point", "coordinates": [ -111.776613645498799, 33.473390753293486 ] } },
{ "type": "Feature", "properties": { "id": "6_0", "growth_scenario": "low", "market_gravity_weight": 75 }, "geometry": { "type": "Point", "coordinates": [ -121.490179401187405, 38.65794914874634 ] } },
{ "type": "Feature", "properties": { "id": "6_1", "growth_scenario": "low", "market_gravity_weight": 75 }, "geometry": { "type": "Point", "coordinates": [ -121.486569288562492, 38.658619684050805 ] } },
{ "type": "Feature", "properties": { "id": "6_10", "growth_scenario": "low", "market_gravity_weight": 75 }, "geometry": { "type": "Point", "coordinates": [ -121.489008995050341, 38.665783604029514 ] } },
{ "type": "Feature", "properties": { "id": "6_11", "growth_scenario": "low", "market_gravity_weight": 75 }, "geometry": { "type": "Point", "coordinates": [ -121.47294824857569, 38.659554700838846 ] } },
{ "type": "Feature", "properties": { "id": "6_12", "growth_scenario": "low", "market_gravity_weight": 75 }, "geometry": { "type": "Point", "coordinates": [ -122.268341079376754, 38.260732874609928 ] } },
{ "type": "Feature", "properties": { "id": "6_13", "growth_scenario": "low", "market_gravity_weight": 75 }, "geometry": { "type": "Point", "coordinates": [ -121.48021676706378, 38.665420947329281 ] } },
{ "type": "Feature", "properties": { "id": "6_2", "growth_scenario": "low", "market_gravity_weight": 75 }, "geometry": { "type": "Point", "coordinates": [ -121.93612052294614, 37.424729812715718 ] } },
{ "type": "Feature", "properties": { "id": "6_3", "growth_scenario": "low", "market_gravity_weight": 75 }, "geometry": { "type": "Point", "coordinates": [ -121.490673910392957, 38.660342804987529 ] } },
{ "type": "Feature", "properties": { "id": "6_4", "growth_scenario": "low", "market_gravity_weight": 75 }, "geometry": { "type": "Point", "coordinates": [ -121.929199497043001, 37.426244872490493 ] } },
{ "type": "Feature", "properties": { "id": "6_5", "growth_scenario": "low", "market_gravity_weight": 75 }, "geometry": { "type": "Point", "coordinates": [ -121.931949670300057, 37.429627290024847 ] } },
{ "type": "Feature", "properties": { "id": "6_6", "growth_scenario": "low", "market_gravity_weight": 75 }, "geometry": { "type": "Point", "coordinates": [ -121.482224433586723, 38.637702409015198 ] } },
{ "type": "Feature", "properties": { "id": "6_7", "growth_scenario": "low", "market_gravity_weight": 75 }, "geometry": { "type": "Point", "coordinates": [ -121.4884085820199, 38.661746878756183 ] } },
{ "type": "Feature", "properties": { "id": "6_8", "growth_scenario": "low", "market_gravity_weight": 75 }, "geometry": { "type": "Point", "coordinates": [ -121.491699640319581, 38.663549434257192 ] } },
{ "type": "Feature", "properties": { "id": "6_9", "growth_scenario": "low", "market_gravity_weight": 75 }, "geometry": { "type": "Point", "coordinates": [ -121.486724684098021, 38.663768210907442 ] } },
{ "type": "Feature", "properties": { "id": "8_0", "growth_scenario": "low", "market_gravity_weight": 75 }, "geometry": { "type": "Point", "coordinates": [ -104.782841603852589, 38.986174679237067 ] } },
{ "type": "Feature", "properties": { "id": "8_1", "growth_scenario": "low", "market_gravity_weight": 75 }, "geometry": { "type": "Point", "coordinates": [ -105.014525012010196, 39.989104629933635 ] } },
{ "type": "Feature", "properties": { "id": "12_0", "growth_scenario": "low", "market_gravity_weight": 75 }, "geometry": { "type": "Point", "coordinates": [ -80.307510504786947, 25.965203978370855 ] } },
{ "type": "Feature", "properties": { "id": "12_1", "growth_scenario": "low", "market_gravity_weight": 75 }, "geometry": { "type": "Point", "coordinates": [ -80.305200754145545, 25.966881295984887 ] } },
{ "type": "Feature", "properties": { "id": "13_0", "growth_scenario": "low", "market_gravity_weight": 75 }, "geometry": { "type": "Point", "coordinates": [ -83.709219012290163, 33.608945451217764 ] } },
{ "type": "Feature", "properties": { "id": "13_1", "growth_scenario": "low", "market_gravity_weight": 75 }, "geometry": { "type": "Point", "coordinates": [ -84.438681903080393, 33.911061074211645 ] } },
{ "type": "Feature", "properties": { "id": "13_2", "growth_scenario": "low", "market_gravity_weight": 75 }, "geometry": { "type": "Point", "coordinates": [ -84.886946857045572, 32.503920656906963 ] } },
{ "type": "Feature", "properties": { "id": "13_3", "growth_scenario": "low", "market_gravity_weight": 75 }, "geometry": { "type": "Point", "coordinates": [ -83.70479913145553, 33.611992017614561 ] } },
{ "type": "Feature", "properties": { "id": "13_4", "growth_scenario": "low", "market_gravity_weight": 75 }, "geometry": { "type": "Point", "coordinates": [ -83.709828926792042, 33.612712321767319 ] } },
{ "type": "Feature", "properties": { "id": "13_5", "growth_scenario": "low", "market_gravity_weight": 75 }, "geometry": { "type": "Point", "coordinates": [ -84.153363640509966, 33.927858188895556 ] } },
{ "type": "Feature", "properties": { "id": "13_6", "growth_scenario": "low", "market_gravity_weight": 75 }, "geometry": { "type": "Point", "coordinates": [ -83.706157911739766, 33.605457169311343 ] } },
{ "type": "Feature", "properties": { "id": "13_7", "growth_scenario": "low", "market_gravity_weight": 75 }, "geometry": { "type": "Point", "coordinates": [ -84.572501134866386, 33.905492170262626 ] } },
{ "type": "Feature", "properties": { "id": "13_8", "growth_scenario": "low", "market_gravity_weight": 75 }, "geometry": { "type": "Point", "coordinates": [ -83.712316004682236, 33.608736037517431 ] } },
{ "type": "Feature", "properties": { "id": "17_0", "growth_scenario": "low", "market_gravity_weight": 75 }, "geometry": { "type": "Point", "coordinates": [ -88.239970620958147, 41.980742611999055 ] } },
{ "type": "Feature", "properties": { "id": "17_1", "growth_scenario": "low", "market_gravity_weight": 75 }, "geometry": { "type": "Point", "coordinates": [ -88.266168841009929, 41.820351147746038 ] } },
{ "type": "Feature", "properties": { "id": "17_10", "growth_scenario": "low", "market_gravity_weight": 75 }, "geometry": { "type": "Point", "coordinates": [ -88.265671488007712, 41.856729614508978 ] } },
{ "type": "Feature", "properties": { "id": "17_2", "growth_scenario": "low", "market_gravity_weight": 75 }, "geometry": { "type": "Point", "coordinates": [ -88.265448517234603, 41.818065990565437 ] } },
{ "type": "Feature", "properties": { "id": "17_3", "growth_scenario": "low", "market_gravity_weight": 75 }, "geometry": { "type": "Point", "coordinates": [ -88.217450275676754, 41.823062397372389 ] } },
{ "type": "Feature", "properties": { "id": "17_4", "growth_scenario": "low", "market_gravity_weight": 75 }, "geometry": { "type": "Point", "coordinates": [ -87.851541840586748, 41.77528112915892 ] } },
{ "type": "Feature", "properties": { "id": "17_5", "growth_scenario": "low", "market_gravity_weight": 75 }, "geometry": { "type": "Point", "coordinates": [ -87.974602316907507, 42.31058027411288 ] } },
{ "type": "Feature", "properties": { "id": "17_6", "growth_scenario": "low", "market_gravity_weight": 75 }, "geometry": { "type": "Point", "coordinates": [ -87.972831370720215, 42.314239955174045 ] } },
{ "type": "Feature", "properties": { "id": "17_7", "growth_scenario": "low", "market_gravity_weight": 75 }, "geometry": { "type": "Point", "coordinates": [ -87.883796333603271, 42.30536683123605 ] } },
{ "type": "Feature", "properties": { "id": "17_8", "growth_scenario": "low", "market_gravity_weight": 75 }, "geometry": { "type": "Point", "coordinates": [ -88.382348977421032, 42.155163107761688 ] } },
{ "type": "Feature", "properties": { "id": "17_9", "growth_scenario": "low", "market_gravity_weight": 75 }, "geometry": { "type": "Point", "coordinates": [ -88.385462888152986, 42.154629055222372 ] } },
{ "type": "Feature", "properties": { "id": "19_0", "growth_scenario": "low", "market_gravity_weight": 75 }, "geometry": { "type": "Point", "coordinates": [ -93.521540288356547, 41.556325352845391 ] } },
{ "type": "Feature", "properties": { "id": "19_1", "growth_scenario": "low", "market_gravity_weight": 75 }, "geometry": { "type": "Point", "coordinates": [ -93.56164802517273, 41.549585000503868 ] } },
{ "type": "Feature", "properties": { "id": "19_2", "growth_scenario": "low", "market_gravity_weight": 75 }, "geometry": { "type": "Point", "coordinates": [ -93.498885974610786, 41.676828956989851 ] } },
{ "type": "Feature", "properties": { "id": "19_3", "growth_scenario": "low", "market_gravity_weight": 75 }, "geometry": { "type": "Point", "coordinates": [ -93.71396331479211, 41.524590380930668 ] } },
{ "type": "Feature", "properties": { "id": "19_4", "growth_scenario": "low", "market_gravity_weight": 75 }, "geometry": { "type": "Point", "coordinates": [ -93.528234259170901, 41.537773613611066 ] } },
{ "type": "Feature", "properties": { "id": "19_5", "growth_scenario": "low", "market_gravity_weight": 75 }, "geometry": { "type": "Point", "coordinates": [ -93.628592854012098, 41.502664191017026 ] } },
{ "type": "Feature", "properties": { "id": "19_6", "growth_scenario": "low", "market_gravity_weight": 75 }, "geometry": { "type": "Point", "coordinates": [ -93.522348702807747, 41.550531105325462 ] } },
{ "type": "Feature", "properties": { "id": "19_7", "growth_scenario": "low", "market_gravity_weight": 75 }, "geometry": { "type": "Point", "coordinates": [ -93.793204289836808, 41.554844865332029 ] } },
{ "type": "Feature", "properties": { "id": "19_8", "growth_scenario": "low", "market_gravity_weight": 75 }, "geometry": { "type": "Point", "coordinates": [ -93.494391504966273, 41.6772778625919 ] } },
{ "type": "Feature", "properties": { "id": "21_0", "growth_scenario": "low", "market_gravity_weight": 75 }, "geometry": { "type": "Point", "coordinates": [ -87.148030699779994, 36.820719910310686 ] } },
{ "type": "Feature", "properties": { "id": "21_1", "growth_scenario": "low", "market_gravity_weight": 75 }, "geometry": { "type": "Point", "coordinates": [ -87.433010114854724, 36.644386607184089 ] } },
{ "type": "Feature", "properties": { "id": "25_0", "growth_scenario": "low", "market_gravity_weight": 75 }, "geometry": { "type": "Point", "coordinates": [ -71.037961288506239, 42.505430702660092 ] } },
{ "type": "Feature", "properties": { "id": "27_0", "growth_scenario": "low", "market_gravity_weight": 75 }, "geometry": { "type": "Point", "coordinates": [ -93.540432698009511, 45.089438735155689 ] } },
{ "type": "Feature", "properties": { "id": "29_0", "growth_scenario": "low", "market_gravity_weight": 75 }, "geometry": { "type": "Point", "coordinates": [ -94.587866327491398, 39.326812468946052 ] } },
{ "type": "Feature", "properties": { "id": "31_0", "growth_scenario": "low", "market_gravity_weight": 75 }, "geometry": { "type": "Point", "coordinates": [ -96.093219889681365, 41.124144920431569 ] } },
{ "type": "Feature", "properties": { "id": "31_1", "growth_scenario": "low", "market_gravity_weight": 75 }, "geometry": { "type": "Point", "coordinates": [ -96.088057238808602, 41.123791320076847 ] } },
{ "type": "Feature", "properties": { "id": "31_2", "growth_scenario": "low", "market_gravity_weight": 75 }, "geometry": { "type": "Point", "coordinates": [ -96.096700521981091, 41.123517121525097 ] } },
{ "type": "Feature", "properties": { "id": "31_3", "growth_scenario": "low", "market_gravity_weight": 75 }, "geometry": { "type": "Point", "coordinates": [ -96.092495725998177, 41.121198024898717 ] } },
{ "type": "Feature", "properties": { "id": "31_4", "growth_scenario": "low", "market_gravity_weight": 75 }, "geometry": { "type": "Point", "coordinates": [ -96.141249122694504, 41.128477331258992 ] } },
{ "type": "Feature", "properties": { "id": "31_5", "growth_scenario": "low", "market_gravity_weight": 75 }, "geometry": { "type": "Point", "coordinates": [ -96.044240561983614, 41.126761438446742 ] } },
{ "type": "Feature", "properties": { "id": "32_0", "growth_scenario": "low", "market_gravity_weight": 75 }, "geometry": { "type": "Point", "coordinates": [ -115.237975032452084, 36.079837312428587 ] } },
{ "type": "Feature", "properties": { "id": "32_1", "growth_scenario": "low", "market_gravity_weight": 75 }, "geometry": { "type": "Point", "coordinates": [ -115.176120608051974, 36.00106985680965 ] } },
{ "type": "Feature", "properties": { "id": "32_2", "growth_scenario": "low", "market_gravity_weight": 75 }, "geometry": { "type": "Point", "coordinates": [ -115.018304803091283, 36.109989595933058 ] } },
{ "type": "Feature", "properties": { "id": "32_3", "growth_scenario": "low", "market_gravity_weight": 75 }, "geometry": { "type": "Point", "coordinates": [ -115.175462556158749, 35.997166709525871 ] } },
{ "type": "Feature", "properties": { "id": "32_4", "growth_scenario": "low", "market_gravity_weight": 75 }, "geometry": { "type": "Point", "coordinates": [ -115.156463881423349, 36.212890499034287 ] } },
{ "type": "Feature", "properties": { "id": "34_0", "growth_scenario": "low", "market_gravity_weight": 75 }, "geometry": { "type": "Point", "coordinates": [ -74.323979808092929, 40.460024995536308 ] } },
{ "type": "Feature", "properties": { "id": "34_1", "growth_scenario": "low", "market_gravity_weight": 75 }, "geometry": { "type": "Point", "coordinates": [ -74.347536082957632, 40.450564230973526 ] } },
{ "type": "Feature", "properties": { "id": "34_2", "growth_scenario": "low", "market_gravity_weight": 75 }, "geometry": { "type": "Point", "coordinates": [ -74.343855946270509, 40.449831963390032 ] } },
{ "type": "Feature", "properties": { "id": "34_3", "growth_scenario": "low", "market_gravity_weight": 75 }, "geometry": { "type": "Point", "coordinates": [ -74.312978340998825, 40.441519524277375 ] } },
{ "type": "Feature", "properties": { "id": "34_4", "growth_scenario": "low", "market_gravity_weight": 75 }, "geometry": { "type": "Point", "coordinates": [ -74.509380724636529, 40.852324839466903 ] } },
{ "type": "Feature", "properties": { "id": "34_5", "growth_scenario": "low", "market_gravity_weight": 75 }, "geometry": { "type": "Point", "coordinates": [ -74.115768286412418, 40.789719936921379 ] } },
{ "type": "Feature", "properties": { "id": "36_0", "growth_scenario": "low", "market_gravity_weight": 75 }, "geometry": { "type": "Point", "coordinates": [ -74.024206320195162, 41.152094964559346 ] } },
{ "type": "Feature", "properties": { "id": "36_1", "growth_scenario": "low", "market_gravity_weight": 75 }, "geometry": { "type": "Point", "coordinates": [ -74.029085506764517, 41.075873856370876 ] } },
{ "type": "Feature", "properties": { "id": "36_2", "growth_scenario": "low", "market_gravity_weight": 75 }, "geometry": { "type": "Point", "coordinates": [ -74.119448712816833, 41.120387392222085 ] } },
{ "type": "Feature", "properties": { "id": "36_3", "growth_scenario": "low", "market_gravity_weight": 75 }, "geometry": { "type": "Point", "coordinates": [ -73.957455562050953, 41.089911950914185 ] } },
{ "type": "Feature", "properties": { "id": "36_4", "growth_scenario": "low", "market_gravity_weight": 75 }, "geometry": { "type": "Point", "coordinates": [ -73.997935905895787, 41.24898966412848 ] } },
{ "type": "Feature", "properties": { "id": "36_5", "growth_scenario": "low", "market_gravity_weight": 75 }, "geometry": { "type": "Point", "coordinates": [ -74.198810313086497, 41.158598135199469 ] } },
{ "type": "Feature", "properties": { "id": "37_0", "growth_scenario": "low", "market_gravity_weight": 75 }, "geometry": { "type": "Point", "coordinates": [ -78.300639371750023, 35.807463436792119 ] } },
{ "type": "Feature", "properties": { "id": "37_1", "growth_scenario": "low", "market_gravity_weight": 75 }, "geometry": { "type": "Point", "coordinates": [ -78.30542239255584, 35.805003364164662 ] } },
{ "type": "Feature", "properties": { "id": "37_2", "growth_scenario": "low", "market_gravity_weight": 75 }, "geometry": { "type": "Point", "coordinates": [ -78.297072696593759, 35.807652851473762 ] } },
{ "type": "Feature", "properties": { "id": "37_3", "growth_scenario": "low", "market_gravity_weight": 75 }, "geometry": { "type": "Point", "coordinates": [ -78.303229660779309, 35.803218769499956 ] } },
{ "type": "Feature", "properties": { "id": "38_0", "growth_scenario": "low", "market_gravity_weight": 75 }, "geometry": { "type": "Point", "coordinates": [ -96.88481480930065, 46.777310370497389 ] } },
{ "type": "Feature", "properties": { "id": "38_1", "growth_scenario": "low", "market_gravity_weight": 75 }, "geometry": { "type": "Point", "coordinates": [ -96.8793963049703, 46.889165018107128 ] } },
{ "type": "Feature", "properties": { "id": "38_2", "growth_scenario": "low", "market_gravity_weight": 75 }, "geometry": { "type": "Point", "coordinates": [ -96.872621881743484, 46.910348219725101 ] } },
{ "type": "Feature", "properties": { "id": "38_3", "growth_scenario": "low", "market_gravity_weight": 75 }, "geometry": { "type": "Point", "coordinates": [ -96.905182779213789, 46.77871279047887 ] } },
{ "type": "Feature", "properties": { "id": "38_4", "growth_scenario": "low", "market_gravity_weight": 75 }, "geometry": { "type": "Point", "coordinates": [ -96.887179574006765, 46.778559408165897 ] } },
{ "type": "Feature", "properties": { "id": "38_5", "growth_scenario": "low", "market_gravity_weight": 75 }, "geometry": { "type": "Point", "coordinates": [ -96.878749953990919, 46.909225048285975 ] } },
{ "type": "Feature", "properties": { "id": "39_0", "growth_scenario": "low", "market_gravity_weight": 75 }, "geometry": { "type": "Point", "coordinates": [ -82.992840616972302, 39.856208068167213 ] } },
{ "type": "Feature", "properties": { "id": "39_1", "growth_scenario": "low", "market_gravity_weight": 75 }, "geometry": { "type": "Point", "coordinates": [ -82.78030345668131, 39.878746732676433 ] } },
{ "type": "Feature", "properties": { "id": "39_2", "growth_scenario": "low", "market_gravity_weight": 75 }, "geometry": { "type": "Point", "coordinates": [ -82.903795952418278, 39.86914884487593 ] } },
{ "type": "Feature", "properties": { "id": "40_0", "growth_scenario": "low", "market_gravity_weight": 75 }, "geometry": { "type": "Point", "coordinates": [ -97.031607047424203, 36.161428602947069 ] } },
{ "type": "Feature", "properties": { "id": "41_0", "growth_scenario": "low", "market_gravity_weight": 75 }, "geometry": { "type": "Point", "coordinates": [ -122.941891262963765, 45.561354214952324 ] } },
{ "type": "Feature", "properties": { "id": "41_1", "growth_scenario": "low", "market_gravity_weight": 75 }, "geometry": { "type": "Point", "coordinates": [ -122.937536584468262, 45.56243312066006 ] } },
{ "type": "Feature", "properties": { "id": "41_2", "growth_scenario": "low", "market_gravity_weight": 75 }, "geometry": { "type": "Point", "coordinates": [ -122.902193236391966, 45.569849687906718 ] } },
{ "type": "Feature", "properties": { "id": "41_3", "growth_scenario": "low", "market_gravity_weight": 75 }, "geometry": { "type": "Point", "coordinates": [ -122.900815666248477, 45.574255004607458 ] } },
{ "type": "Feature", "properties": { "id": "41_4", "growth_scenario": "low", "market_gravity_weight": 75 }, "geometry": { "type": "Point", "coordinates": [ -120.879194144187267, 44.282896079597698 ] } },
{ "type": "Feature", "properties": { "id": "41_5", "growth_scenario": "low", "market_gravity_weight": 75 }, "geometry": { "type": "Point", "coordinates": [ -120.873552353691707, 44.282767832845522 ] } },
{ "type": "Feature", "properties": { "id": "41_6", "growth_scenario": "low", "market_gravity_weight": 75 }, "geometry": { "type": "Point", "coordinates": [ -120.869642350628723, 44.282401044861629 ] } },
{ "type": "Feature", "properties": { "id": "41_7", "growth_scenario": "low", "market_gravity_weight": 75 }, "geometry": { "type": "Point", "coordinates": [ -122.940363532355406, 45.564103981688582 ] } },
{ "type": "Feature", "properties": { "id": "41_8", "growth_scenario": "low", "market_gravity_weight": 75 }, "geometry": { "type": "Point", "coordinates": [ -122.945666886544302, 45.560487444580893 ] } },
{ "type": "Feature", "properties": { "id": "41_9", "growth_scenario": "low", "market_gravity_weight": 75 }, "geometry": { "type": "Point", "coordinates": [ -120.87959482917762, 44.280497211584461 ] } },
{ "type": "Feature", "properties": { "id": "42_0", "growth_scenario": "low", "market_gravity_weight": 75 }, "geometry": { "type": "Point", "coordinates": [ -77.704529417614864, 39.777045634132648 ] } },
{ "type": "Feature", "properties": { "id": "42_1", "growth_scenario": "low", "market_gravity_weight": 75 }, "geometry": { "type": "Point", "coordinates": [ -77.687631919155493, 39.861290879402361 ] } },
{ "type": "Feature", "properties": { "id": "42_2", "growth_scenario": "low", "market_gravity_weight": 75 }, "geometry": { "type": "Point", "coordinates": [ -77.686129804103061, 39.865251707527307 ] } },
{ "type": "Feature", "properties": { "id": "42_3", "growth_scenario": "low", "market_gravity_weight": 75 }, "geometry": { "type": "Point", "coordinates": [ -77.699867110827853, 39.86837015977688 ] } },
{ "type": "Feature", "properties": { "id": "42_4", "growth_scenario": "low", "market_gravity_weight": 75 }, "geometry": { "type": "Point", "coordinates": [ -77.703456166333225, 39.868899562709217 ] } },
{ "type": "Feature", "properties": { "id": "42_5", "growth_scenario": "low", "market_gravity_weight": 75 }, "geometry": { "type": "Point", "coordinates": [ -77.679681634680549, 39.911673195518603 ] } },
{ "type": "Feature", "properties": { "id": "42_6", "growth_scenario": "low", "market_gravity_weight": 75 }, "geometry": { "type": "Point", "coordinates": [ -77.603793137467306, 39.936733931700878 ] } },
{ "type": "Feature", "properties": { "id": "45_0", "growth_scenario": "low", "market_gravity_weight": 75 }, "geometry": { "type": "Point", "coordinates": [ -80.044641812074801, 33.069837673823166 ] } },
{ "type": "Feature", "properties": { "id": "45_1", "growth_scenario": "low", "market_gravity_weight": 75 }, "geometry": { "type": "Point", "coordinates": [ -80.04167915101867, 33.070965034065637 ] } },
{ "type": "Feature", "properties": { "id": "45_2", "growth_scenario": "low", "market_gravity_weight": 75 }, "geometry": { "type": "Point", "coordinates": [ -80.036067344663095, 33.069537936976452 ] } },
{ "type": "Feature", "properties": { "id": "47_0", "growth_scenario": "low", "market_gravity_weight": 75 }, "geometry": { "type": "Point", "coordinates": [ -87.269506384756284, 36.625237007282472 ] } },
{ "type": "Feature", "properties": { "id": "47_1", "growth_scenario": "low", "market_gravity_weight": 75 }, "geometry": { "type": "Point", "coordinates": [ -87.269474006327087, 36.61967687105421 ] } },
{ "type": "Feature", "properties": { "id": "48_0", "growth_scenario": "low", "market_gravity_weight": 75 }, "geometry": { "type": "Point", "coordinates": [ -98.720735556924893, 29.430211710265684 ] } },
{ "type": "Feature", "properties": { "id": "48_1", "growth_scenario": "low", "market_gravity_weight": 75 }, "geometry": { "type": "Point", "coordinates": [ -96.957451313981664, 32.983181147474845 ] } },
{ "type": "Feature", "properties": { "id": "48_10", "growth_scenario": "low", "market_gravity_weight": 75 }, "geometry": { "type": "Point", "coordinates": [ -96.972908855168996, 32.95320929828474 ] } },
{ "type": "Feature", "properties": { "id": "48_11", "growth_scenario": "low", "market_gravity_weight": 75 }, "geometry": { "type": "Point", "coordinates": [ -96.955182581491712, 33.009276403235262 ] } },
{ "type": "Feature", "properties": { "id": "48_12", "growth_scenario": "low", "market_gravity_weight": 75 }, "geometry": { "type": "Point", "coordinates": [ -98.714737987990759, 29.42332094256577 ] } },
{ "type": "Feature", "properties": { "id": "48_13", "growth_scenario": "low", "market_gravity_weight": 75 }, "geometry": { "type": "Point", "coordinates": [ -96.957149123629563, 33.011589727009067 ] } },
{ "type": "Feature", "properties": { "id": "48_14", "growth_scenario": "low", "market_gravity_weight": 75 }, "geometry": { "type": "Point", "coordinates": [ -96.966008735354023, 32.952192531502369 ] } },
{ "type": "Feature", "properties": { "id": "48_15", "growth_scenario": "low", "market_gravity_weight": 75 }, "geometry": { "type": "Point", "coordinates": [ -97.020811499726349, 32.995804995921837 ] } },
{ "type": "Feature", "properties": { "id": "48_16", "growth_scenario": "low", "market_gravity_weight": 75 }, "geometry": { "type": "Point", "coordinates": [ -96.972870297375906, 32.950073087854648 ] } },
{ "type": "Feature", "properties": { "id": "48_17", "growth_scenario": "low", "market_gravity_weight": 75 }, "geometry": { "type": "Point", "coordinates": [ -97.020858920849761, 32.999478564229186 ] } },
{ "type": "Feature", "properties": { "id": "48_18", "growth_scenario": "low", "market_gravity_weight": 75 }, "geometry": { "type": "Point", "coordinates": [ -97.021429683470302, 33.001982516740192 ] } },
{ "type": "Feature", "properties": { "id": "48_19", "growth_scenario": "low", "market_gravity_weight": 75 }, "geometry": { "type": "Point", "coordinates": [ -96.970253720448952, 32.94731727523029 ] } },
{ "type": "Feature", "properties": { "id": "48_2", "growth_scenario": "low", "market_gravity_weight": 75 }, "geometry": { "type": "Point", "coordinates": [ -96.956977350769179, 32.979600674621281 ] } },
{ "type": "Feature", "properties": { "id": "48_20", "growth_scenario": "low", "market_gravity_weight": 75 }, "geometry": { "type": "Point", "coordinates": [ -97.709571097310629, 30.194978425518435 ] } },
{ "type": "Feature", "properties": { "id": "48_21", "growth_scenario": "low", "market_gravity_weight": 75 }, "geometry": { "type": "Point", "coordinates": [ -97.024714197322552, 32.997831064771589 ] } },
{ "type": "Feature", "properties": { "id": "48_22", "growth_scenario": "low", "market_gravity_weight": 75 }, "geometry": { "type": "Point", "coordinates": [ -96.989280052662338, 32.945630439988172 ] } },
{ "type": "Feature", "properties": { "id": "48_23", "growth_scenario": "low", "market_gravity_weight": 75 }, "geometry": { "type": "Point", "coordinates": [ -97.024435295834081, 33.001238722197677 ] } },
{ "type": "Feature", "properties": { "id": "48_24", "growth_scenario": "low", "market_gravity_weight": 75 }, "geometry": { "type": "Point", "coordinates": [ -98.707725740781797, 29.423225381182863 ] } },
{ "type": "Feature", "properties": { "id": "48_25", "growth_scenario": "low", "market_gravity_weight": 75 }, "geometry": { "type": "Point", "coordinates": [ -96.969240313639617, 32.943651622367398 ] } },
{ "type": "Feature", "properties": { "id": "48_26", "growth_scenario": "low", "market_gravity_weight": 75 }, "geometry": { "type": "Point", "coordinates": [ -96.961492809212231, 33.023381272746647 ] } },
{ "type": "Feature", "properties": { "id": "48_27", "growth_scenario": "low", "market_gravity_weight": 75 }, "geometry": { "type": "Point", "coordinates": [ -96.967338468305911, 33.025751267152309 ] } },
{ "type": "Feature", "properties": { "id": "48_28", "growth_scenario": "low", "market_gravity_weight": 75 }, "geometry": { "type": "Point", "coordinates": [ -96.963890718700398, 33.025690803976801 ] } },
{ "type": "Feature", "properties": { "id": "48_29", "growth_scenario": "low", "market_gravity_weight": 75 }, "geometry": { "type": "Point", "coordinates": [ -96.956215269408787, 33.023425570137782 ] } },
{ "type": "Feature", "properties": { "id": "48_3", "growth_scenario": "low", "market_gravity_weight": 75 }, "geometry": { "type": "Point", "coordinates": [ -96.955548249360575, 32.986064633452081 ] } },
{ "type": "Feature", "properties": { "id": "48_30", "growth_scenario": "low", "market_gravity_weight": 75 }, "geometry": { "type": "Point", "coordinates": [ -96.991387125591871, 32.942027486818958 ] } },
{ "type": "Feature", "properties": { "id": "48_31", "growth_scenario": "low", "market_gravity_weight": 75 }, "geometry": { "type": "Point", "coordinates": [ -98.707296438500066, 29.419535016259633 ] } },
{ "type": "Feature", "properties": { "id": "48_32", "growth_scenario": "low", "market_gravity_weight": 75 }, "geometry": { "type": "Point", "coordinates": [ -96.952986279866664, 33.023631763377395 ] } },
{ "type": "Feature", "properties": { "id": "48_33", "growth_scenario": "low", "market_gravity_weight": 75 }, "geometry": { "type": "Point", "coordinates": [ -96.960462569134819, 33.027242962845023 ] } },
{ "type": "Feature", "properties": { "id": "48_4", "growth_scenario": "low", "market_gravity_weight": 75 }, "geometry": { "type": "Point", "coordinates": [ -96.955479561980198, 32.989291178673298 ] } },
{ "type": "Feature", "properties": { "id": "48_5", "growth_scenario": "low", "market_gravity_weight": 75 }, "geometry": { "type": "Point", "coordinates": [ -96.954514483557617, 32.980696628358466 ] } },
{ "type": "Feature", "properties": { "id": "48_6", "growth_scenario": "low", "market_gravity_weight": 75 }, "geometry": { "type": "Point", "coordinates": [ -98.721235549697852, 29.42658840672819 ] } },
{ "type": "Feature", "properties": { "id": "48_7", "growth_scenario": "low", "market_gravity_weight": 75 }, "geometry": { "type": "Point", "coordinates": [ -96.954872554605458, 32.992522210805227 ] } },
{ "type": "Feature", "properties": { "id": "48_8", "growth_scenario": "low", "market_gravity_weight": 75 }, "geometry": { "type": "Point", "coordinates": [ -98.718654767965674, 29.426472570436619 ] } },
{ "type": "Feature", "properties": { "id": "48_9", "growth_scenario": "low", "market_gravity_weight": 75 }, "geometry": { "type": "Point", "coordinates": [ -98.719384393725505, 29.423565651384298 ] } },
{ "type": "Feature", "properties": { "id": "49_0", "growth_scenario": "low", "market_gravity_weight": 75 }, "geometry": { "type": "Point", "coordinates": [ -111.905374634604314, 40.35870399632492 ] } },
{ "type": "Feature", "properties": { "id": "49_1", "growth_scenario": "low", "market_gravity_weight": 75 }, "geometry": { "type": "Point", "coordinates": [ -111.958707093060696, 40.371929056570956 ] } },
{ "type": "Feature", "properties": { "id": "49_2", "growth_scenario": "low", "market_gravity_weight": 75 }, "geometry": { "type": "Point", "coordinates": [ -111.869989678809446, 40.372244643180764 ] } },
{ "type": "Feature", "properties": { "id": "49_3", "growth_scenario": "low", "market_gravity_weight": 75 }, "geometry": { "type": "Point", "coordinates": [ -111.914057566580851, 40.426769199381873 ] } },
{ "type": "Feature", "properties": { "id": "51_0", "growth_scenario": "low", "market_gravity_weight": 75 }, "geometry": { "type": "Point", "coordinates": [ -77.466356678466425, 39.003919752973935 ] } },
{ "type": "Feature", "properties": { "id": "51_1", "growth_scenario": "low", "market_gravity_weight": 75 }, "geometry": { "type": "Point", "coordinates": [ -77.462934704348314, 39.006130615322647 ] } },
{ "type": "Feature", "properties": { "id": "51_10", "growth_scenario": "low", "market_gravity_weight": 75 }, "geometry": { "type": "Point", "coordinates": [ -77.415772888840081, 38.985436447366162 ] } },
{ "type": "Feature", "properties": { "id": "51_11", "growth_scenario": "low", "market_gravity_weight": 75 }, "geometry": { "type": "Point", "coordinates": [ -77.221995346444913, 38.859070150327184 ] } },
{ "type": "Feature", "properties": { "id": "51_12", "growth_scenario": "low", "market_gravity_weight": 75 }, "geometry": { "type": "Point", "coordinates": [ -77.786204649234278, 38.316788426068427 ] } },
{ "type": "Feature", "properties": { "id": "51_13", "growth_scenario": "low", "market_gravity_weight": 75 }, "geometry": { "type": "Point", "coordinates": [ -77.526278541988674, 39.070707654358927 ] } },
{ "type": "Feature", "properties": { "id": "51_14", "growth_scenario": "low", "market_gravity_weight": 75 }, "geometry": { "type": "Point", "coordinates": [ -78.371537067394328, 36.681227046173539 ] } },
{ "type": "Feature", "properties": { "id": "51_15", "growth_scenario": "low", "market_gravity_weight": 75 }, "geometry": { "type": "Point", "coordinates": [ -77.477205262280307, 38.994100939712752 ] } },
{ "type": "Feature", "properties": { "id": "51_16", "growth_scenario": "low", "market_gravity_weight": 75 }, "geometry": { "type": "Point", "coordinates": [ -77.775247429828283, 38.314054472365925 ] } },
{ "type": "Feature", "properties": { "id": "51_17", "growth_scenario": "low", "market_gravity_weight": 75 }, "geometry": { "type": "Point", "coordinates": [ -77.788554453854772, 38.313051084094951 ] } },
{ "type": "Feature", "properties": { "id": "51_18", "growth_scenario": "low", "market_gravity_weight": 75 }, "geometry": { "type": "Point", "coordinates": [ -77.782300498069063, 38.30938687074083 ] } },
{ "type": "Feature", "properties": { "id": "51_19", "growth_scenario": "low", "market_gravity_weight": 75 }, "geometry": { "type": "Point", "coordinates": [ -77.288614962434153, 38.695062652152274 ] } },
{ "type": "Feature", "properties": { "id": "51_2", "growth_scenario": "low", "market_gravity_weight": 75 }, "geometry": { "type": "Point", "coordinates": [ -77.463632233169719, 39.002507368449052 ] } },
{ "type": "Feature", "properties": { "id": "51_20", "growth_scenario": "low", "market_gravity_weight": 75 }, "geometry": { "type": "Point", "coordinates": [ -77.271663678972772, 38.709293040827603 ] } },
{ "type": "Feature", "properties": { "id": "51_21", "growth_scenario": "low", "market_gravity_weight": 75 }, "geometry": { "type": "Point", "coordinates": [ -77.531112587512652, 39.08380232706331 ] } },
{ "type": "Feature", "properties": { "id": "51_22", "growth_scenario": "low", "market_gravity_weight": 75 }, "geometry": { "type": "Point", "coordinates": [ -77.19949580233893, 38.7495154743618 ] } },
{ "type": "Feature", "properties": { "id": "51_23", "growth_scenario": "low", "market_gravity_weight": 75 }, "geometry": { "type": "Point", "coordinates": [ -77.474687058123166, 38.99281089024997 ] } },
{ "type": "Feature", "properties": { "id": "51_24", "growth_scenario": "low", "market_gravity_weight": 75 }, "geometry": { "type": "Point", "coordinates": [ -77.790102272090309, 38.311101993329451 ] } },
{ "type": "Feature", "properties": { "id": "51_25", "growth_scenario": "low", "market_gravity_weight": 75 }, "geometry": { "type": "Point", "coordinates": [ -77.520732719986412, 39.080239078573307 ] } },
{ "type": "Feature", "properties": { "id": "51_26", "growth_scenario": "low", "market_gravity_weight": 75 }, "geometry": { "type": "Point", "coordinates": [ -77.527223699261427, 39.084126309377808 ] } },
{ "type": "Feature", "properties": { "id": "51_27", "growth_scenario": "low", "market_gravity_weight": 75 }, "geometry": { "type": "Point", "coordinates": [ -77.266352530730686, 38.690100120818144 ] } },
{ "type": "Feature", "properties": { "id": "51_28", "growth_scenario": "low", "market_gravity_weight": 75 }, "geometry": { "type": "Point", "coordinates": [ -77.472281822607073, 38.991083141090044 ] } },
{ "type": "Feature", "properties": { "id": "51_29", "growth_scenario": "low", "market_gravity_weight": 75 }, "geometry": { "type": "Point", "coordinates": [ -77.488987901921249, 38.99769994194331 ] } },
{ "type": "Feature", "properties": { "id": "51_3", "growth_scenario": "low", "market_gravity_weight": 75 }, "geometry": { "type": "Point", "coordinates": [ -77.466681353596726, 38.9980574791226 ] } },
{ "type": "Feature", "properties": { "id": "51_30", "growth_scenario": "low", "market_gravity_weight": 75 }, "geometry": { "type": "Point", "coordinates": [ -78.372653014153798, 36.687659002853813 ] } },
{ "type": "Feature", "properties": { "id": "51_31", "growth_scenario": "low", "market_gravity_weight": 75 }, "geometry": { "type": "Point", "coordinates": [ -77.49016165499782, 39.000059762066073 ] } },
{ "type": "Feature", "properties": { "id": "51_32", "growth_scenario": "low", "market_gravity_weight": 75 }, "geometry": { "type": "Point", "coordinates": [ -77.454699184847485, 39.003975374224858 ] } },
{ "type": "Feature", "properties": { "id": "51_33", "growth_scenario": "low", "market_gravity_weight": 75 }, "geometry": { "type": "Point", "coordinates": [ -78.368574311690253, 36.681605002021058 ] } },
{ "type": "Feature", "properties": { "id": "51_34", "growth_scenario": "low", "market_gravity_weight": 75 }, "geometry": { "type": "Point", "coordinates": [ -77.434708813609689, 39.016501465581321 ] } },
{ "type": "Feature", "properties": { "id": "51_35", "growth_scenario": "low", "market_gravity_weight": 75 }, "geometry": { "type": "Point", "coordinates": [ -77.787311083279093, 38.319408092260552 ] } },
{ "type": "Feature", "properties": { "id": "51_36", "growth_scenario": "low", "market_gravity_weight": 75 }, "geometry": { "type": "Point", "coordinates": [ -77.78991980538872, 38.316981863083193 ] } },
{ "type": "Feature", "properties": { "id": "51_37", "growth_scenario": "low", "market_gravity_weight": 75 }, "geometry": { "type": "Point", "coordinates": [ -77.78571249101455, 38.308444450380172 ] } },
{ "type": "Feature", "properties": { "id": "51_38", "growth_scenario": "low", "market_gravity_weight": 75 }, "geometry": { "type": "Point", "coordinates": [ -78.355016742147086, 36.681591330222076 ] } },
{ "type": "Feature", "properties": { "id": "51_39", "growth_scenario": "low", "market_gravity_weight": 75 }, "geometry": { "type": "Point", "coordinates": [ -78.349539648891337, 36.68722656541798 ] } },
{ "type": "Feature", "properties": { "id": "51_4", "growth_scenario": "low", "market_gravity_weight": 75 }, "geometry": { "type": "Point", "coordinates": [ -78.378871147101364, 36.678409304300885 ] } },
{ "type": "Feature", "properties": { "id": "51_40", "growth_scenario": "low", "market_gravity_weight": 75 }, "geometry": { "type": "Point", "coordinates": [ -77.523893811896485, 39.069348280771912 ] } },
{ "type": "Feature", "properties": { "id": "51_41", "growth_scenario": "low", "market_gravity_weight": 75 }, "geometry": { "type": "Point", "coordinates": [ -78.349117870844708, 36.684166796689134 ] } },
{ "type": "Feature", "properties": { "id": "51_42", "growth_scenario": "low", "market_gravity_weight": 75 }, "geometry": { "type": "Point", "coordinates": [ -78.369921042519735, 36.67835362367186 ] } },
{ "type": "Feature", "properties": { "id": "51_43", "growth_scenario": "low", "market_gravity_weight": 75 }, "geometry": { "type": "Point", "coordinates": [ -77.462126427158509, 38.995913482530781 ] } },
{ "type": "Feature", "properties": { "id": "51_44", "growth_scenario": "low", "market_gravity_weight": 75 }, "geometry": { "type": "Point", "coordinates": [ -78.354799679668858, 36.686372653017905 ] } },
{ "type": "Feature", "properties": { "id": "51_45", "growth_scenario": "low", "market_gravity_weight": 75 }, "geometry": { "type": "Point", "coordinates": [ -77.792096953636161, 38.314400037882727 ] } },
{ "type": "Feature", "properties": { "id": "51_46", "growth_scenario": "low", "market_gravity_weight": 75 }, "geometry": { "type": "Point", "coordinates": [ -77.779022420881162, 38.30698664844509 ] } },
{ "type": "Feature", "properties": { "id": "51_47", "growth_scenario": "low", "market_gravity_weight": 75 }, "geometry": { "type": "Point", "coordinates": [ -77.789420427783966, 38.307728078655273 ] } },
{ "type": "Feature", "properties": { "id": "51_48", "growth_scenario": "low", "market_gravity_weight": 75 }, "geometry": { "type": "Point", "coordinates": [ -78.853428471505822, 38.468209135133243 ] } },
{ "type": "Feature", "properties": { "id": "51_49", "growth_scenario": "low", "market_gravity_weight": 75 }, "geometry": { "type": "Point", "coordinates": [ -77.517756341274634, 39.073789051654025 ] } },
{ "type": "Feature", "properties": { "id": "51_5", "growth_scenario": "low", "market_gravity_weight": 75 }, "geometry": { "type": "Point", "coordinates": [ -77.785906949484243, 38.313290309269263 ] } },
{ "type": "Feature", "properties": { "id": "51_50", "growth_scenario": "low", "market_gravity_weight": 75 }, "geometry": { "type": "Point", "coordinates": [ -78.369475442086653, 36.685553055601346 ] } },
{ "type": "Feature", "properties": { "id": "51_51", "growth_scenario": "low", "market_gravity_weight": 75 }, "geometry": { "type": "Point", "coordinates": [ -77.270091243820062, 38.705321618056651 ] } },
{ "type": "Feature", "properties": { "id": "51_6", "growth_scenario": "low", "market_gravity_weight": 75 }, "geometry": { "type": "Point", "coordinates": [ -77.263532680097072, 38.697764321019378 ] } },
{ "type": "Feature", "properties": { "id": "51_7", "growth_scenario": "low", "market_gravity_weight": 75 }, "geometry": { "type": "Point", "coordinates": [ -77.466811208998678, 38.995712570867923 ] } },
{ "type": "Feature", "properties": { "id": "51_8", "growth_scenario": "low", "market_gravity_weight": 75 }, "geometry": { "type": "Point", "coordinates": [ -78.373368142018705, 36.68513131216941 ] } },
{ "type": "Feature", "properties": { "id": "51_9", "growth_scenario": "low", "market_gravity_weight": 75 }, "geometry": { "type": "Point", "coordinates": [ -77.46444542659853, 38.999356345407016 ] } },
{ "type": "Feature", "properties": { "id": "53_0", "growth_scenario": "low", "market_gravity_weight": 75 }, "geometry": { "type": "Point", "coordinates": [ -119.872788375372352, 47.243695566793072 ] } },
{ "type": "Feature", "properties": { "id": "53_1", "growth_scenario": "low", "market_gravity_weight": 75 }, "geometry": { "type": "Point", "coordinates": [ -119.898922409550678, 47.237768248877998 ] } },
{ "type": "Feature", "properties": { "id": "53_2", "growth_scenario": "low", "market_gravity_weight": 75 }, "geometry": { "type": "Point", "coordinates": [ -119.87789637787246, 47.230841665701654 ] } },
{ "type": "Feature", "properties": { "id": "53_3", "growth_scenario": "low", "market_gravity_weight": 75 }, "geometry": { "type": "Point", "coordinates": [ -119.877623503279665, 47.242841213833167 ] } },
{ "type": "Feature", "properties": { "id": "53_4", "growth_scenario": "low", "market_gravity_weight": 75 }, "geometry": { "type": "Point", "coordinates": [ -119.86481291737708, 47.217561800350694 ] } },
{ "type": "Feature", "properties": { "id": "53_5", "growth_scenario": "low", "market_gravity_weight": 75 }, "geometry": { "type": "Point", "coordinates": [ -119.899722906139459, 47.234825393219815 ] } },
{ "type": "Feature", "properties": { "id": "53_6", "growth_scenario": "low", "market_gravity_weight": 75 }, "geometry": { "type": "Point", "coordinates": [ -119.869460820941441, 47.245683978554332 ] } },
{ "type": "Feature", "properties": { "id": "53_7", "growth_scenario": "low", "market_gravity_weight": 75 }, "geometry": { "type": "Point", "coordinates": [ -119.889975640807748, 47.241778257987022 ] } },
{ "type": "Feature", "properties": { "id": "56_0", "growth_scenario": "low", "market_gravity_weight": 75 }, "geometry": { "type": "Point", "coordinates": [ -104.835057688910425, 41.10251738288185 ] } },
{ "type": "Feature", "properties": { "id": "56_1", "growth_scenario": "low", "market_gravity_weight": 75 }, "geometry": { "type": "Point", "coordinates": [ -104.832913790390961, 41.108496728884901 ] } }
]
}
