{
"type": "FeatureCollection",
"name": "moderate_growth_100_market_gravity_epsg4326_centroids",
"crs": { "type": "name", "properties": { "name": "urn:ogc:def:crs:OGC:1.3:CRS84" } },
"features": [
{ "type": "Feature", "properties": { "id": "1_0", "growth_scenario": "moderate", "market_gravity_weight": 100 }, "geometry": { "type": "Point", "coordinates": [ -86.626063192751985, 34.836800523816258 ] } },
{ "type": "Feature", "properties": { "id": "1_1", "growth_scenario": "moderate", "market_gravity_weight": 100 }, "geometry": { "type": "Point", "coordinates": [ -86.637299903992812, 34.8473131456876 ] } },
{ "type": "Feature", "properties": { "id": "1_2", "growth_scenario": "moderate", "market_gravity_weight": 100 }, "geometry": { "type": "Point", "coordinates": [ -86.621764029783122, 34.837533413037001 ] } },
{ "type": "Feature", "properties": { "id": "4_0", "growth_scenario": "moderate", "market_gravity_weight": 100 }, "geometry": { "type": "Point", "coordinates": [ -111.799503071621089, 33.383776817120889 ] } },
{ "type": "Feature", "properties": { "id": "4_1", "growth_scenario": "moderate", "market_gravity_weight": 100 }, "geometry": { "type": "Point", "coordinates": [ -111.778890117146929, 33.47053330270586 ] } },
{ "type": "Feature", "properties": { "id": "4_10", "growth_scenario": "moderate", "market_gravity_weight": 100 }, "geometry": { "type": "Point", "coordinates": [ -111.719491887192902, 33.33357242222764 ] } },
{ "type": "Feature", "properties": { "id": "4_11", "growth_scenario": "moderate", "market_gravity_weight": 100 }, "geometry": { "type": "Point", "coordinates": [ -111.716611933048497, 33.333425775302082 ] } },
{ "type": "Feature", "properties": { "id": "4_12", "growth_scenario": "moderate", "market_gravity_weight": 100 }, "geometry": { "type": "Point", "coordinates": [ -111.718406504992416, 33.330362914457382 ] } },
{ "type": "Feature", "properties": { "id": "4_13", "growth_scenario": "moderate", "market_gravity_weight": 100 }, "geometry": { "type": "Point", "coordinates": [ -111.714443006116653, 33.33299918801567 ] } },
{ "type": "Feature", "properties": { "id": "4_2", "growth_scenario": "moderate", "market_gravity_weight": 100 }, "geometry": { "type": "Point", "coordinates": [ -111.708603505236923, 33.384559999996867 ] } },
{ "type": "Feature", "properties": { "id": "4_3", "growth_scenario": "moderate", "market_gravity_weight": 100 }, "geometry": { "type": "Point", "coordinates": [ -111.776613645498799, 33.473390753293486 ] } },
{ "type": "Feature", "properties": { "id": "4_4", "growth_scenario": "moderate", "market_gravity_weight": 100 }, "geometry": { "type": "Point", "coordinates": [ -111.780266390676189, 33.475154560995136 ] } },
{ "type": "Feature", "properties": { "id": "4_5", "growth_scenario": "moderate", "market_gravity_weight": 100 }, "geometry": { "type": "Point", "coordinates": [ -111.912201848662534, 33.431641762691719 ] } },
{ "type": "Feature", "properties": { "id": "4_6", "growth_scenario": "moderate", "market_gravity_weight": 100 }, "geometry": { "type": "Point", "coordinates": [ -111.73811796929435, 33.454112789825508 ] } },
{ "type": "Feature", "properties": { "id": "4_7", "growth_scenario": "moderate", "market_gravity_weight": 100 }, "geometry": { "type": "Point", "coordinates": [ -111.739633157745203, 33.45726249463619 ] } },
{ "type": "Feature", "properties": { "id": "4_8", "growth_scenario": "moderate", "market_gravity_weight": 100 }, "geometry": { "type": "Point", "coordinates": [ -111.718799860066341, 33.337754041538275 ] } },
{ "type": "Feature", "properties": { "id": "4_9", "growth_scenario": "moderate", "market_gravity_weight": 100 }, "geometry": { "type": "Point", "coordinates": [ -111.74018733997832, 33.461089710579408 ] } },
{ "type": "Feature", "properties": { "id": "6_0", "growth_scenario": "moderate", "market_gravity_weight": 100 }, "geometry": { "type": "Point", "coordinates": [ -121.490179401187405, 38.65794914874634 ] } },
{ "type": "Feature", "properties": { "id": "6_1", "growth_scenario": "moderate", "market_gravity_weight": 100 }, "geometry": { "type": "Point", "coordinates": [ -121.486569288562492, 38.658619684050805 ] } },
{ "type": "Feature", "properties": { "id": "6_10", "growth_scenario": "moderate", "market_gravity_weight": 100 }, "geometry": { "type": "Point", "coordinates": [ -121.489008995050341, 38.665783604029514 ] } },
{ "type": "Feature", "properties": { "id": "6_11", "growth_scenario": "moderate", "market_gravity_weight": 100 }, "geometry": { "type": "Point", "coordinates": [ -121.47294824857569, 38.659554700838846 ] } },
{ "type": "Feature", "properties": { "id": "6_12", "growth_scenario": "moderate", "market_gravity_weight": 100 }, "geometry": { "type": "Point", "coordinates": [ -121.489226805026348, 38.667403022240975 ] } },
{ "type": "Feature", "properties": { "id": "6_13", "growth_scenario": "moderate", "market_gravity_weight": 100 }, "geometry": { "type": "Point", "coordinates": [ -121.480278235656584, 38.66559300600089 ] } },
{ "type": "Feature", "properties": { "id": "6_14", "growth_scenario": "moderate", "market_gravity_weight": 100 }, "geometry": { "type": "Point", "coordinates": [ -122.268341079376754, 38.260732874609928 ] } },
{ "type": "Feature", "properties": { "id": "6_15", "growth_scenario": "moderate", "market_gravity_weight": 100 }, "geometry": { "type": "Point", "coordinates": [ -121.47452626503545, 38.664310031788126 ] } },
{ "type": "Feature", "properties": { "id": "6_16", "growth_scenario": "moderate", "market_gravity_weight": 100 }, "geometry": { "type": "Point", "coordinates": [ -122.264964762347702, 38.261009764656997 ] } },
{ "type": "Feature", "properties": { "id": "6_17", "growth_scenario": "moderate", "market_gravity_weight": 100 }, "geometry": { "type": "Point", "coordinates": [ -121.474191548888811, 38.669099311246448 ] } },
{ "type": "Feature", "properties": { "id": "6_18", "growth_scenario": "moderate", "market_gravity_weight": 100 }, "geometry": { "type": "Point", "coordinates": [ -121.530378392662868, 38.658327662250215 ] } },
{ "type": "Feature", "properties": { "id": "6_19", "growth_scenario": "moderate", "market_gravity_weight": 100 }, "geometry": { "type": "Point", "coordinates": [ -121.463810934761156, 38.673049178070578 ] } },
{ "type": "Feature", "properties": { "id": "6_2", "growth_scenario": "moderate", "market_gravity_weight": 100 }, "geometry": { "type": "Point", "coordinates": [ -121.490673910392957, 38.660342804987529 ] } },
{ "type": "Feature", "properties": { "id": "6_20", "growth_scenario": "moderate", "market_gravity_weight": 100 }, "geometry": { "type": "Point", "coordinates": [ -121.533569823809884, 38.660520530652029 ] } },
{ "type": "Feature", "properties": { "id": "6_3", "growth_scenario": "moderate", "market_gravity_weight": 100 }, "geometry": { "type": "Point", "coordinates": [ -121.936370982258893, 37.424767638531428 ] } },
{ "type": "Feature", "properties": { "id": "6_4", "growth_scenario": "moderate", "market_gravity_weight": 100 }, "geometry": { "type": "Point", "coordinates": [ -121.929199497043001, 37.426244872490493 ] } },
{ "type": "Feature", "properties": { "id": "6_5", "growth_scenario": "moderate", "market_gravity_weight": 100 }, "geometry": { "type": "Point", "coordinates": [ -121.4884085820199, 38.661746878756183 ] } },
{ "type": "Feature", "properties": { "id": "6_6", "growth_scenario": "moderate", "market_gravity_weight": 100 }, "geometry": { "type": "Point", "coordinates": [ -121.482224433586723, 38.637702409015198 ] } },
{ "type": "Feature", "properties": { "id": "6_7", "growth_scenario": "moderate", "market_gravity_weight": 100 }, "geometry": { "type": "Point", "coordinates": [ -121.931949670300057, 37.429627290024847 ] } },
{ "type": "Feature", "properties": { "id": "6_8", "growth_scenario": "moderate", "market_gravity_weight": 100 }, "geometry": { "type": "Point", "coordinates": [ -121.491699640319581, 38.663549434257192 ] } },
{ "type": "Feature", "properties": { "id": "6_9", "growth_scenario": "moderate", "market_gravity_weight": 100 }, "geometry": { "type": "Point", "coordinates": [ -121.486724684098021, 38.663768210907442 ] } },
{ "type": "Feature", "properties": { "id": "8_0", "growth_scenario": "moderate", "market_gravity_weight": 100 }, "geometry": { "type": "Point", "coordinates": [ -104.782841603852589, 38.986174679237067 ] } },
{ "type": "Feature", "properties": { "id": "8_1", "growth_scenario": "moderate", "market_gravity_weight": 100 }, "geometry": { "type": "Point", "coordinates": [ -105.014525012010196, 39.989104629933635 ] } },
{ "type": "Feature", "properties": { "id": "8_2", "growth_scenario": "moderate", "market_gravity_weight": 100 }, "geometry": { "type": "Point", "coordinates": [ -104.780211495980524, 38.984748456807651 ] } },
{ "type": "Feature", "properties": { "id": "12_0", "growth_scenario": "moderate", "market_gravity_weight": 100 }, "geometry": { "type": "Point", "coordinates": [ -80.305330888825111, 25.958958990370284 ] } },
{ "type": "Feature", "properties": { "id": "12_1", "growth_scenario": "moderate", "market_gravity_weight": 100 }, "geometry": { "type": "Point", "coordinates": [ -80.300386199985923, 25.963002414295858 ] } },
{ "type": "Feature", "properties": { "id": "12_2", "growth_scenario": "moderate", "market_gravity_weight": 100 }, "geometry": { "type": "Point", "coordinates": [ -80.30632307513504, 25.962897699509316 ] } },
{ "type": "Feature", "properties": { "id": "13_0", "growth_scenario": "moderate", "market_gravity_weight": 100 }, "geometry": { "type": "Point", "coordinates": [ -83.7013327904791, 33.599973734869408 ] } },
{ "type": "Feature", "properties": { "id": "13_1", "growth_scenario": "moderate", "market_gravity_weight": 100 }, "geometry": { "type": "Point", "coordinates": [ -83.7008125397698, 33.597028863057382 ] } },
{ "type": "Feature", "properties": { "id": "13_10", "growth_scenario": "moderate", "market_gravity_weight": 100 }, "geometry": { "type": "Point", "coordinates": [ -83.702144886077889, 33.59482461578574 ] } },
{ "type": "Feature", "properties": { "id": "13_11", "growth_scenario": "moderate", "market_gravity_weight": 100 }, "geometry": { "type": "Point", "coordinates": [ -83.692131784645724, 33.601422958974211 ] } },
{ "type": "Feature", "properties": { "id": "13_12", "growth_scenario": "moderate", "market_gravity_weight": 100 }, "geometry": { "type": "Point", "coordinates": [ -83.709745511901943, 33.604217139225042 ] } },
{ "type": "Feature", "properties": { "id": "13_13", "growth_scenario": "moderate", "market_gravity_weight": 100 }, "geometry": { "type": "Point", "coordinates": [ -83.711091721110293, 33.601924031884757 ] } },
{ "type": "Feature", "properties": { "id": "13_2", "growth_scenario": "moderate", "market_gravity_weight": 100 }, "geometry": { "type": "Point", "coordinates": [ -83.704699820049768, 33.59735597079176 ] } },
{ "type": "Feature", "properties": { "id": "13_3", "growth_scenario": "moderate", "market_gravity_weight": 100 }, "geometry": { "type": "Point", "coordinates": [ -84.426001410489974, 33.895992635726991 ] } },
{ "type": "Feature", "properties": { "id": "13_4", "growth_scenario": "moderate", "market_gravity_weight": 100 }, "geometry": { "type": "Point", "coordinates": [ -84.432340076004593, 33.896900397853173 ] } },
{ "type": "Feature", "properties": { "id": "13_5", "growth_scenario": "moderate", "market_gravity_weight": 100 }, "geometry": { "type": "Point", "coordinates": [ -84.438681903080393, 33.911061074211645 ] } },
{ "type": "Feature", "properties": { "id": "13_6", "growth_scenario": "moderate", "market_gravity_weight": 100 }, "geometry": { "type": "Point", "coordinates": [ -84.42588655333256, 33.859195470990635 ] } },
{ "type": "Feature", "properties": { "id": "13_7", "growth_scenario": "moderate", "market_gravity_weight": 100 }, "geometry": { "type": "Point", "coordinates": [ -83.706157911739766, 33.605457169311343 ] } },
{ "type": "Feature", "properties": { "id": "13_8", "growth_scenario": "moderate", "market_gravity_weight": 100 }, "geometry": { "type": "Point", "coordinates": [ -83.708363225568888, 33.599103404978592 ] } },
{ "type": "Feature", "properties": { "id": "13_9", "growth_scenario": "moderate", "market_gravity_weight": 100 }, "geometry": { "type": "Point", "coordinates": [ -83.698159705665518, 33.595118865295774 ] } },
{ "type": "Feature", "properties": { "id": "17_0", "growth_scenario": "moderate", "market_gravity_weight": 100 }, "geometry": { "type": "Point", "coordinates": [ -87.990511763530975, 42.03034399053589 ] } },
{ "type": "Feature", "properties": { "id": "17_1", "growth_scenario": "moderate", "market_gravity_weight": 100 }, "geometry": { "type": "Point", "coordinates": [ -87.987871453665974, 42.033140664853107 ] } },
{ "type": "Feature", "properties": { "id": "17_10", "growth_scenario": "moderate", "market_gravity_weight": 100 }, "geometry": { "type": "Point", "coordinates": [ -88.024833183949696, 42.045031031283145 ] } },
{ "type": "Feature", "properties": { "id": "17_11", "growth_scenario": "moderate", "market_gravity_weight": 100 }, "geometry": { "type": "Point", "coordinates": [ -88.021114190042098, 42.046595375917015 ] } },
{ "type": "Feature", "properties": { "id": "17_12", "growth_scenario": "moderate", "market_gravity_weight": 100 }, "geometry": { "type": "Point", "coordinates": [ -88.063703361849505, 42.063845935249041 ] } },
{ "type": "Feature", "properties": { "id": "17_13", "growth_scenario": "moderate", "market_gravity_weight": 100 }, "geometry": { "type": "Point", "coordinates": [ -88.065702609409328, 42.066660335055076 ] } },
{ "type": "Feature", "properties": { "id": "17_14", "growth_scenario": "moderate", "market_gravity_weight": 100 }, "geometry": { "type": "Point", "coordinates": [ -88.070087420938407, 42.067827027405237 ] } },
{ "type": "Feature", "properties": { "id": "17_15", "growth_scenario": "moderate", "market_gravity_weight": 100 }, "geometry": { "type": "Point", "coordinates": [ -88.068914096990625, 42.070625798134024 ] } },
{ "type": "Feature", "properties": { "id": "17_2", "growth_scenario": "moderate", "market_gravity_weight": 100 }, "geometry": { "type": "Point", "coordinates": [ -87.996948396127166, 42.034870549043838 ] } },
{ "type": "Feature", "properties": { "id": "17_3", "growth_scenario": "moderate", "market_gravity_weight": 100 }, "geometry": { "type": "Point", "coordinates": [ -87.994108339874188, 42.036219485459803 ] } },
{ "type": "Feature", "properties": { "id": "17_4", "growth_scenario": "moderate", "market_gravity_weight": 100 }, "geometry": { "type": "Point", "coordinates": [ -87.986874611703797, 42.037564631940874 ] } },
{ "type": "Feature", "properties": { "id": "17_5", "growth_scenario": "moderate", "market_gravity_weight": 100 }, "geometry": { "type": "Point", "coordinates": [ -87.991420075609028, 42.037308640102786 ] } },
{ "type": "Feature", "properties": { "id": "17_6", "growth_scenario": "moderate", "market_gravity_weight": 100 }, "geometry": { "type": "Point", "coordinates": [ -87.995943458213858, 42.038307165043399 ] } },
{ "type": "Feature", "properties": { "id": "17_7", "growth_scenario": "moderate", "market_gravity_weight": 100 }, "geometry": { "type": "Point", "coordinates": [ -87.990365307450219, 42.040114120296828 ] } },
{ "type": "Feature", "properties": { "id": "17_8", "growth_scenario": "moderate", "market_gravity_weight": 100 }, "geometry": { "type": "Point", "coordinates": [ -87.994282872820975, 42.041075075637771 ] } },
{ "type": "Feature", "properties": { "id": "17_9", "growth_scenario": "moderate", "market_gravity_weight": 100 }, "geometry": { "type": "Point", "coordinates": [ -88.020682767858617, 42.04396691711365 ] } },
{ "type": "Feature", "properties": { "id": "19_0", "growth_scenario": "moderate", "market_gravity_weight": 100 }, "geometry": { "type": "Point", "coordinates": [ -93.58458744573106, 41.567626572180487 ] } },
{ "type": "Feature", "properties": { "id": "19_1", "growth_scenario": "moderate", "market_gravity_weight": 100 }, "geometry": { "type": "Point", "coordinates": [ -93.573006255097837, 41.64052572888022 ] } },
{ "type": "Feature", "properties": { "id": "19_10", "growth_scenario": "moderate", "market_gravity_weight": 100 }, "geometry": { "type": "Point", "coordinates": [ -93.548351674380143, 41.646762254805282 ] } },
{ "type": "Feature", "properties": { "id": "19_11", "growth_scenario": "moderate", "market_gravity_weight": 100 }, "geometry": { "type": "Point", "coordinates": [ -93.564596508948839, 41.656278130598189 ] } },
{ "type": "Feature", "properties": { "id": "19_12", "growth_scenario": "moderate", "market_gravity_weight": 100 }, "geometry": { "type": "Point", "coordinates": [ -93.555276641614597, 41.652883243013513 ] } },
{ "type": "Feature", "properties": { "id": "19_13", "growth_scenario": "moderate", "market_gravity_weight": 100 }, "geometry": { "type": "Point", "coordinates": [ -93.526020841695313, 41.624702275233162 ] } },
{ "type": "Feature", "properties": { "id": "19_2", "growth_scenario": "moderate", "market_gravity_weight": 100 }, "geometry": { "type": "Point", "coordinates": [ -93.546736097622215, 41.571825351668046 ] } },
{ "type": "Feature", "properties": { "id": "19_3", "growth_scenario": "moderate", "market_gravity_weight": 100 }, "geometry": { "type": "Point", "coordinates": [ -93.531096127014237, 41.593871900042068 ] } },
{ "type": "Feature", "properties": { "id": "19_4", "growth_scenario": "moderate", "market_gravity_weight": 100 }, "geometry": { "type": "Point", "coordinates": [ -93.537654718808483, 41.575763258411989 ] } },
{ "type": "Feature", "properties": { "id": "19_5", "growth_scenario": "moderate", "market_gravity_weight": 100 }, "geometry": { "type": "Point", "coordinates": [ -93.527796951156759, 41.612043340960369 ] } },
{ "type": "Feature", "properties": { "id": "19_6", "growth_scenario": "moderate", "market_gravity_weight": 100 }, "geometry": { "type": "Point", "coordinates": [ -93.534322965888535, 41.574269216051292 ] } },
{ "type": "Feature", "properties": { "id": "19_7", "growth_scenario": "moderate", "market_gravity_weight": 100 }, "geometry": { "type": "Point", "coordinates": [ -93.553345624200304, 41.64927090217104 ] } },
{ "type": "Feature", "properties": { "id": "19_8", "growth_scenario": "moderate", "market_gravity_weight": 100 }, "geometry": { "type": "Point", "coordinates": [ -93.558327501663584, 41.652136687952002 ] } },
{ "type": "Feature", "properties": { "id": "19_9", "growth_scenario": "moderate", "market_gravity_weight": 100 }, "geometry": { "type": "Point", "coordinates": [ -93.564062791029357, 41.549630824208101 ] } },
{ "type": "Feature", "properties": { "id": "21_0", "growth_scenario": "moderate", "market_gravity_weight": 100 }, "geometry": { "type": "Point", "coordinates": [ -87.521370046763565, 37.33398770781988 ] } },
{ "type": "Feature", "properties": { "id": "21_1", "growth_scenario": "moderate", "market_gravity_weight": 100 }, "geometry": { "type": "Point", "coordinates": [ -87.512757149045783, 37.340282543293135 ] } },
{ "type": "Feature", "properties": { "id": "21_2", "growth_scenario": "moderate", "market_gravity_weight": 100 }, "geometry": { "type": "Point", "coordinates": [ -87.345827058312253, 36.643501360298131 ] } },
{ "type": "Feature", "properties": { "id": "25_0", "growth_scenario": "moderate", "market_gravity_weight": 100 }, "geometry": { "type": "Point", "coordinates": [ -71.424466204797184, 42.684538117047865 ] } },
{ "type": "Feature", "properties": { "id": "25_1", "growth_scenario": "moderate", "market_gravity_weight": 100 }, "geometry": { "type": "Point", "coordinates": [ -71.4162536114804, 42.685823605341547 ] } },
{ "type": "Feature", "properties": { "id": "26_0", "growth_scenario": "moderate", "market_gravity_weight": 100 }, "geometry": { "type": "Point", "coordinates": [ -85.687399624425396, 42.852286705465623 ] } },
{ "type": "Feature", "properties": { "id": "27_0", "growth_scenario": "moderate", "market_gravity_weight": 100 }, "geometry": { "type": "Point", "coordinates": [ -93.454304058850965, 44.898424648731762 ] } },
{ "type": "Feature", "properties": { "id": "29_0", "growth_scenario": "moderate", "market_gravity_weight": 100 }, "geometry": { "type": "Point", "coordinates": [ -94.592116071311565, 39.319007760958691 ] } },
{ "type": "Feature", "properties": { "id": "29_1", "growth_scenario": "moderate", "market_gravity_weight": 100 }, "geometry": { "type": "Point", "coordinates": [ -94.591343583121471, 39.316589666202425 ] } },
{ "type": "Feature", "properties": { "id": "30_0", "growth_scenario": "moderate", "market_gravity_weight": 100 }, "geometry": { "type": "Point", "coordinates": [ -114.018592733678716, 46.899132219352509 ] } },
{ "type": "Feature", "properties": { "id": "31_0", "growth_scenario": "moderate", "market_gravity_weight": 100 }, "geometry": { "type": "Point", "coordinates": [ -96.087839219032162, 41.141565470667175 ] } },
{ "type": "Feature", "properties": { "id": "31_1", "growth_scenario": "moderate", "market_gravity_weight": 100 }, "geometry": { "type": "Point", "coordinates": [ -96.102473676659017, 41.130925863260906 ] } },
{ "type": "Feature", "properties": { "id": "31_2", "growth_scenario": "moderate", "market_gravity_weight": 100 }, "geometry": { "type": "Point", "coordinates": [ -96.105233924350514, 41.13011977137301 ] } },
{ "type": "Feature", "properties": { "id": "31_3", "growth_scenario": "moderate", "market_gravity_weight": 100 }, "geometry": { "type": "Point", "coordinates": [ -96.102588684733107, 41.127442434127929 ] } },
{ "type": "Feature", "properties": { "id": "31_4", "growth_scenario": "moderate", "market_gravity_weight": 100 }, "geometry": { "type": "Point", "coordinates": [ -96.093219889681365, 41.124144920431569 ] } },
{ "type": "Feature", "properties": { "id": "31_5", "growth_scenario": "moderate", "market_gravity_weight": 100 }, "geometry": { "type": "Point", "coordinates": [ -96.109677443875526, 41.130919881591502 ] } },
{ "type": "Feature", "properties": { "id": "31_6", "growth_scenario": "moderate", "market_gravity_weight": 100 }, "geometry": { "type": "Point", "coordinates": [ -96.105588772741754, 41.126546827913451 ] } },
{ "type": "Feature", "properties": { "id": "31_7", "growth_scenario": "moderate", "market_gravity_weight": 100 }, "geometry": { "type": "Point", "coordinates": [ -96.101023733628665, 41.124496250727503 ] } },
{ "type": "Feature", "properties": { "id": "32_0", "growth_scenario": "moderate", "market_gravity_weight": 100 }, "geometry": { "type": "Point", "coordinates": [ -115.202239604344655, 36.079204912178533 ] } },
{ "type": "Feature", "properties": { "id": "32_1", "growth_scenario": "moderate", "market_gravity_weight": 100 }, "geometry": { "type": "Point", "coordinates": [ -115.237975032452084, 36.079837312428587 ] } },
{ "type": "Feature", "properties": { "id": "32_2", "growth_scenario": "moderate", "market_gravity_weight": 100 }, "geometry": { "type": "Point", "coordinates": [ -115.177518410121777, 36.047509180181727 ] } },
{ "type": "Feature", "properties": { "id": "32_3", "growth_scenario": "moderate", "market_gravity_weight": 100 }, "geometry": { "type": "Point", "coordinates": [ -115.17521900698469, 36.044785259213967 ] } },
{ "type": "Feature", "properties": { "id": "32_4", "growth_scenario": "moderate", "market_gravity_weight": 100 }, "geometry": { "type": "Point", "coordinates": [ -115.254558799775452, 36.058527017210181 ] } },
{ "type": "Feature", "properties": { "id": "32_5", "growth_scenario": "moderate", "market_gravity_weight": 100 }, "geometry": { "type": "Point", "coordinates": [ -115.256133818963121, 36.06419451381484 ] } },
{ "type": "Feature", "properties": { "id": "32_6", "growth_scenario": "moderate", "market_gravity_weight": 100 }, "geometry": { "type": "Point", "coordinates": [ -115.196562432994739, 36.024621672225614 ] } },
{ "type": "Feature", "properties": { "id": "34_0", "growth_scenario": "moderate", "market_gravity_weight": 100 }, "geometry": { "type": "Point", "coordinates": [ -74.369220446425587, 40.583638490961583 ] } },
{ "type": "Feature", "properties": { "id": "34_1", "growth_scenario": "moderate", "market_gravity_weight": 100 }, "geometry": { "type": "Point", "coordinates": [ -74.161433027089686, 40.660713633983782 ] } },
{ "type": "Feature", "properties": { "id": "34_2", "growth_scenario": "moderate", "market_gravity_weight": 100 }, "geometry": { "type": "Point", "coordinates": [ -74.486049531409606, 40.613293898343414 ] } },
{ "type": "Feature", "properties": { "id": "34_3", "growth_scenario": "moderate", "market_gravity_weight": 100 }, "geometry": { "type": "Point", "coordinates": [ -74.436824876263557, 40.549172955072883 ] } },
{ "type": "Feature", "properties": { "id": "34_4", "growth_scenario": "moderate", "market_gravity_weight": 100 }, "geometry": { "type": "Point", "coordinates": [ -74.442867762717981, 40.54462970620343 ] } },
{ "type": "Feature", "properties": { "id": "34_5", "growth_scenario": "moderate", "market_gravity_weight": 100 }, "geometry": { "type": "Point", "coordinates": [ -74.339294030592981, 40.828113424648777 ] } },
{ "type": "Feature", "properties": { "id": "34_6", "growth_scenario": "moderate", "market_gravity_weight": 100 }, "geometry": { "type": "Point", "coordinates": [ -74.503278554516896, 40.597026233754995 ] } },
{ "type": "Feature", "properties": { "id": "34_7", "growth_scenario": "moderate", "market_gravity_weight": 100 }, "geometry": { "type": "Point", "coordinates": [ -74.115357505391515, 40.789464543256734 ] } },
{ "type": "Feature", "properties": { "id": "34_8", "growth_scenario": "moderate", "market_gravity_weight": 100 }, "geometry": { "type": "Point", "coordinates": [ -74.379008148102201, 40.489026039158517 ] } },
{ "type": "Feature", "properties": { "id": "36_0", "growth_scenario": "moderate", "market_gravity_weight": 100 }, "geometry": { "type": "Point", "coordinates": [ -74.029085506764517, 41.075873856370876 ] } },
{ "type": "Feature", "properties": { "id": "36_1", "growth_scenario": "moderate", "market_gravity_weight": 100 }, "geometry": { "type": "Point", "coordinates": [ -74.028981937681422, 41.07970935628277 ] } },
{ "type": "Feature", "properties": { "id": "36_2", "growth_scenario": "moderate", "market_gravity_weight": 100 }, "geometry": { "type": "Point", "coordinates": [ -74.030458625986753, 41.082445463469995 ] } },
{ "type": "Feature", "properties": { "id": "36_3", "growth_scenario": "moderate", "market_gravity_weight": 100 }, "geometry": { "type": "Point", "coordinates": [ -74.026027505227617, 41.082035977650854 ] } },
{ "type": "Feature", "properties": { "id": "36_4", "growth_scenario": "moderate", "market_gravity_weight": 100 }, "geometry": { "type": "Point", "coordinates": [ -74.023128222448207, 41.082628884096614 ] } },
{ "type": "Feature", "properties": { "id": "36_5", "growth_scenario": "moderate", "market_gravity_weight": 100 }, "geometry": { "type": "Point", "coordinates": [ -74.02808808748695, 41.084874455166364 ] } },
{ "type": "Feature", "properties": { "id": "36_6", "growth_scenario": "moderate", "market_gravity_weight": 100 }, "geometry": { "type": "Point", "coordinates": [ -74.054637105363142, 41.094478112852215 ] } },
{ "type": "Feature", "properties": { "id": "36_7", "growth_scenario": "moderate", "market_gravity_weight": 100 }, "geometry": { "type": "Point", "coordinates": [ -74.132374188824812, 41.117320281567025 ] } },
{ "type": "Feature", "properties": { "id": "36_8", "growth_scenario": "moderate", "market_gravity_weight": 100 }, "geometry": { "type": "Point", "coordinates": [ -74.186202066590425, 41.128065569911307 ] } },
{ "type": "Feature", "properties": { "id": "37_0", "growth_scenario": "moderate", "market_gravity_weight": 100 }, "geometry": { "type": "Point", "coordinates": [ -81.526856393562838, 35.320122434643729 ] } },
{ "type": "Feature", "properties": { "id": "37_1", "growth_scenario": "moderate", "market_gravity_weight": 100 }, "geometry": { "type": "Point", "coordinates": [ -81.5271338260942, 35.318077624691234 ] } },
{ "type": "Feature", "properties": { "id": "37_2", "growth_scenario": "moderate", "market_gravity_weight": 100 }, "geometry": { "type": "Point", "coordinates": [ -81.507709298894369, 35.315765144530815 ] } },
{ "type": "Feature", "properties": { "id": "37_3", "growth_scenario": "moderate", "market_gravity_weight": 100 }, "geometry": { "type": "Point", "coordinates": [ -81.53992679986257, 35.315138620080731 ] } },
{ "type": "Feature", "properties": { "id": "37_4", "growth_scenario": "moderate", "market_gravity_weight": 100 }, "geometry": { "type": "Point", "coordinates": [ -81.535684792722307, 35.315608949395831 ] } },
{ "type": "Feature", "properties": { "id": "37_5", "growth_scenario": "moderate", "market_gravity_weight": 100 }, "geometry": { "type": "Point", "coordinates": [ -81.533786495475624, 35.314380056634334 ] } },
{ "type": "Feature", "properties": { "id": "38_0", "growth_scenario": "moderate", "market_gravity_weight": 100 }, "geometry": { "type": "Point", "coordinates": [ -96.823272696442444, 46.894029602663124 ] } },
{ "type": "Feature", "properties": { "id": "38_1", "growth_scenario": "moderate", "market_gravity_weight": 100 }, "geometry": { "type": "Point", "coordinates": [ -96.874936127968354, 46.887838400731944 ] } },
{ "type": "Feature", "properties": { "id": "38_2", "growth_scenario": "moderate", "market_gravity_weight": 100 }, "geometry": { "type": "Point", "coordinates": [ -96.878609983430124, 46.888989368866817 ] } },
{ "type": "Feature", "properties": { "id": "38_3", "growth_scenario": "moderate", "market_gravity_weight": 100 }, "geometry": { "type": "Point", "coordinates": [ -96.850043481663391, 46.912928995215246 ] } },
{ "type": "Feature", "properties": { "id": "38_4", "growth_scenario": "moderate", "market_gravity_weight": 100 }, "geometry": { "type": "Point", "coordinates": [ -96.853845481996672, 46.913808893485594 ] } },
{ "type": "Feature", "properties": { "id": "38_5", "growth_scenario": "moderate", "market_gravity_weight": 100 }, "geometry": { "type": "Point", "coordinates": [ -96.850086740220178, 46.916271532643812 ] } },
{ "type": "Feature", "properties": { "id": "38_6", "growth_scenario": "moderate", "market_gravity_weight": 100 }, "geometry": { "type": "Point", "coordinates": [ -96.855964939945892, 46.915964023703488 ] } },
{ "type": "Feature", "properties": { "id": "38_7", "growth_scenario": "moderate", "market_gravity_weight": 100 }, "geometry": { "type": "Point", "coordinates": [ -96.878075970964048, 46.907693497336268 ] } },
{ "type": "Feature", "properties": { "id": "39_0", "growth_scenario": "moderate", "market_gravity_weight": 100 }, "geometry": { "type": "Point", "coordinates": [ -82.919705669892352, 39.877213926710432 ] } },
{ "type": "Feature", "properties": { "id": "39_1", "growth_scenario": "moderate", "market_gravity_weight": 100 }, "geometry": { "type": "Point", "coordinates": [ -82.897501876862449, 39.880741653432622 ] } },
{ "type": "Feature", "properties": { "id": "39_2", "growth_scenario": "moderate", "market_gravity_weight": 100 }, "geometry": { "type": "Point", "coordinates": [ -82.99122477860702, 39.871624480912836 ] } },
{ "type": "Feature", "properties": { "id": "39_3", "growth_scenario": "moderate", "market_gravity_weight": 100 }, "geometry": { "type": "Point", "coordinates": [ -82.895258725777254, 39.879334903131848 ] } },
{ "type": "Feature", "properties": { "id": "39_4", "growth_scenario": "moderate", "market_gravity_weight": 100 }, "geometry": { "type": "Point", "coordinates": [ -82.977536514504195, 39.867674749449392 ] } },
{ "type": "Feature", "properties": { "id": "40_0", "growth_scenario": "moderate", "market_gravity_weight": 100 }, "geometry": { "type": "Point", "coordinates": [ -97.009339457847346, 36.123579132550873 ] } },
{ "type": "Feature", "properties": { "id": "40_1", "growth_scenario": "moderate", "market_gravity_weight": 100 }, "geometry": { "type": "Point", "coordinates": [ -97.012507183459647, 36.125695409913078 ] } },
{ "type": "Feature", "properties": { "id": "41_0", "growth_scenario": "moderate", "market_gravity_weight": 100 }, "geometry": { "type": "Point", "coordinates": [ -120.875460179758619, 44.291320149491234 ] } },
{ "type": "Feature", "properties": { "id": "41_1", "growth_scenario": "moderate", "market_gravity_weight": 100 }, "geometry": { "type": "Point", "coordinates": [ -120.871072782450071, 44.29141616432323 ] } },
{ "type": "Feature", "properties": { "id": "41_10", "growth_scenario": "moderate", "market_gravity_weight": 100 }, "geometry": { "type": "Point", "coordinates": [ -122.91446892490049, 45.56921453298915 ] } },
{ "type": "Feature", "properties": { "id": "41_11", "growth_scenario": "moderate", "market_gravity_weight": 100 }, "geometry": { "type": "Point", "coordinates": [ -120.86592040098094, 44.288778822767576 ] } },
{ "type": "Feature", "properties": { "id": "41_12", "growth_scenario": "moderate", "market_gravity_weight": 100 }, "geometry": { "type": "Point", "coordinates": [ -122.92007731260442, 45.571160533221736 ] } },
{ "type": "Feature", "properties": { "id": "41_13", "growth_scenario": "moderate", "market_gravity_weight": 100 }, "geometry": { "type": "Point", "coordinates": [ -122.944148533159108, 45.552643769982069 ] } },
{ "type": "Feature", "properties": { "id": "41_2", "growth_scenario": "moderate", "market_gravity_weight": 100 }, "geometry": { "type": "Point", "coordinates": [ -120.883723181003631, 44.290110915102261 ] } },
{ "type": "Feature", "properties": { "id": "41_3", "growth_scenario": "moderate", "market_gravity_weight": 100 }, "geometry": { "type": "Point", "coordinates": [ -122.937536584468262, 45.56243312066006 ] } },
{ "type": "Feature", "properties": { "id": "41_4", "growth_scenario": "moderate", "market_gravity_weight": 100 }, "geometry": { "type": "Point", "coordinates": [ -122.930489534809979, 45.568280636189613 ] } },
{ "type": "Feature", "properties": { "id": "41_5", "growth_scenario": "moderate", "market_gravity_weight": 100 }, "geometry": { "type": "Point", "coordinates": [ -122.941399456524906, 45.561454900682278 ] } },
{ "type": "Feature", "properties": { "id": "41_6", "growth_scenario": "moderate", "market_gravity_weight": 100 }, "geometry": { "type": "Point", "coordinates": [ -122.92839294388402, 45.570303017057313 ] } },
{ "type": "Feature", "properties": { "id": "41_7", "growth_scenario": "moderate", "market_gravity_weight": 100 }, "geometry": { "type": "Point", "coordinates": [ -122.940875689884763, 45.564374063182058 ] } },
{ "type": "Feature", "properties": { "id": "41_8", "growth_scenario": "moderate", "market_gravity_weight": 100 }, "geometry": { "type": "Point", "coordinates": [ -122.939260706584051, 45.567235409033856 ] } },
{ "type": "Feature", "properties": { "id": "41_9", "growth_scenario": "moderate", "market_gravity_weight": 100 }, "geometry": { "type": "Point", "coordinates": [ -122.933895589430719, 45.56973944496827 ] } },
{ "type": "Feature", "properties": { "id": "42_0", "growth_scenario": "moderate", "market_gravity_weight": 100 }, "geometry": { "type": "Point", "coordinates": [ -77.550262766425234, 39.728062327624805 ] } },
{ "type": "Feature", "properties": { "id": "42_1", "growth_scenario": "moderate", "market_gravity_weight": 100 }, "geometry": { "type": "Point", "coordinates": [ -77.562800594691964, 39.728293275986566 ] } },
{ "type": "Feature", "properties": { "id": "42_2", "growth_scenario": "moderate", "market_gravity_weight": 100 }, "geometry": { "type": "Point", "coordinates": [ -77.554697752910002, 39.728541335390318 ] } },
{ "type": "Feature", "properties": { "id": "42_3", "growth_scenario": "moderate", "market_gravity_weight": 100 }, "geometry": { "type": "Point", "coordinates": [ -77.546505919029201, 39.729594139058193 ] } },
{ "type": "Feature", "properties": { "id": "42_4", "growth_scenario": "moderate", "market_gravity_weight": 100 }, "geometry": { "type": "Point", "coordinates": [ -77.566152677047683, 39.729247185138242 ] } },
{ "type": "Feature", "properties": { "id": "42_5", "growth_scenario": "moderate", "market_gravity_weight": 100 }, "geometry": { "type": "Point", "coordinates": [ -77.558511812695144, 39.729564295906314 ] } },
{ "type": "Feature", "properties": { "id": "42_6", "growth_scenario": "moderate", "market_gravity_weight": 100 }, "geometry": { "type": "Point", "coordinates": [ -77.553022269080884, 39.730838164725974 ] } },
{ "type": "Feature", "properties": { "id": "42_7", "growth_scenario": "moderate", "market_gravity_weight": 100 }, "geometry": { "type": "Point", "coordinates": [ -77.544667271710068, 39.731593735470483 ] } },
{ "type": "Feature", "properties": { "id": "42_8", "growth_scenario": "moderate", "market_gravity_weight": 100 }, "geometry": { "type": "Point", "coordinates": [ -77.548592983813791, 39.731724170662652 ] } },
{ "type": "Feature", "properties": { "id": "42_9", "growth_scenario": "moderate", "market_gravity_weight": 100 }, "geometry": { "type": "Point", "coordinates": [ -77.559216989647638, 39.732397690455933 ] } },
{ "type": "Feature", "properties": { "id": "45_0", "growth_scenario": "moderate", "market_gravity_weight": 100 }, "geometry": { "type": "Point", "coordinates": [ -80.044641812074801, 33.069837673823166 ] } },
{ "type": "Feature", "properties": { "id": "45_1", "growth_scenario": "moderate", "market_gravity_weight": 100 }, "geometry": { "type": "Point", "coordinates": [ -80.04167915101867, 33.070965034065637 ] } },
{ "type": "Feature", "properties": { "id": "45_2", "growth_scenario": "moderate", "market_gravity_weight": 100 }, "geometry": { "type": "Point", "coordinates": [ -80.043091368087516, 33.056533421298901 ] } },
{ "type": "Feature", "properties": { "id": "45_3", "growth_scenario": "moderate", "market_gravity_weight": 100 }, "geometry": { "type": "Point", "coordinates": [ -80.036067344663095, 33.069537936976452 ] } },
{ "type": "Feature", "properties": { "id": "47_0", "growth_scenario": "moderate", "market_gravity_weight": 100 }, "geometry": { "type": "Point", "coordinates": [ -87.260201831496559, 36.635046798546149 ] } },
{ "type": "Feature", "properties": { "id": "47_1", "growth_scenario": "moderate", "market_gravity_weight": 100 }, "geometry": { "type": "Point", "coordinates": [ -87.251190884081467, 36.627755714742513 ] } },
{ "type": "Feature", "properties": { "id": "47_2", "growth_scenario": "moderate", "market_gravity_weight": 100 }, "geometry": { "type": "Point", "coordinates": [ -87.268661828007055, 36.629567895550451 ] } },
{ "type": "Feature", "properties": { "id": "48_0", "growth_scenario": "moderate", "market_gravity_weight": 100 }, "geometry": { "type": "Point", "coordinates": [ -98.720735556924893, 29.430211710265684 ] } },
{ "type": "Feature", "properties": { "id": "48_1", "growth_scenario": "moderate", "market_gravity_weight": 100 }, "geometry": { "type": "Point", "coordinates": [ -96.957451313981664, 32.983181147474845 ] } },
{ "type": "Feature", "properties": { "id": "48_10", "growth_scenario": "moderate", "market_gravity_weight": 100 }, "geometry": { "type": "Point", "coordinates": [ -96.972908855168996, 32.95320929828474 ] } },
{ "type": "Feature", "properties": { "id": "48_11", "growth_scenario": "moderate", "market_gravity_weight": 100 }, "geometry": { "type": "Point", "coordinates": [ -96.955182581491712, 33.009276403235262 ] } },
{ "type": "Feature", "properties": { "id": "48_12", "growth_scenario": "moderate", "market_gravity_weight": 100 }, "geometry": { "type": "Point", "coordinates": [ -98.714737987990759, 29.42332094256577 ] } },
{ "type": "Feature", "properties": { "id": "48_13", "growth_scenario": "moderate", "market_gravity_weight": 100 }, "geometry": { "type": "Point", "coordinates": [ -96.957149123629563, 33.011589727009067 ] } },
{ "type": "Feature", "properties": { "id": "48_14", "growth_scenario": "moderate", "market_gravity_weight": 100 }, "geometry": { "type": "Point", "coordinates": [ -96.966008735354023, 32.952192531502369 ] } },
{ "type": "Feature", "properties": { "id": "48_15", "growth_scenario": "moderate", "market_gravity_weight": 100 }, "geometry": { "type": "Point", "coordinates": [ -97.020811499726349, 32.995804995921837 ] } },
{ "type": "Feature", "properties": { "id": "48_16", "growth_scenario": "moderate", "market_gravity_weight": 100 }, "geometry": { "type": "Point", "coordinates": [ -96.972870297375906, 32.950073087854648 ] } },
{ "type": "Feature", "properties": { "id": "48_17", "growth_scenario": "moderate", "market_gravity_weight": 100 }, "geometry": { "type": "Point", "coordinates": [ -97.020858920849761, 32.999478564229186 ] } },
{ "type": "Feature", "properties": { "id": "48_18", "growth_scenario": "moderate", "market_gravity_weight": 100 }, "geometry": { "type": "Point", "coordinates": [ -97.021429683470302, 33.001982516740192 ] } },
{ "type": "Feature", "properties": { "id": "48_19", "growth_scenario": "moderate", "market_gravity_weight": 100 }, "geometry": { "type": "Point", "coordinates": [ -96.970253720448952, 32.94731727523029 ] } },
{ "type": "Feature", "properties": { "id": "48_2", "growth_scenario": "moderate", "market_gravity_weight": 100 }, "geometry": { "type": "Point", "coordinates": [ -96.956977350769179, 32.979600674621281 ] } },
{ "type": "Feature", "properties": { "id": "48_20", "growth_scenario": "moderate", "market_gravity_weight": 100 }, "geometry": { "type": "Point", "coordinates": [ -97.709571097310629, 30.194978425518435 ] } },
{ "type": "Feature", "properties": { "id": "48_21", "growth_scenario": "moderate", "market_gravity_weight": 100 }, "geometry": { "type": "Point", "coordinates": [ -97.024714197322552, 32.997831064771589 ] } },
{ "type": "Feature", "properties": { "id": "48_22", "growth_scenario": "moderate", "market_gravity_weight": 100 }, "geometry": { "type": "Point", "coordinates": [ -96.989280052662338, 32.945630439988172 ] } },
{ "type": "Feature", "properties": { "id": "48_23", "growth_scenario": "moderate", "market_gravity_weight": 100 }, "geometry": { "type": "Point", "coordinates": [ -97.024435295834081, 33.001238722197677 ] } },
{ "type": "Feature", "properties": { "id": "48_24", "growth_scenario": "moderate", "market_gravity_weight": 100 }, "geometry": { "type": "Point", "coordinates": [ -98.707725740781797, 29.423225381182863 ] } },
{ "type": "Feature", "properties": { "id": "48_25", "growth_scenario": "moderate", "market_gravity_weight": 100 }, "geometry": { "type": "Point", "coordinates": [ -96.969240313639617, 32.943651622367398 ] } },
{ "type": "Feature", "properties": { "id": "48_26", "growth_scenario": "moderate", "market_gravity_weight": 100 }, "geometry": { "type": "Point", "coordinates": [ -96.961492809212231, 33.023381272746647 ] } },
{ "type": "Feature", "properties": { "id": "48_27", "growth_scenario": "moderate", "market_gravity_weight": 100 }, "geometry": { "type": "Point", "coordinates": [ -96.967338468305911, 33.025751267152309 ] } },
{ "type": "Feature", "properties": { "id": "48_28", "growth_scenario": "moderate", "market_gravity_weight": 100 }, "geometry": { "type": "Point", "coordinates": [ -96.963890718700398, 33.025690803976801 ] } },
{ "type": "Feature", "properties": { "id": "48_29", "growth_scenario": "moderate", "market_gravity_weight": 100 }, "geometry": { "type": "Point", "coordinates": [ -96.956215269408787, 33.023425570137782 ] } },
{ "type": "Feature", "properties": { "id": "48_3", "growth_scenario": "moderate", "market_gravity_weight": 100 }, "geometry": { "type": "Point", "coordinates": [ -96.955548249360575, 32.986064633452081 ] } },
{ "type": "Feature", "properties": { "id": "48_30", "growth_scenario": "moderate", "market_gravity_weight": 100 }, "geometry": { "type": "Point", "coordinates": [ -96.991387125591871, 32.942027486818958 ] } },
{ "type": "Feature", "properties": { "id": "48_31", "growth_scenario": "moderate", "market_gravity_weight": 100 }, "geometry": { "type": "Point", "coordinates": [ -98.707296438500066, 29.419535016259633 ] } },
{ "type": "Feature", "properties": { "id": "48_32", "growth_scenario": "moderate", "market_gravity_weight": 100 }, "geometry": { "type": "Point", "coordinates": [ -96.952986279866664, 33.023631763377395 ] } },
{ "type": "Feature", "properties": { "id": "48_33", "growth_scenario": "moderate", "market_gravity_weight": 100 }, "geometry": { "type": "Point", "coordinates": [ -96.960462569134819, 33.027242962845023 ] } },
{ "type": "Feature", "properties": { "id": "48_34", "growth_scenario": "moderate", "market_gravity_weight": 100 }, "geometry": { "type": "Point", "coordinates": [ -96.968847319258799, 32.937919480694873 ] } },
{ "type": "Feature", "properties": { "id": "48_35", "growth_scenario": "moderate", "market_gravity_weight": 100 }, "geometry": { "type": "Point", "coordinates": [ -96.949755120608486, 33.023658672562689 ] } },
{ "type": "Feature", "properties": { "id": "48_36", "growth_scenario": "moderate", "market_gravity_weight": 100 }, "geometry": { "type": "Point", "coordinates": [ -96.955497071688427, 33.026388551359112 ] } },
{ "type": "Feature", "properties": { "id": "48_37", "growth_scenario": "moderate", "market_gravity_weight": 100 }, "geometry": { "type": "Point", "coordinates": [ -97.702828273838193, 30.2109386193105 ] } },
{ "type": "Feature", "properties": { "id": "48_38", "growth_scenario": "moderate", "market_gravity_weight": 100 }, "geometry": { "type": "Point", "coordinates": [ -96.957572846221296, 33.028790502389406 ] } },
{ "type": "Feature", "properties": { "id": "48_39", "growth_scenario": "moderate", "market_gravity_weight": 100 }, "geometry": { "type": "Point", "coordinates": [ -96.952267959246043, 33.026594723369662 ] } },
{ "type": "Feature", "properties": { "id": "48_4", "growth_scenario": "moderate", "market_gravity_weight": 100 }, "geometry": { "type": "Point", "coordinates": [ -96.955479561980198, 32.989291178673298 ] } },
{ "type": "Feature", "properties": { "id": "48_40", "growth_scenario": "moderate", "market_gravity_weight": 100 }, "geometry": { "type": "Point", "coordinates": [ -96.94663166457147, 33.023684597903561 ] } },
{ "type": "Feature", "properties": { "id": "48_41", "growth_scenario": "moderate", "market_gravity_weight": 100 }, "geometry": { "type": "Point", "coordinates": [ -96.949040981301593, 33.02697999592705 ] } },
{ "type": "Feature", "properties": { "id": "48_42", "growth_scenario": "moderate", "market_gravity_weight": 100 }, "geometry": { "type": "Point", "coordinates": [ -98.703233051757621, 29.418192018890419 ] } },
{ "type": "Feature", "properties": { "id": "48_43", "growth_scenario": "moderate", "market_gravity_weight": 100 }, "geometry": { "type": "Point", "coordinates": [ -96.954141193690049, 33.030073678045426 ] } },
{ "type": "Feature", "properties": { "id": "48_44", "growth_scenario": "moderate", "market_gravity_weight": 100 }, "geometry": { "type": "Point", "coordinates": [ -98.725929605746074, 29.472325053720986 ] } },
{ "type": "Feature", "properties": { "id": "48_45", "growth_scenario": "moderate", "market_gravity_weight": 100 }, "geometry": { "type": "Point", "coordinates": [ -96.968544419071165, 32.930752632413032 ] } },
{ "type": "Feature", "properties": { "id": "48_46", "growth_scenario": "moderate", "market_gravity_weight": 100 }, "geometry": { "type": "Point", "coordinates": [ -96.951472068344899, 33.032067233368402 ] } },
{ "type": "Feature", "properties": { "id": "48_47", "growth_scenario": "moderate", "market_gravity_weight": 100 }, "geometry": { "type": "Point", "coordinates": [ -98.706167461766881, 29.410174940641468 ] } },
{ "type": "Feature", "properties": { "id": "48_48", "growth_scenario": "moderate", "market_gravity_weight": 100 }, "geometry": { "type": "Point", "coordinates": [ -98.700482243331649, 29.416003759791391 ] } },
{ "type": "Feature", "properties": { "id": "48_5", "growth_scenario": "moderate", "market_gravity_weight": 100 }, "geometry": { "type": "Point", "coordinates": [ -96.954514483557617, 32.980696628358466 ] } },
{ "type": "Feature", "properties": { "id": "48_6", "growth_scenario": "moderate", "market_gravity_weight": 100 }, "geometry": { "type": "Point", "coordinates": [ -98.721235549697852, 29.42658840672819 ] } },
{ "type": "Feature", "properties": { "id": "48_7", "growth_scenario": "moderate", "market_gravity_weight": 100 }, "geometry": { "type": "Point", "coordinates": [ -96.954872554605458, 32.992522210805227 ] } },
{ "type": "Feature", "properties": { "id": "48_8", "growth_scenario": "moderate", "market_gravity_weight": 100 }, "geometry": { "type": "Point", "coordinates": [ -98.718654767965674, 29.426472570436619 ] } },
{ "type": "Feature", "properties": { "id": "48_9", "growth_scenario": "moderate", "market_gravity_weight": 100 }, "geometry": { "type": "Point", "coordinates": [ -98.719384393725505, 29.423565651384298 ] } },
{ "type": "Feature", "properties": { "id": "49_0", "growth_scenario": "moderate", "market_gravity_weight": 100 }, "geometry": { "type": "Point", "coordinates": [ -111.925906179587429, 40.343963546856621 ] } },
{ "type": "Feature", "properties": { "id": "49_1", "growth_scenario": "moderate", "market_gravity_weight": 100 }, "geometry": { "type": "Point", "coordinates": [ -111.922367114637069, 40.34215025626365 ] } },
{ "type": "Feature", "properties": { "id": "49_2", "growth_scenario": "moderate", "market_gravity_weight": 100 }, "geometry": { "type": "Point", "coordinates": [ -111.983952205877671, 40.370611729830529 ] } },
{ "type": "Feature", "properties": { "id": "49_3", "growth_scenario": "moderate", "market_gravity_weight": 100 }, "geometry": { "type": "Point", "coordinates": [ -111.926675117537911, 40.346310162042514 ] } },
{ "type": "Feature", "properties": { "id": "49_4", "growth_scenario": "moderate", "market_gravity_weight": 100 }, "geometry": { "type": "Point", "coordinates": [ -111.924655615498111, 40.349645118351638 ] } },
{ "type": "Feature", "properties": { "id": "51_0", "growth_scenario": "moderate", "market_gravity_weight": 100 }, "geometry": { "type": "Point", "coordinates": [ -77.476257737100752, 38.9908656944489 ] } },
{ "type": "Feature", "properties": { "id": "51_1", "growth_scenario": "moderate", "market_gravity_weight": 100 }, "geometry": { "type": "Point", "coordinates": [ -77.472579648869456, 38.991310053488242 ] } },
{ "type": "Feature", "properties": { "id": "51_10", "growth_scenario": "moderate", "market_gravity_weight": 100 }, "geometry": { "type": "Point", "coordinates": [ -77.466523259822651, 38.998670181062927 ] } },
{ "type": "Feature", "properties": { "id": "51_11", "growth_scenario": "moderate", "market_gravity_weight": 100 }, "geometry": { "type": "Point", "coordinates": [ -77.460162962588484, 38.99661686860771 ] } },
{ "type": "Feature", "properties": { "id": "51_12", "growth_scenario": "moderate", "market_gravity_weight": 100 }, "geometry": { "type": "Point", "coordinates": [ -77.436429642812726, 38.908259538722199 ] } },
{ "type": "Feature", "properties": { "id": "51_13", "growth_scenario": "moderate", "market_gravity_weight": 100 }, "geometry": { "type": "Point", "coordinates": [ -77.438363430453464, 38.905824346740829 ] } },
{ "type": "Feature", "properties": { "id": "51_14", "growth_scenario": "moderate", "market_gravity_weight": 100 }, "geometry": { "type": "Point", "coordinates": [ -77.46513846017784, 39.001734763666349 ] } },
{ "type": "Feature", "properties": { "id": "51_15", "growth_scenario": "moderate", "market_gravity_weight": 100 }, "geometry": { "type": "Point", "coordinates": [ -77.465854126584247, 39.00402565016693 ] } },
{ "type": "Feature", "properties": { "id": "51_16", "growth_scenario": "moderate", "market_gravity_weight": 100 }, "geometry": { "type": "Point", "coordinates": [ -77.461946621093418, 39.004435114144165 ] } },
{ "type": "Feature", "properties": { "id": "51_17", "growth_scenario": "moderate", "market_gravity_weight": 100 }, "geometry": { "type": "Point", "coordinates": [ -77.43191925885705, 38.903209848380726 ] } },
{ "type": "Feature", "properties": { "id": "51_18", "growth_scenario": "moderate", "market_gravity_weight": 100 }, "geometry": { "type": "Point", "coordinates": [ -77.454699184847485, 39.003975374224858 ] } },
{ "type": "Feature", "properties": { "id": "51_19", "growth_scenario": "moderate", "market_gravity_weight": 100 }, "geometry": { "type": "Point", "coordinates": [ -77.416207460962482, 38.985593311719349 ] } },
{ "type": "Feature", "properties": { "id": "51_2", "growth_scenario": "moderate", "market_gravity_weight": 100 }, "geometry": { "type": "Point", "coordinates": [ -77.47795747945392, 38.993487091063209 ] } },
{ "type": "Feature", "properties": { "id": "51_20", "growth_scenario": "moderate", "market_gravity_weight": 100 }, "geometry": { "type": "Point", "coordinates": [ -77.434775487029754, 39.01578396016069 ] } },
{ "type": "Feature", "properties": { "id": "51_21", "growth_scenario": "moderate", "market_gravity_weight": 100 }, "geometry": { "type": "Point", "coordinates": [ -77.524349881784204, 39.068962289659225 ] } },
{ "type": "Feature", "properties": { "id": "51_22", "growth_scenario": "moderate", "market_gravity_weight": 100 }, "geometry": { "type": "Point", "coordinates": [ -77.510671944113554, 39.06990262681007 ] } },
{ "type": "Feature", "properties": { "id": "51_23", "growth_scenario": "moderate", "market_gravity_weight": 100 }, "geometry": { "type": "Point", "coordinates": [ -77.513628752801409, 39.071348488314158 ] } },
{ "type": "Feature", "properties": { "id": "51_24", "growth_scenario": "moderate", "market_gravity_weight": 100 }, "geometry": { "type": "Point", "coordinates": [ -77.517270737881944, 39.072442801906128 ] } },
{ "type": "Feature", "properties": { "id": "51_25", "growth_scenario": "moderate", "market_gravity_weight": 100 }, "geometry": { "type": "Point", "coordinates": [ -77.526004543251304, 39.070848265800649 ] } },
{ "type": "Feature", "properties": { "id": "51_26", "growth_scenario": "moderate", "market_gravity_weight": 100 }, "geometry": { "type": "Point", "coordinates": [ -77.50789487924358, 39.073758140287346 ] } },
{ "type": "Feature", "properties": { "id": "51_27", "growth_scenario": "moderate", "market_gravity_weight": 100 }, "geometry": { "type": "Point", "coordinates": [ -77.516408744958781, 39.074404470258102 ] } },
{ "type": "Feature", "properties": { "id": "51_28", "growth_scenario": "moderate", "market_gravity_weight": 100 }, "geometry": { "type": "Point", "coordinates": [ -77.509828322474888, 39.076868580034237 ] } },
{ "type": "Feature", "properties": { "id": "51_29", "growth_scenario": "moderate", "market_gravity_weight": 100 }, "geometry": { "type": "Point", "coordinates": [ -77.508646894842784, 39.079145847210754 ] } },
{ "type": "Feature", "properties": { "id": "51_3", "growth_scenario": "moderate", "market_gravity_weight": 100 }, "geometry": { "type": "Point", "coordinates": [ -77.493257310273833, 38.996344022533989 ] } },
{ "type": "Feature", "properties": { "id": "51_30", "growth_scenario": "moderate", "market_gravity_weight": 100 }, "geometry": { "type": "Point", "coordinates": [ -77.520434378947058, 39.080012278315301 ] } },
{ "type": "Feature", "properties": { "id": "51_31", "growth_scenario": "moderate", "market_gravity_weight": 100 }, "geometry": { "type": "Point", "coordinates": [ -77.509090623225561, 39.081577087522227 ] } },
{ "type": "Feature", "properties": { "id": "51_32", "growth_scenario": "moderate", "market_gravity_weight": 100 }, "geometry": { "type": "Point", "coordinates": [ -77.527886275836082, 39.08386231333764 ] } },
{ "type": "Feature", "properties": { "id": "51_33", "growth_scenario": "moderate", "market_gravity_weight": 100 }, "geometry": { "type": "Point", "coordinates": [ -77.531502930062558, 39.084133873922049 ] } },
{ "type": "Feature", "properties": { "id": "51_34", "growth_scenario": "moderate", "market_gravity_weight": 100 }, "geometry": { "type": "Point", "coordinates": [ -77.529064488181703, 39.086676740371317 ] } },
{ "type": "Feature", "properties": { "id": "51_35", "growth_scenario": "moderate", "market_gravity_weight": 100 }, "geometry": { "type": "Point", "coordinates": [ -77.533139250415388, 39.08701718214293 ] } },
{ "type": "Feature", "properties": { "id": "51_36", "growth_scenario": "moderate", "market_gravity_weight": 100 }, "geometry": { "type": "Point", "coordinates": [ -77.536200261910636, 39.091296923202883 ] } },
{ "type": "Feature", "properties": { "id": "51_37", "growth_scenario": "moderate", "market_gravity_weight": 100 }, "geometry": { "type": "Point", "coordinates": [ -77.536520596569304, 39.102529807554397 ] } },
{ "type": "Feature", "properties": { "id": "51_38", "growth_scenario": "moderate", "market_gravity_weight": 100 }, "geometry": { "type": "Point", "coordinates": [ -77.523627945325316, 39.106864287035712 ] } },
{ "type": "Feature", "properties": { "id": "51_39", "growth_scenario": "moderate", "market_gravity_weight": 100 }, "geometry": { "type": "Point", "coordinates": [ -77.517980094196744, 39.108469314792629 ] } },
{ "type": "Feature", "properties": { "id": "51_4", "growth_scenario": "moderate", "market_gravity_weight": 100 }, "geometry": { "type": "Point", "coordinates": [ -77.493538991500344, 38.998478152540606 ] } },
{ "type": "Feature", "properties": { "id": "51_40", "growth_scenario": "moderate", "market_gravity_weight": 100 }, "geometry": { "type": "Point", "coordinates": [ -77.521761082671929, 39.10949320710106 ] } },
{ "type": "Feature", "properties": { "id": "51_41", "growth_scenario": "moderate", "market_gravity_weight": 100 }, "geometry": { "type": "Point", "coordinates": [ -77.242711495134671, 38.94795771055729 ] } },
{ "type": "Feature", "properties": { "id": "51_42", "growth_scenario": "moderate", "market_gravity_weight": 100 }, "geometry": { "type": "Point", "coordinates": [ -77.221949557622452, 38.85970004167681 ] } },
{ "type": "Feature", "properties": { "id": "51_43", "growth_scenario": "moderate", "market_gravity_weight": 100 }, "geometry": { "type": "Point", "coordinates": [ -78.373368142018705, 36.68513131216941 ] } },
{ "type": "Feature", "properties": { "id": "51_44", "growth_scenario": "moderate", "market_gravity_weight": 100 }, "geometry": { "type": "Point", "coordinates": [ -77.280747084969207, 38.708958003131521 ] } },
{ "type": "Feature", "properties": { "id": "51_45", "growth_scenario": "moderate", "market_gravity_weight": 100 }, "geometry": { "type": "Point", "coordinates": [ -77.279675894088342, 38.70670123910709 ] } },
{ "type": "Feature", "properties": { "id": "51_46", "growth_scenario": "moderate", "market_gravity_weight": 100 }, "geometry": { "type": "Point", "coordinates": [ -77.208080306958919, 38.756114414229017 ] } },
{ "type": "Feature", "properties": { "id": "51_47", "growth_scenario": "moderate", "market_gravity_weight": 100 }, "geometry": { "type": "Point", "coordinates": [ -77.271663678972772, 38.709293040827603 ] } },
{ "type": "Feature", "properties": { "id": "51_48", "growth_scenario": "moderate", "market_gravity_weight": 100 }, "geometry": { "type": "Point", "coordinates": [ -77.209608525405628, 38.751618081786134 ] } },
{ "type": "Feature", "properties": { "id": "51_49", "growth_scenario": "moderate", "market_gravity_weight": 100 }, "geometry": { "type": "Point", "coordinates": [ -77.279582849143097, 38.702956924530838 ] } },
{ "type": "Feature", "properties": { "id": "51_5", "growth_scenario": "moderate", "market_gravity_weight": 100 }, "geometry": { "type": "Point", "coordinates": [ -77.488714106091308, 38.997840469409084 ] } },
{ "type": "Feature", "properties": { "id": "51_50", "growth_scenario": "moderate", "market_gravity_weight": 100 }, "geometry": { "type": "Point", "coordinates": [ -77.20621343676882, 38.75373431373923 ] } },
{ "type": "Feature", "properties": { "id": "51_51", "growth_scenario": "moderate", "market_gravity_weight": 100 }, "geometry": { "type": "Point", "coordinates": [ -77.201997833085102, 38.756270125891085 ] } },
{ "type": "Feature", "properties": { "id": "51_52", "growth_scenario": "moderate", "market_gravity_weight": 100 }, "geometry": { "type": "Point", "coordinates": [ -77.270091243820062, 38.705321618056651 ] } },
{ "type": "Feature", "properties": { "id": "51_53", "growth_scenario": "moderate", "market_gravity_weight": 100 }, "geometry": { "type": "Point", "coordinates": [ -77.281834680321055, 38.699754260812107 ] } },
{ "type": "Feature", "properties": { "id": "51_54", "growth_scenario": "moderate", "market_gravity_weight": 100 }, "geometry": { "type": "Point", "coordinates": [ -77.288614962434153, 38.695062652152274 ] } },
{ "type": "Feature", "properties": { "id": "51_55", "growth_scenario": "moderate", "market_gravity_weight": 100 }, "geometry": { "type": "Point", "coordinates": [ -77.207331195769854, 38.7503577020058 ] } },
{ "type": "Feature", "properties": { "id": "51_56", "growth_scenario": "moderate", "market_gravity_weight": 100 }, "geometry": { "type": "Point", "coordinates": [ -77.276645370752107, 38.701050644064239 ] } },
{ "type": "Feature", "properties": { "id": "51_57", "growth_scenario": "moderate", "market_gravity_weight": 100 }, "geometry": { "type": "Point", "coordinates": [ -77.272411741652135, 38.701856655407866 ] } },
{ "type": "Feature", "properties": { "id": "51_58", "growth_scenario": "moderate", "market_gravity_weight": 100 }, "geometry": { "type": "Point", "coordinates": [ -77.278646913613045, 38.697900601774016 ] } },
{ "type": "Feature", "properties": { "id": "51_59", "growth_scenario": "moderate", "market_gravity_weight": 100 }, "geometry": { "type": "Point", "coordinates": [ -77.200816490335299, 38.750355764531825 ] } },
{ "type": "Feature", "properties": { "id": "51_6", "growth_scenario": "moderate", "market_gravity_weight": 100 }, "geometry": { "type": "Point", "coordinates": [ -77.467131620584823, 38.995851967647496 ] } },
{ "type": "Feature", "properties": { "id": "51_60", "growth_scenario": "moderate", "market_gravity_weight": 100 }, "geometry": { "type": "Point", "coordinates": [ -77.283765962234298, 38.693682172982165 ] } },
{ "type": "Feature", "properties": { "id": "51_61", "growth_scenario": "moderate", "market_gravity_weight": 100 }, "geometry": { "type": "Point", "coordinates": [ -77.265196291110314, 38.703660469520635 ] } },
{ "type": "Feature", "properties": { "id": "51_62", "growth_scenario": "moderate", "market_gravity_weight": 100 }, "geometry": { "type": "Point", "coordinates": [ -77.199519403368669, 38.748063232116884 ] } },
{ "type": "Feature", "properties": { "id": "51_63", "growth_scenario": "moderate", "market_gravity_weight": 100 }, "geometry": { "type": "Point", "coordinates": [ -77.283649216455686, 38.688660597839736 ] } },
{ "type": "Feature", "properties": { "id": "51_64", "growth_scenario": "moderate", "market_gravity_weight": 100 }, "geometry": { "type": "Point", "coordinates": [ -77.276276102888488, 38.690622584251848 ] } },
{ "type": "Feature", "properties": { "id": "51_65", "growth_scenario": "moderate", "market_gravity_weight": 100 }, "geometry": { "type": "Point", "coordinates": [ -77.264829987249058, 38.697326653282019 ] } },
{ "type": "Feature", "properties": { "id": "51_66", "growth_scenario": "moderate", "market_gravity_weight": 100 }, "geometry": { "type": "Point", "coordinates": [ -77.266989908132715, 38.690379938439655 ] } },
{ "type": "Feature", "properties": { "id": "51_67", "growth_scenario": "moderate", "market_gravity_weight": 100 }, "geometry": { "type": "Point", "coordinates": [ -77.270082873983654, 38.684395301772668 ] } },
{ "type": "Feature", "properties": { "id": "51_68", "growth_scenario": "moderate", "market_gravity_weight": 100 }, "geometry": { "type": "Point", "coordinates": [ -77.268488852640232, 38.681876113351144 ] } },
{ "type": "Feature", "properties": { "id": "51_69", "growth_scenario": "moderate", "market_gravity_weight": 100 }, "geometry": { "type": "Point", "coordinates": [ -77.280383173238064, 38.667507927292519 ] } },
{ "type": "Feature", "properties": { "id": "51_7", "growth_scenario": "moderate", "market_gravity_weight": 100 }, "geometry": { "type": "Point", "coordinates": [ -77.490963627934377, 39.000635568895639 ] } },
{ "type": "Feature", "properties": { "id": "51_70", "growth_scenario": "moderate", "market_gravity_weight": 100 }, "geometry": { "type": "Point", "coordinates": [ -78.372653014153798, 36.687659002853813 ] } },
{ "type": "Feature", "properties": { "id": "51_71", "growth_scenario": "moderate", "market_gravity_weight": 100 }, "geometry": { "type": "Point", "coordinates": [ -77.743440895762234, 38.35490436417296 ] } },
{ "type": "Feature", "properties": { "id": "51_72", "growth_scenario": "moderate", "market_gravity_weight": 100 }, "geometry": { "type": "Point", "coordinates": [ -77.736514498498167, 38.352500361077404 ] } },
{ "type": "Feature", "properties": { "id": "51_73", "growth_scenario": "moderate", "market_gravity_weight": 100 }, "geometry": { "type": "Point", "coordinates": [ -77.745353034560083, 38.35291936659555 ] } },
{ "type": "Feature", "properties": { "id": "51_74", "growth_scenario": "moderate", "market_gravity_weight": 100 }, "geometry": { "type": "Point", "coordinates": [ -77.742196934305312, 38.351899936354968 ] } },
{ "type": "Feature", "properties": { "id": "51_75", "growth_scenario": "moderate", "market_gravity_weight": 100 }, "geometry": { "type": "Point", "coordinates": [ -77.73613383765057, 38.349807340237305 ] } },
{ "type": "Feature", "properties": { "id": "51_8", "growth_scenario": "moderate", "market_gravity_weight": 100 }, "geometry": { "type": "Point", "coordinates": [ -77.463384068988816, 38.996103707550816 ] } },
{ "type": "Feature", "properties": { "id": "51_9", "growth_scenario": "moderate", "market_gravity_weight": 100 }, "geometry": { "type": "Point", "coordinates": [ -77.438351940455888, 38.910006223775348 ] } },
{ "type": "Feature", "properties": { "id": "53_0", "growth_scenario": "moderate", "market_gravity_weight": 100 }, "geometry": { "type": "Point", "coordinates": [ -119.90580807307478, 47.248222355149657 ] } },
{ "type": "Feature", "properties": { "id": "53_1", "growth_scenario": "moderate", "market_gravity_weight": 100 }, "geometry": { "type": "Point", "coordinates": [ -119.900554963206659, 47.24868474286378 ] } },
{ "type": "Feature", "properties": { "id": "53_10", "growth_scenario": "moderate", "market_gravity_weight": 100 }, "geometry": { "type": "Point", "coordinates": [ -119.885135692285743, 47.252438302130543 ] } },
{ "type": "Feature", "properties": { "id": "53_2", "growth_scenario": "moderate", "market_gravity_weight": 100 }, "geometry": { "type": "Point", "coordinates": [ -119.909283848538166, 47.245179464645105 ] } },
{ "type": "Feature", "properties": { "id": "53_3", "growth_scenario": "moderate", "market_gravity_weight": 100 }, "geometry": { "type": "Point", "coordinates": [ -119.895941506115278, 47.249407313216778 ] } },
{ "type": "Feature", "properties": { "id": "53_4", "growth_scenario": "moderate", "market_gravity_weight": 100 }, "geometry": { "type": "Point", "coordinates": [ -119.914653012118592, 47.243575572478548 ] } },
{ "type": "Feature", "properties": { "id": "53_5", "growth_scenario": "moderate", "market_gravity_weight": 100 }, "geometry": { "type": "Point", "coordinates": [ -119.905328934732168, 47.24475869597098 ] } },
{ "type": "Feature", "properties": { "id": "53_6", "growth_scenario": "moderate", "market_gravity_weight": 100 }, "geometry": { "type": "Point", "coordinates": [ -119.891931503776505, 47.249929639158886 ] } },
{ "type": "Feature", "properties": { "id": "53_7", "growth_scenario": "moderate", "market_gravity_weight": 100 }, "geometry": { "type": "Point", "coordinates": [ -119.884079802483299, 47.25542623164776 ] } },
{ "type": "Feature", "properties": { "id": "53_8", "growth_scenario": "moderate", "market_gravity_weight": 100 }, "geometry": { "type": "Point", "coordinates": [ -119.902075623152328, 47.244400466705024 ] } },
{ "type": "Feature", "properties": { "id": "53_9", "growth_scenario": "moderate", "market_gravity_weight": 100 }, "geometry": { "type": "Point", "coordinates": [ -119.889310779860352, 47.249085713926014 ] } },
{ "type": "Feature", "properties": { "id": "56_0", "growth_scenario": "moderate", "market_gravity_weight": 100 }, "geometry": { "type": "Point", "coordinates": [ -104.8405698354414, 41.113796119379124 ] } },
{ "type": "Feature", "properties": { "id": "56_1", "growth_scenario": "moderate", "market_gravity_weight": 100 }, "geometry": { "type": "Point", "coordinates": [ -104.840243359532934, 41.110230671313744 ] } },
{ "type": "Feature", "properties": { "id": "56_2", "growth_scenario": "moderate", "market_gravity_weight": 100 }, "geometry": { "type": "Point", "coordinates": [ -104.841825803444863, 41.105545974982128 ] } },
{ "type": "Feature", "properties": { "id": "56_3", "growth_scenario": "moderate", "market_gravity_weight": 100 }, "geometry": { "type": "Point", "coordinates": [ -104.837990035921479, 41.112450235772492 ] } }
]
}
