{
"type": "FeatureCollection",
"name": "low_growth_100_market_gravity_epsg4326_centroids",
"crs": { "type": "name", "properties": { "name": "urn:ogc:def:crs:OGC:1.3:CRS84" } },
"features": [
{ "type": "Feature", "properties": { "id": "1_0", "growth_scenario": "low", "market_gravity_weight": 100 }, "geometry": { "type": "Point", "coordinates": [ -86.626063192751985, 34.836800523816258 ] } },
{ "type": "Feature", "properties": { "id": "1_1", "growth_scenario": "low", "market_gravity_weight": 100 }, "geometry": { "type": "Point", "coordinates": [ -86.912807264182902, 33.400479549212022 ] } },
{ "type": "Feature", "properties": { "id": "4_0", "growth_scenario": "low", "market_gravity_weight": 100 }, "geometry": { "type": "Point", "coordinates": [ -111.799503071621089, 33.383776817120889 ] } },
{ "type": "Feature", "properties": { "id": "4_1", "growth_scenario": "low", "market_gravity_weight": 100 }, "geometry": { "type": "Point", "coordinates": [ -111.827264548630197, 33.464275507526715 ] } },
{ "type": "Feature", "properties": { "id": "4_2", "growth_scenario": "low", "market_gravity_weight": 100 }, "geometry": { "type": "Point", "coordinates": [ -111.827323937273135, 33.467808424197457 ] } },
{ "type": "Feature", "properties": { "id": "4_3", "growth_scenario": "low", "market_gravity_weight": 100 }, "geometry": { "type": "Point", "coordinates": [ -111.808697485111622, 33.468034508665696 ] } },
{ "type": "Feature", "properties": { "id": "4_4", "growth_scenario": "low", "market_gravity_weight": 100 }, "geometry": { "type": "Point", "coordinates": [ -111.821715353528603, 33.468315266965867 ] } },
{ "type": "Feature", "properties": { "id": "4_5", "growth_scenario": "low", "market_gravity_weight": 100 }, "geometry": { "type": "Point", "coordinates": [ -111.802786965597775, 33.469217879506374 ] } },
{ "type": "Feature", "properties": { "id": "4_6", "growth_scenario": "low", "market_gravity_weight": 100 }, "geometry": { "type": "Point", "coordinates": [ -111.824779987572114, 33.469342287648061 ] } },
{ "type": "Feature", "properties": { "id": "4_7", "growth_scenario": "low", "market_gravity_weight": 100 }, "geometry": { "type": "Point", "coordinates": [ -111.819670372343069, 33.47014287712404 ] } },
{ "type": "Feature", "properties": { "id": "4_8", "growth_scenario": "low", "market_gravity_weight": 100 }, "geometry": { "type": "Point", "coordinates": [ -111.790017181524519, 33.467992646758326 ] } },
{ "type": "Feature", "properties": { "id": "6_0", "growth_scenario": "low", "market_gravity_weight": 100 }, "geometry": { "type": "Point", "coordinates": [ -121.490179401187405, 38.65794914874634 ] } },
{ "type": "Feature", "properties": { "id": "6_1", "growth_scenario": "low", "market_gravity_weight": 100 }, "geometry": { "type": "Point", "coordinates": [ -121.486569288562492, 38.658619684050805 ] } },
{ "type": "Feature", "properties": { "id": "6_10", "growth_scenario": "low", "market_gravity_weight": 100 }, "geometry": { "type": "Point", "coordinates": [ -121.928468245376564, 37.434466281294164 ] } },
{ "type": "Feature", "properties": { "id": "6_11", "growth_scenario": "low", "market_gravity_weight": 100 }, "geometry": { "type": "Point", "coordinates": [ -121.486724684098021, 38.663768210907442 ] } },
{ "type": "Feature", "properties": { "id": "6_12", "growth_scenario": "low", "market_gravity_weight": 100 }, "geometry": { "type": "Point", "coordinates": [ -121.928397166336438, 37.437910223619198 ] } },
{ "type": "Feature", "properties": { "id": "6_13", "growth_scenario": "low", "market_gravity_weight": 100 }, "geometry": { "type": "Point", "coordinates": [ -121.92946017883547, 37.44055003643691 ] } },
{ "type": "Feature", "properties": { "id": "6_2", "growth_scenario": "low", "market_gravity_weight": 100 }, "geometry": { "type": "Point", "coordinates": [ -121.490673910392957, 38.660342804987536 ] } },
{ "type": "Feature", "properties": { "id": "6_3", "growth_scenario": "low", "market_gravity_weight": 100 }, "geometry": { "type": "Point", "coordinates": [ -121.936370982258893, 37.424767638531421 ] } },
{ "type": "Feature", "properties": { "id": "6_4", "growth_scenario": "low", "market_gravity_weight": 100 }, "geometry": { "type": "Point", "coordinates": [ -121.929199497043001, 37.426244872490493 ] } },
{ "type": "Feature", "properties": { "id": "6_5", "growth_scenario": "low", "market_gravity_weight": 100 }, "geometry": { "type": "Point", "coordinates": [ -121.935676339331565, 37.427792225875294 ] } },
{ "type": "Feature", "properties": { "id": "6_6", "growth_scenario": "low", "market_gravity_weight": 100 }, "geometry": { "type": "Point", "coordinates": [ -121.4884085820199, 38.661746878756183 ] } },
{ "type": "Feature", "properties": { "id": "6_7", "growth_scenario": "low", "market_gravity_weight": 100 }, "geometry": { "type": "Point", "coordinates": [ -121.482224433586723, 38.637702409015198 ] } },
{ "type": "Feature", "properties": { "id": "6_8", "growth_scenario": "low", "market_gravity_weight": 100 }, "geometry": { "type": "Point", "coordinates": [ -121.930147984634914, 37.429558343070305 ] } },
{ "type": "Feature", "properties": { "id": "6_9", "growth_scenario": "low", "market_gravity_weight": 100 }, "geometry": { "type": "Point", "coordinates": [ -121.491699640319581, 38.663549434257192 ] } },
{ "type": "Feature", "properties": { "id": "8_0", "growth_scenario": "low", "market_gravity_weight": 100 }, "geometry": { "type": "Point", "coordinates": [ -104.782841603852589, 38.986174679237067 ] } },
{ "type": "Feature", "properties": { "id": "8_1", "growth_scenario": "low", "market_gravity_weight": 100 }, "geometry": { "type": "Point", "coordinates": [ -105.014480248780572, 39.988749242268064 ] } },
{ "type": "Feature", "properties": { "id": "12_0", "growth_scenario": "low", "market_gravity_weight": 100 }, "geometry": { "type": "Point", "coordinates": [ -80.223348021929922, 25.96851100220487 ] } },
{ "type": "Feature", "properties": { "id": "12_1", "growth_scenario": "low", "market_gravity_weight": 100 }, "geometry": { "type": "Point", "coordinates": [ -80.305330888825111, 25.958958990370284 ] } },
{ "type": "Feature", "properties": { "id": "13_0", "growth_scenario": "low", "market_gravity_weight": 100 }, "geometry": { "type": "Point", "coordinates": [ -83.7013327904791, 33.599973734869415 ] } },
{ "type": "Feature", "properties": { "id": "13_1", "growth_scenario": "low", "market_gravity_weight": 100 }, "geometry": { "type": "Point", "coordinates": [ -83.7008125397698, 33.597028863057382 ] } },
{ "type": "Feature", "properties": { "id": "13_2", "growth_scenario": "low", "market_gravity_weight": 100 }, "geometry": { "type": "Point", "coordinates": [ -83.704699820049768, 33.59735597079176 ] } },
{ "type": "Feature", "properties": { "id": "13_3", "growth_scenario": "low", "market_gravity_weight": 100 }, "geometry": { "type": "Point", "coordinates": [ -84.426001410489974, 33.895992635726991 ] } },
{ "type": "Feature", "properties": { "id": "13_4", "growth_scenario": "low", "market_gravity_weight": 100 }, "geometry": { "type": "Point", "coordinates": [ -84.432340076004593, 33.896900397853173 ] } },
{ "type": "Feature", "properties": { "id": "13_5", "growth_scenario": "low", "market_gravity_weight": 100 }, "geometry": { "type": "Point", "coordinates": [ -84.438681903080393, 33.911061074211645 ] } },
{ "type": "Feature", "properties": { "id": "13_6", "growth_scenario": "low", "market_gravity_weight": 100 }, "geometry": { "type": "Point", "coordinates": [ -84.425670442148942, 33.859173725380742 ] } },
{ "type": "Feature", "properties": { "id": "13_7", "growth_scenario": "low", "market_gravity_weight": 100 }, "geometry": { "type": "Point", "coordinates": [ -83.706157911739766, 33.605457169311343 ] } },
{ "type": "Feature", "properties": { "id": "13_8", "growth_scenario": "low", "market_gravity_weight": 100 }, "geometry": { "type": "Point", "coordinates": [ -83.708363225568888, 33.599103404978592 ] } },
{ "type": "Feature", "properties": { "id": "17_0", "growth_scenario": "low", "market_gravity_weight": 100 }, "geometry": { "type": "Point", "coordinates": [ -87.990511763530975, 42.03034399053589 ] } },
{ "type": "Feature", "properties": { "id": "17_1", "growth_scenario": "low", "market_gravity_weight": 100 }, "geometry": { "type": "Point", "coordinates": [ -87.987871453665974, 42.033140664853107 ] } },
{ "type": "Feature", "properties": { "id": "17_10", "growth_scenario": "low", "market_gravity_weight": 100 }, "geometry": { "type": "Point", "coordinates": [ -88.02082437354521, 42.04379624421982 ] } },
{ "type": "Feature", "properties": { "id": "17_2", "growth_scenario": "low", "market_gravity_weight": 100 }, "geometry": { "type": "Point", "coordinates": [ -87.996706023731818, 42.034855509425967 ] } },
{ "type": "Feature", "properties": { "id": "17_3", "growth_scenario": "low", "market_gravity_weight": 100 }, "geometry": { "type": "Point", "coordinates": [ -87.993744775217309, 42.036196917839931 ] } },
{ "type": "Feature", "properties": { "id": "17_4", "growth_scenario": "low", "market_gravity_weight": 100 }, "geometry": { "type": "Point", "coordinates": [ -87.997175840094258, 42.03820420060341 ] } },
{ "type": "Feature", "properties": { "id": "17_5", "growth_scenario": "low", "market_gravity_weight": 100 }, "geometry": { "type": "Point", "coordinates": [ -87.986874611703797, 42.037564631940874 ] } },
{ "type": "Feature", "properties": { "id": "17_6", "growth_scenario": "low", "market_gravity_weight": 100 }, "geometry": { "type": "Point", "coordinates": [ -87.990783412977407, 42.037538260559209 ] } },
{ "type": "Feature", "properties": { "id": "17_7", "growth_scenario": "low", "market_gravity_weight": 100 }, "geometry": { "type": "Point", "coordinates": [ -87.993628957944438, 42.039329847070235 ] } },
{ "type": "Feature", "properties": { "id": "17_8", "growth_scenario": "low", "market_gravity_weight": 100 }, "geometry": { "type": "Point", "coordinates": [ -87.989566461291076, 42.040692539183837 ] } },
{ "type": "Feature", "properties": { "id": "17_9", "growth_scenario": "low", "market_gravity_weight": 100 }, "geometry": { "type": "Point", "coordinates": [ -87.995281549706306, 42.041944517569661 ] } },
{ "type": "Feature", "properties": { "id": "19_0", "growth_scenario": "low", "market_gravity_weight": 100 }, "geometry": { "type": "Point", "coordinates": [ -93.58458744573106, 41.567626572180487 ] } },
{ "type": "Feature", "properties": { "id": "19_1", "growth_scenario": "low", "market_gravity_weight": 100 }, "geometry": { "type": "Point", "coordinates": [ -93.573006255097837, 41.640525728880228 ] } },
{ "type": "Feature", "properties": { "id": "19_2", "growth_scenario": "low", "market_gravity_weight": 100 }, "geometry": { "type": "Point", "coordinates": [ -93.546736097622215, 41.571825351668039 ] } },
{ "type": "Feature", "properties": { "id": "19_3", "growth_scenario": "low", "market_gravity_weight": 100 }, "geometry": { "type": "Point", "coordinates": [ -93.531096127014237, 41.593871900042068 ] } },
{ "type": "Feature", "properties": { "id": "19_4", "growth_scenario": "low", "market_gravity_weight": 100 }, "geometry": { "type": "Point", "coordinates": [ -93.537654718808483, 41.575763258411982 ] } },
{ "type": "Feature", "properties": { "id": "19_5", "growth_scenario": "low", "market_gravity_weight": 100 }, "geometry": { "type": "Point", "coordinates": [ -93.527796951156759, 41.612043340960369 ] } },
{ "type": "Feature", "properties": { "id": "19_6", "growth_scenario": "low", "market_gravity_weight": 100 }, "geometry": { "type": "Point", "coordinates": [ -93.534322965888535, 41.57426921605132 ] } },
{ "type": "Feature", "properties": { "id": "19_7", "growth_scenario": "low", "market_gravity_weight": 100 }, "geometry": { "type": "Point", "coordinates": [ -93.553584329730768, 41.649364833732974 ] } },
{ "type": "Feature", "properties": { "id": "19_8", "growth_scenario": "low", "market_gravity_weight": 100 }, "geometry": { "type": "Point", "coordinates": [ -93.558327501663584, 41.652136687952002 ] } },
{ "type": "Feature", "properties": { "id": "21_0", "growth_scenario": "low", "market_gravity_weight": 100 }, "geometry": { "type": "Point", "coordinates": [ -87.521835960365337, 37.334916259216229 ] } },
{ "type": "Feature", "properties": { "id": "21_1", "growth_scenario": "low", "market_gravity_weight": 100 }, "geometry": { "type": "Point", "coordinates": [ -87.512757149045783, 37.340282543293142 ] } },
{ "type": "Feature", "properties": { "id": "25_0", "growth_scenario": "low", "market_gravity_weight": 100 }, "geometry": { "type": "Point", "coordinates": [ -71.424378920991444, 42.684428735970428 ] } },
{ "type": "Feature", "properties": { "id": "27_0", "growth_scenario": "low", "market_gravity_weight": 100 }, "geometry": { "type": "Point", "coordinates": [ -93.487122741973252, 44.98092780690768 ] } },
{ "type": "Feature", "properties": { "id": "29_0", "growth_scenario": "low", "market_gravity_weight": 100 }, "geometry": { "type": "Point", "coordinates": [ -94.592116071311565, 39.319007760958691 ] } },
{ "type": "Feature", "properties": { "id": "31_0", "growth_scenario": "low", "market_gravity_weight": 100 }, "geometry": { "type": "Point", "coordinates": [ -96.087839219032162, 41.141565470667175 ] } },
{ "type": "Feature", "properties": { "id": "31_1", "growth_scenario": "low", "market_gravity_weight": 100 }, "geometry": { "type": "Point", "coordinates": [ -96.102473676659017, 41.130925863260906 ] } },
{ "type": "Feature", "properties": { "id": "31_2", "growth_scenario": "low", "market_gravity_weight": 100 }, "geometry": { "type": "Point", "coordinates": [ -96.105233924350514, 41.13011977137301 ] } },
{ "type": "Feature", "properties": { "id": "31_3", "growth_scenario": "low", "market_gravity_weight": 100 }, "geometry": { "type": "Point", "coordinates": [ -96.102588684733107, 41.127442434127929 ] } },
{ "type": "Feature", "properties": { "id": "31_4", "growth_scenario": "low", "market_gravity_weight": 100 }, "geometry": { "type": "Point", "coordinates": [ -96.093219889681365, 41.124144920431576 ] } },
{ "type": "Feature", "properties": { "id": "31_5", "growth_scenario": "low", "market_gravity_weight": 100 }, "geometry": { "type": "Point", "coordinates": [ -96.109677443875526, 41.130919881591502 ] } },
{ "type": "Feature", "properties": { "id": "32_0", "growth_scenario": "low", "market_gravity_weight": 100 }, "geometry": { "type": "Point", "coordinates": [ -115.202239604344655, 36.07920491217854 ] } },
{ "type": "Feature", "properties": { "id": "32_1", "growth_scenario": "low", "market_gravity_weight": 100 }, "geometry": { "type": "Point", "coordinates": [ -115.196918582796627, 36.04826259976678 ] } },
{ "type": "Feature", "properties": { "id": "32_2", "growth_scenario": "low", "market_gravity_weight": 100 }, "geometry": { "type": "Point", "coordinates": [ -115.193973184124317, 36.047923128694229 ] } },
{ "type": "Feature", "properties": { "id": "32_3", "growth_scenario": "low", "market_gravity_weight": 100 }, "geometry": { "type": "Point", "coordinates": [ -115.2017728418503, 36.04446194097401 ] } },
{ "type": "Feature", "properties": { "id": "32_4", "growth_scenario": "low", "market_gravity_weight": 100 }, "geometry": { "type": "Point", "coordinates": [ -115.237975032452084, 36.079837312428616 ] } },
{ "type": "Feature", "properties": { "id": "34_0", "growth_scenario": "low", "market_gravity_weight": 100 }, "geometry": { "type": "Point", "coordinates": [ -74.334482218759462, 40.629478380002041 ] } },
{ "type": "Feature", "properties": { "id": "34_1", "growth_scenario": "low", "market_gravity_weight": 100 }, "geometry": { "type": "Point", "coordinates": [ -74.34246223613313, 40.623074314269012 ] } },
{ "type": "Feature", "properties": { "id": "34_2", "growth_scenario": "low", "market_gravity_weight": 100 }, "geometry": { "type": "Point", "coordinates": [ -74.354258125648784, 40.607892890368809 ] } },
{ "type": "Feature", "properties": { "id": "34_3", "growth_scenario": "low", "market_gravity_weight": 100 }, "geometry": { "type": "Point", "coordinates": [ -74.353128705036141, 40.604030877113253 ] } },
{ "type": "Feature", "properties": { "id": "34_4", "growth_scenario": "low", "market_gravity_weight": 100 }, "geometry": { "type": "Point", "coordinates": [ -74.386675825696429, 40.62927953481833 ] } },
{ "type": "Feature", "properties": { "id": "34_5", "growth_scenario": "low", "market_gravity_weight": 100 }, "geometry": { "type": "Point", "coordinates": [ -74.391736647383382, 40.71785904317305 ] } },
{ "type": "Feature", "properties": { "id": "36_0", "growth_scenario": "low", "market_gravity_weight": 100 }, "geometry": { "type": "Point", "coordinates": [ -74.200568137313567, 40.583945427701209 ] } },
{ "type": "Feature", "properties": { "id": "36_1", "growth_scenario": "low", "market_gravity_weight": 100 }, "geometry": { "type": "Point", "coordinates": [ -73.753451920457934, 40.635718964938469 ] } },
{ "type": "Feature", "properties": { "id": "36_2", "growth_scenario": "low", "market_gravity_weight": 100 }, "geometry": { "type": "Point", "coordinates": [ -73.75105381985405, 40.637860716380359 ] } },
{ "type": "Feature", "properties": { "id": "36_3", "growth_scenario": "low", "market_gravity_weight": 100 }, "geometry": { "type": "Point", "coordinates": [ -73.691238192096122, 40.624408869257387 ] } },
{ "type": "Feature", "properties": { "id": "36_4", "growth_scenario": "low", "market_gravity_weight": 100 }, "geometry": { "type": "Point", "coordinates": [ -74.029085506764517, 41.075873856370876 ] } },
{ "type": "Feature", "properties": { "id": "36_5", "growth_scenario": "low", "market_gravity_weight": 100 }, "geometry": { "type": "Point", "coordinates": [ -74.028981937681422, 41.07970935628277 ] } },
{ "type": "Feature", "properties": { "id": "37_0", "growth_scenario": "low", "market_gravity_weight": 100 }, "geometry": { "type": "Point", "coordinates": [ -81.526603424297576, 35.320271955027216 ] } },
{ "type": "Feature", "properties": { "id": "37_1", "growth_scenario": "low", "market_gravity_weight": 100 }, "geometry": { "type": "Point", "coordinates": [ -81.528415988855102, 35.318416905993764 ] } },
{ "type": "Feature", "properties": { "id": "37_2", "growth_scenario": "low", "market_gravity_weight": 100 }, "geometry": { "type": "Point", "coordinates": [ -81.507709298894369, 35.315765144530808 ] } },
{ "type": "Feature", "properties": { "id": "37_3", "growth_scenario": "low", "market_gravity_weight": 100 }, "geometry": { "type": "Point", "coordinates": [ -81.539833964611006, 35.315036759518314 ] } },
{ "type": "Feature", "properties": { "id": "38_0", "growth_scenario": "low", "market_gravity_weight": 100 }, "geometry": { "type": "Point", "coordinates": [ -96.823272696442444, 46.894029602663124 ] } },
{ "type": "Feature", "properties": { "id": "38_1", "growth_scenario": "low", "market_gravity_weight": 100 }, "geometry": { "type": "Point", "coordinates": [ -96.874936127968354, 46.887838400731923 ] } },
{ "type": "Feature", "properties": { "id": "38_2", "growth_scenario": "low", "market_gravity_weight": 100 }, "geometry": { "type": "Point", "coordinates": [ -96.878609983430124, 46.888989368866817 ] } },
{ "type": "Feature", "properties": { "id": "38_3", "growth_scenario": "low", "market_gravity_weight": 100 }, "geometry": { "type": "Point", "coordinates": [ -96.850043481663391, 46.912928995215275 ] } },
{ "type": "Feature", "properties": { "id": "38_4", "growth_scenario": "low", "market_gravity_weight": 100 }, "geometry": { "type": "Point", "coordinates": [ -96.853845481996672, 46.913808893485594 ] } },
{ "type": "Feature", "properties": { "id": "38_5", "growth_scenario": "low", "market_gravity_weight": 100 }, "geometry": { "type": "Point", "coordinates": [ -96.850086740220178, 46.916271532643812 ] } },
{ "type": "Feature", "properties": { "id": "39_0", "growth_scenario": "low", "market_gravity_weight": 100 }, "geometry": { "type": "Point", "coordinates": [ -82.919705669892352, 39.877213926710432 ] } },
{ "type": "Feature", "properties": { "id": "39_1", "growth_scenario": "low", "market_gravity_weight": 100 }, "geometry": { "type": "Point", "coordinates": [ -82.897501876862449, 39.880741653432636 ] } },
{ "type": "Feature", "properties": { "id": "39_2", "growth_scenario": "low", "market_gravity_weight": 100 }, "geometry": { "type": "Point", "coordinates": [ -82.99122477860702, 39.871624480912836 ] } },
{ "type": "Feature", "properties": { "id": "40_0", "growth_scenario": "low", "market_gravity_weight": 100 }, "geometry": { "type": "Point", "coordinates": [ -95.910535760668211, 36.262459429470951 ] } },
{ "type": "Feature", "properties": { "id": "41_0", "growth_scenario": "low", "market_gravity_weight": 100 }, "geometry": { "type": "Point", "coordinates": [ -120.875460179758619, 44.291320149491234 ] } },
{ "type": "Feature", "properties": { "id": "41_1", "growth_scenario": "low", "market_gravity_weight": 100 }, "geometry": { "type": "Point", "coordinates": [ -120.871072782450071, 44.291416164323238 ] } },
{ "type": "Feature", "properties": { "id": "41_2", "growth_scenario": "low", "market_gravity_weight": 100 }, "geometry": { "type": "Point", "coordinates": [ -120.883723181003631, 44.290110915102261 ] } },
{ "type": "Feature", "properties": { "id": "41_3", "growth_scenario": "low", "market_gravity_weight": 100 }, "geometry": { "type": "Point", "coordinates": [ -122.937536584468262, 45.562433120660053 ] } },
{ "type": "Feature", "properties": { "id": "41_4", "growth_scenario": "low", "market_gravity_weight": 100 }, "geometry": { "type": "Point", "coordinates": [ -122.930489534809979, 45.568280636189613 ] } },
{ "type": "Feature", "properties": { "id": "41_5", "growth_scenario": "low", "market_gravity_weight": 100 }, "geometry": { "type": "Point", "coordinates": [ -122.941466254700657, 45.560972570755922 ] } },
{ "type": "Feature", "properties": { "id": "41_6", "growth_scenario": "low", "market_gravity_weight": 100 }, "geometry": { "type": "Point", "coordinates": [ -122.92839294388402, 45.57030301705732 ] } },
{ "type": "Feature", "properties": { "id": "41_7", "growth_scenario": "low", "market_gravity_weight": 100 }, "geometry": { "type": "Point", "coordinates": [ -122.940414847132189, 45.563906014437421 ] } },
{ "type": "Feature", "properties": { "id": "41_8", "growth_scenario": "low", "market_gravity_weight": 100 }, "geometry": { "type": "Point", "coordinates": [ -122.939260706584051, 45.567235409033856 ] } },
{ "type": "Feature", "properties": { "id": "41_9", "growth_scenario": "low", "market_gravity_weight": 100 }, "geometry": { "type": "Point", "coordinates": [ -122.933895589430719, 45.56973944496827 ] } },
{ "type": "Feature", "properties": { "id": "42_0", "growth_scenario": "low", "market_gravity_weight": 100 }, "geometry": { "type": "Point", "coordinates": [ -77.550262766425234, 39.728062327624805 ] } },
{ "type": "Feature", "properties": { "id": "42_1", "growth_scenario": "low", "market_gravity_weight": 100 }, "geometry": { "type": "Point", "coordinates": [ -77.562800594691964, 39.728293275986566 ] } },
{ "type": "Feature", "properties": { "id": "42_2", "growth_scenario": "low", "market_gravity_weight": 100 }, "geometry": { "type": "Point", "coordinates": [ -77.554697752910002, 39.728541335390325 ] } },
{ "type": "Feature", "properties": { "id": "42_3", "growth_scenario": "low", "market_gravity_weight": 100 }, "geometry": { "type": "Point", "coordinates": [ -77.546505919029201, 39.729594139058193 ] } },
{ "type": "Feature", "properties": { "id": "42_4", "growth_scenario": "low", "market_gravity_weight": 100 }, "geometry": { "type": "Point", "coordinates": [ -77.566152677047683, 39.729247185138242 ] } },
{ "type": "Feature", "properties": { "id": "42_5", "growth_scenario": "low", "market_gravity_weight": 100 }, "geometry": { "type": "Point", "coordinates": [ -77.558511812695144, 39.729564295906314 ] } },
{ "type": "Feature", "properties": { "id": "42_6", "growth_scenario": "low", "market_gravity_weight": 100 }, "geometry": { "type": "Point", "coordinates": [ -77.553022269080884, 39.730838164725981 ] } },
{ "type": "Feature", "properties": { "id": "45_0", "growth_scenario": "low", "market_gravity_weight": 100 }, "geometry": { "type": "Point", "coordinates": [ -80.044432895895241, 33.068717768211947 ] } },
{ "type": "Feature", "properties": { "id": "45_1", "growth_scenario": "low", "market_gravity_weight": 100 }, "geometry": { "type": "Point", "coordinates": [ -80.036054899469292, 33.067991326694539 ] } },
{ "type": "Feature", "properties": { "id": "45_2", "growth_scenario": "low", "market_gravity_weight": 100 }, "geometry": { "type": "Point", "coordinates": [ -80.04167915101867, 33.070965034065637 ] } },
{ "type": "Feature", "properties": { "id": "47_0", "growth_scenario": "low", "market_gravity_weight": 100 }, "geometry": { "type": "Point", "coordinates": [ -87.260201831496559, 36.635046798546149 ] } },
{ "type": "Feature", "properties": { "id": "47_1", "growth_scenario": "low", "market_gravity_weight": 100 }, "geometry": { "type": "Point", "coordinates": [ -87.251190884081467, 36.627755714742506 ] } },
{ "type": "Feature", "properties": { "id": "48_0", "growth_scenario": "low", "market_gravity_weight": 100 }, "geometry": { "type": "Point", "coordinates": [ -96.958747459774358, 32.983528714201711 ] } },
{ "type": "Feature", "properties": { "id": "48_1", "growth_scenario": "low", "market_gravity_weight": 100 }, "geometry": { "type": "Point", "coordinates": [ -96.957534016106791, 32.981119399394082 ] } },
{ "type": "Feature", "properties": { "id": "48_10", "growth_scenario": "low", "market_gravity_weight": 100 }, "geometry": { "type": "Point", "coordinates": [ -96.972908855168996, 32.95320929828474 ] } },
{ "type": "Feature", "properties": { "id": "48_11", "growth_scenario": "low", "market_gravity_weight": 100 }, "geometry": { "type": "Point", "coordinates": [ -96.955182581491712, 33.009276403235255 ] } },
{ "type": "Feature", "properties": { "id": "48_12", "growth_scenario": "low", "market_gravity_weight": 100 }, "geometry": { "type": "Point", "coordinates": [ -98.714737987990759, 29.423320942565777 ] } },
{ "type": "Feature", "properties": { "id": "48_13", "growth_scenario": "low", "market_gravity_weight": 100 }, "geometry": { "type": "Point", "coordinates": [ -96.957149123629563, 33.011589727009067 ] } },
{ "type": "Feature", "properties": { "id": "48_14", "growth_scenario": "low", "market_gravity_weight": 100 }, "geometry": { "type": "Point", "coordinates": [ -98.737732862136525, 29.417326795681543 ] } },
{ "type": "Feature", "properties": { "id": "48_15", "growth_scenario": "low", "market_gravity_weight": 100 }, "geometry": { "type": "Point", "coordinates": [ -96.966008735354023, 32.952192531502369 ] } },
{ "type": "Feature", "properties": { "id": "48_16", "growth_scenario": "low", "market_gravity_weight": 100 }, "geometry": { "type": "Point", "coordinates": [ -97.020811499726349, 32.995804995921837 ] } },
{ "type": "Feature", "properties": { "id": "48_17", "growth_scenario": "low", "market_gravity_weight": 100 }, "geometry": { "type": "Point", "coordinates": [ -96.973940832406967, 32.949615878074994 ] } },
{ "type": "Feature", "properties": { "id": "48_18", "growth_scenario": "low", "market_gravity_weight": 100 }, "geometry": { "type": "Point", "coordinates": [ -96.971133223277931, 32.948833263783214 ] } },
{ "type": "Feature", "properties": { "id": "48_19", "growth_scenario": "low", "market_gravity_weight": 100 }, "geometry": { "type": "Point", "coordinates": [ -96.979854626608173, 32.949206790036001 ] } },
{ "type": "Feature", "properties": { "id": "48_2", "growth_scenario": "low", "market_gravity_weight": 100 }, "geometry": { "type": "Point", "coordinates": [ -98.720735556924893, 29.430211710265684 ] } },
{ "type": "Feature", "properties": { "id": "48_20", "growth_scenario": "low", "market_gravity_weight": 100 }, "geometry": { "type": "Point", "coordinates": [ -96.981445343921465, 32.94731118531994 ] } },
{ "type": "Feature", "properties": { "id": "48_21", "growth_scenario": "low", "market_gravity_weight": 100 }, "geometry": { "type": "Point", "coordinates": [ -97.020858920849761, 32.999478564229179 ] } },
{ "type": "Feature", "properties": { "id": "48_22", "growth_scenario": "low", "market_gravity_weight": 100 }, "geometry": { "type": "Point", "coordinates": [ -96.97671531809074, 32.947710232407545 ] } },
{ "type": "Feature", "properties": { "id": "48_23", "growth_scenario": "low", "market_gravity_weight": 100 }, "geometry": { "type": "Point", "coordinates": [ -97.021429683470302, 33.001982516740192 ] } },
{ "type": "Feature", "properties": { "id": "48_24", "growth_scenario": "low", "market_gravity_weight": 100 }, "geometry": { "type": "Point", "coordinates": [ -97.709571097310629, 30.194978425518435 ] } },
{ "type": "Feature", "properties": { "id": "48_25", "growth_scenario": "low", "market_gravity_weight": 100 }, "geometry": { "type": "Point", "coordinates": [ -97.024714197322552, 32.997831064771596 ] } },
{ "type": "Feature", "properties": { "id": "48_26", "growth_scenario": "low", "market_gravity_weight": 100 }, "geometry": { "type": "Point", "coordinates": [ -96.989280052662338, 32.945630439988172 ] } },
{ "type": "Feature", "properties": { "id": "48_27", "growth_scenario": "low", "market_gravity_weight": 100 }, "geometry": { "type": "Point", "coordinates": [ -97.024435295834081, 33.001238722197677 ] } },
{ "type": "Feature", "properties": { "id": "48_28", "growth_scenario": "low", "market_gravity_weight": 100 }, "geometry": { "type": "Point", "coordinates": [ -96.969482948183668, 32.94588996910246 ] } },
{ "type": "Feature", "properties": { "id": "48_29", "growth_scenario": "low", "market_gravity_weight": 100 }, "geometry": { "type": "Point", "coordinates": [ -98.707725740781797, 29.423225381182856 ] } },
{ "type": "Feature", "properties": { "id": "48_3", "growth_scenario": "low", "market_gravity_weight": 100 }, "geometry": { "type": "Point", "coordinates": [ -96.95621625171259, 32.978979771763797 ] } },
{ "type": "Feature", "properties": { "id": "48_30", "growth_scenario": "low", "market_gravity_weight": 100 }, "geometry": { "type": "Point", "coordinates": [ -96.982808547333562, 32.944431731320385 ] } },
{ "type": "Feature", "properties": { "id": "48_31", "growth_scenario": "low", "market_gravity_weight": 100 }, "geometry": { "type": "Point", "coordinates": [ -96.961275220564374, 33.023203892947777 ] } },
{ "type": "Feature", "properties": { "id": "48_32", "growth_scenario": "low", "market_gravity_weight": 100 }, "geometry": { "type": "Point", "coordinates": [ -96.967338468305911, 33.025751267152309 ] } },
{ "type": "Feature", "properties": { "id": "48_33", "growth_scenario": "low", "market_gravity_weight": 100 }, "geometry": { "type": "Point", "coordinates": [ -96.969218365969837, 32.941859476924563 ] } },
{ "type": "Feature", "properties": { "id": "48_4", "growth_scenario": "low", "market_gravity_weight": 100 }, "geometry": { "type": "Point", "coordinates": [ -96.955430854092398, 32.985259120800642 ] } },
{ "type": "Feature", "properties": { "id": "48_5", "growth_scenario": "low", "market_gravity_weight": 100 }, "geometry": { "type": "Point", "coordinates": [ -96.95546873757597, 32.988395167961194 ] } },
{ "type": "Feature", "properties": { "id": "48_6", "growth_scenario": "low", "market_gravity_weight": 100 }, "geometry": { "type": "Point", "coordinates": [ -96.955079224022114, 32.991803605001948 ] } },
{ "type": "Feature", "properties": { "id": "48_7", "growth_scenario": "low", "market_gravity_weight": 100 }, "geometry": { "type": "Point", "coordinates": [ -98.721235549697852, 29.426588406728197 ] } },
{ "type": "Feature", "properties": { "id": "48_8", "growth_scenario": "low", "market_gravity_weight": 100 }, "geometry": { "type": "Point", "coordinates": [ -98.718654767965674, 29.426472570436619 ] } },
{ "type": "Feature", "properties": { "id": "48_9", "growth_scenario": "low", "market_gravity_weight": 100 }, "geometry": { "type": "Point", "coordinates": [ -98.719384393725505, 29.423565651384298 ] } },
{ "type": "Feature", "properties": { "id": "49_0", "growth_scenario": "low", "market_gravity_weight": 100 }, "geometry": { "type": "Point", "coordinates": [ -111.925906179587429, 40.343963546856621 ] } },
{ "type": "Feature", "properties": { "id": "49_1", "growth_scenario": "low", "market_gravity_weight": 100 }, "geometry": { "type": "Point", "coordinates": [ -111.922367114637069, 40.34215025626365 ] } },
{ "type": "Feature", "properties": { "id": "49_2", "growth_scenario": "low", "market_gravity_weight": 100 }, "geometry": { "type": "Point", "coordinates": [ -111.983952205877671, 40.370611729830529 ] } },
{ "type": "Feature", "properties": { "id": "49_3", "growth_scenario": "low", "market_gravity_weight": 100 }, "geometry": { "type": "Point", "coordinates": [ -111.926675117537911, 40.346310162042514 ] } },
{ "type": "Feature", "properties": { "id": "51_0", "growth_scenario": "low", "market_gravity_weight": 100 }, "geometry": { "type": "Point", "coordinates": [ -77.473960276781767, 38.979969072609329 ] } },
{ "type": "Feature", "properties": { "id": "51_1", "growth_scenario": "low", "market_gravity_weight": 100 }, "geometry": { "type": "Point", "coordinates": [ -77.493704016766301, 38.986771953688248 ] } },
{ "type": "Feature", "properties": { "id": "51_10", "growth_scenario": "low", "market_gravity_weight": 100 }, "geometry": { "type": "Point", "coordinates": [ -77.490963627934377, 39.000635568895639 ] } },
{ "type": "Feature", "properties": { "id": "51_11", "growth_scenario": "low", "market_gravity_weight": 100 }, "geometry": { "type": "Point", "coordinates": [ -77.463727063356615, 38.996155584891376 ] } },
{ "type": "Feature", "properties": { "id": "51_12", "growth_scenario": "low", "market_gravity_weight": 100 }, "geometry": { "type": "Point", "coordinates": [ -77.438351940455888, 38.910006223775383 ] } },
{ "type": "Feature", "properties": { "id": "51_13", "growth_scenario": "low", "market_gravity_weight": 100 }, "geometry": { "type": "Point", "coordinates": [ -77.466911437656918, 38.998546991941595 ] } },
{ "type": "Feature", "properties": { "id": "51_14", "growth_scenario": "low", "market_gravity_weight": 100 }, "geometry": { "type": "Point", "coordinates": [ -77.460208146538946, 38.996441813296379 ] } },
{ "type": "Feature", "properties": { "id": "51_15", "growth_scenario": "low", "market_gravity_weight": 100 }, "geometry": { "type": "Point", "coordinates": [ -77.46350814561832, 38.999305537250208 ] } },
{ "type": "Feature", "properties": { "id": "51_16", "growth_scenario": "low", "market_gravity_weight": 100 }, "geometry": { "type": "Point", "coordinates": [ -77.436247675680221, 38.908504788042137 ] } },
{ "type": "Feature", "properties": { "id": "51_17", "growth_scenario": "low", "market_gravity_weight": 100 }, "geometry": { "type": "Point", "coordinates": [ -77.438455024255262, 38.90592918467803 ] } },
{ "type": "Feature", "properties": { "id": "51_18", "growth_scenario": "low", "market_gravity_weight": 100 }, "geometry": { "type": "Point", "coordinates": [ -77.465368545486413, 39.002224279630447 ] } },
{ "type": "Feature", "properties": { "id": "51_19", "growth_scenario": "low", "market_gravity_weight": 100 }, "geometry": { "type": "Point", "coordinates": [ -77.465626843444667, 39.00444600357789 ] } },
{ "type": "Feature", "properties": { "id": "51_2", "growth_scenario": "low", "market_gravity_weight": 100 }, "geometry": { "type": "Point", "coordinates": [ -77.476988835360629, 38.990794315692973 ] } },
{ "type": "Feature", "properties": { "id": "51_20", "growth_scenario": "low", "market_gravity_weight": 100 }, "geometry": { "type": "Point", "coordinates": [ -77.461991805607738, 39.004260057966391 ] } },
{ "type": "Feature", "properties": { "id": "51_21", "growth_scenario": "low", "market_gravity_weight": 100 }, "geometry": { "type": "Point", "coordinates": [ -77.43191925885705, 38.903209848380719 ] } },
{ "type": "Feature", "properties": { "id": "51_22", "growth_scenario": "low", "market_gravity_weight": 100 }, "geometry": { "type": "Point", "coordinates": [ -77.454699184847485, 39.003975374224858 ] } },
{ "type": "Feature", "properties": { "id": "51_23", "growth_scenario": "low", "market_gravity_weight": 100 }, "geometry": { "type": "Point", "coordinates": [ -77.416207460962482, 38.985593311719349 ] } },
{ "type": "Feature", "properties": { "id": "51_24", "growth_scenario": "low", "market_gravity_weight": 100 }, "geometry": { "type": "Point", "coordinates": [ -77.450878619750455, 38.87616337940608 ] } },
{ "type": "Feature", "properties": { "id": "51_25", "growth_scenario": "low", "market_gravity_weight": 100 }, "geometry": { "type": "Point", "coordinates": [ -77.434775487029754, 39.01578396016069 ] } },
{ "type": "Feature", "properties": { "id": "51_26", "growth_scenario": "low", "market_gravity_weight": 100 }, "geometry": { "type": "Point", "coordinates": [ -77.442604597034531, 39.019515973439702 ] } },
{ "type": "Feature", "properties": { "id": "51_27", "growth_scenario": "low", "market_gravity_weight": 100 }, "geometry": { "type": "Point", "coordinates": [ -77.470120028465999, 39.030316754929743 ] } },
{ "type": "Feature", "properties": { "id": "51_28", "growth_scenario": "low", "market_gravity_weight": 100 }, "geometry": { "type": "Point", "coordinates": [ -77.462553568447618, 39.031082890515805 ] } },
{ "type": "Feature", "properties": { "id": "51_29", "growth_scenario": "low", "market_gravity_weight": 100 }, "geometry": { "type": "Point", "coordinates": [ -77.521092912062855, 39.066834947275218 ] } },
{ "type": "Feature", "properties": { "id": "51_3", "growth_scenario": "low", "market_gravity_weight": 100 }, "geometry": { "type": "Point", "coordinates": [ -77.472945202215087, 38.991274375477985 ] } },
{ "type": "Feature", "properties": { "id": "51_30", "growth_scenario": "low", "market_gravity_weight": 100 }, "geometry": { "type": "Point", "coordinates": [ -77.523822655779213, 39.068701024467778 ] } },
{ "type": "Feature", "properties": { "id": "51_31", "growth_scenario": "low", "market_gravity_weight": 100 }, "geometry": { "type": "Point", "coordinates": [ -77.510671944113554, 39.06990262681007 ] } },
{ "type": "Feature", "properties": { "id": "51_32", "growth_scenario": "low", "market_gravity_weight": 100 }, "geometry": { "type": "Point", "coordinates": [ -77.516441766626386, 39.071044819204609 ] } },
{ "type": "Feature", "properties": { "id": "51_33", "growth_scenario": "low", "market_gravity_weight": 100 }, "geometry": { "type": "Point", "coordinates": [ -77.51317431551513, 39.072189379228114 ] } },
{ "type": "Feature", "properties": { "id": "51_34", "growth_scenario": "low", "market_gravity_weight": 100 }, "geometry": { "type": "Point", "coordinates": [ -77.525957687020608, 39.070568408512017 ] } },
{ "type": "Feature", "properties": { "id": "51_35", "growth_scenario": "low", "market_gravity_weight": 100 }, "geometry": { "type": "Point", "coordinates": [ -77.50789487924358, 39.073758140287346 ] } },
{ "type": "Feature", "properties": { "id": "51_36", "growth_scenario": "low", "market_gravity_weight": 100 }, "geometry": { "type": "Point", "coordinates": [ -77.517435489032266, 39.073649783724434 ] } },
{ "type": "Feature", "properties": { "id": "51_37", "growth_scenario": "low", "market_gravity_weight": 100 }, "geometry": { "type": "Point", "coordinates": [ -77.509828322474888, 39.076868580034237 ] } },
{ "type": "Feature", "properties": { "id": "51_38", "growth_scenario": "low", "market_gravity_weight": 100 }, "geometry": { "type": "Point", "coordinates": [ -77.508646894842784, 39.079145847210754 ] } },
{ "type": "Feature", "properties": { "id": "51_39", "growth_scenario": "low", "market_gravity_weight": 100 }, "geometry": { "type": "Point", "coordinates": [ -77.520434378947058, 39.080012278315301 ] } },
{ "type": "Feature", "properties": { "id": "51_4", "growth_scenario": "low", "market_gravity_weight": 100 }, "geometry": { "type": "Point", "coordinates": [ -77.47795747945392, 38.993487091063209 ] } },
{ "type": "Feature", "properties": { "id": "51_40", "growth_scenario": "low", "market_gravity_weight": 100 }, "geometry": { "type": "Point", "coordinates": [ -77.509777484487813, 39.081680590171139 ] } },
{ "type": "Feature", "properties": { "id": "51_41", "growth_scenario": "low", "market_gravity_weight": 100 }, "geometry": { "type": "Point", "coordinates": [ -77.527886275836082, 39.08386231333764 ] } },
{ "type": "Feature", "properties": { "id": "51_42", "growth_scenario": "low", "market_gravity_weight": 100 }, "geometry": { "type": "Point", "coordinates": [ -77.531502930062558, 39.084133873922056 ] } },
{ "type": "Feature", "properties": { "id": "51_43", "growth_scenario": "low", "market_gravity_weight": 100 }, "geometry": { "type": "Point", "coordinates": [ -77.528743557362816, 39.086537501310026 ] } },
{ "type": "Feature", "properties": { "id": "51_44", "growth_scenario": "low", "market_gravity_weight": 100 }, "geometry": { "type": "Point", "coordinates": [ -77.533139250415388, 39.08701718214293 ] } },
{ "type": "Feature", "properties": { "id": "51_45", "growth_scenario": "low", "market_gravity_weight": 100 }, "geometry": { "type": "Point", "coordinates": [ -77.530308588800111, 39.088773592175052 ] } },
{ "type": "Feature", "properties": { "id": "51_46", "growth_scenario": "low", "market_gravity_weight": 100 }, "geometry": { "type": "Point", "coordinates": [ -77.535027223436245, 39.089847381749202 ] } },
{ "type": "Feature", "properties": { "id": "51_47", "growth_scenario": "low", "market_gravity_weight": 100 }, "geometry": { "type": "Point", "coordinates": [ -77.499281494406318, 39.096558528375162 ] } },
{ "type": "Feature", "properties": { "id": "51_48", "growth_scenario": "low", "market_gravity_weight": 100 }, "geometry": { "type": "Point", "coordinates": [ -77.536383547236326, 39.102600125058096 ] } },
{ "type": "Feature", "properties": { "id": "51_49", "growth_scenario": "low", "market_gravity_weight": 100 }, "geometry": { "type": "Point", "coordinates": [ -77.523627945325316, 39.106864287035719 ] } },
{ "type": "Feature", "properties": { "id": "51_5", "growth_scenario": "low", "market_gravity_weight": 100 }, "geometry": { "type": "Point", "coordinates": [ -77.493257310273833, 38.996344022533989 ] } },
{ "type": "Feature", "properties": { "id": "51_50", "growth_scenario": "low", "market_gravity_weight": 100 }, "geometry": { "type": "Point", "coordinates": [ -77.517980094196744, 39.108469314792629 ] } },
{ "type": "Feature", "properties": { "id": "51_51", "growth_scenario": "low", "market_gravity_weight": 100 }, "geometry": { "type": "Point", "coordinates": [ -77.521761082671929, 39.109493207101067 ] } },
{ "type": "Feature", "properties": { "id": "51_6", "growth_scenario": "low", "market_gravity_weight": 100 }, "geometry": { "type": "Point", "coordinates": [ -77.46848937371108, 38.991510094492234 ] } },
{ "type": "Feature", "properties": { "id": "51_7", "growth_scenario": "low", "market_gravity_weight": 100 }, "geometry": { "type": "Point", "coordinates": [ -77.493538991500344, 38.998478152540613 ] } },
{ "type": "Feature", "properties": { "id": "51_8", "growth_scenario": "low", "market_gravity_weight": 100 }, "geometry": { "type": "Point", "coordinates": [ -77.488714106091308, 38.997840469409084 ] } },
{ "type": "Feature", "properties": { "id": "51_9", "growth_scenario": "low", "market_gravity_weight": 100 }, "geometry": { "type": "Point", "coordinates": [ -77.467199370565254, 38.995589380903645 ] } },
{ "type": "Feature", "properties": { "id": "53_0", "growth_scenario": "low", "market_gravity_weight": 100 }, "geometry": { "type": "Point", "coordinates": [ -119.90580807307478, 47.2482223551497 ] } },
{ "type": "Feature", "properties": { "id": "53_1", "growth_scenario": "low", "market_gravity_weight": 100 }, "geometry": { "type": "Point", "coordinates": [ -119.900554963206659, 47.248684742863766 ] } },
{ "type": "Feature", "properties": { "id": "53_2", "growth_scenario": "low", "market_gravity_weight": 100 }, "geometry": { "type": "Point", "coordinates": [ -119.909283848538166, 47.245179464645126 ] } },
{ "type": "Feature", "properties": { "id": "53_3", "growth_scenario": "low", "market_gravity_weight": 100 }, "geometry": { "type": "Point", "coordinates": [ -119.895941506115278, 47.249407313216764 ] } },
{ "type": "Feature", "properties": { "id": "53_4", "growth_scenario": "low", "market_gravity_weight": 100 }, "geometry": { "type": "Point", "coordinates": [ -119.914653012118592, 47.243575572478555 ] } },
{ "type": "Feature", "properties": { "id": "53_5", "growth_scenario": "low", "market_gravity_weight": 100 }, "geometry": { "type": "Point", "coordinates": [ -119.905328934732168, 47.24475869597098 ] } },
{ "type": "Feature", "properties": { "id": "53_6", "growth_scenario": "low", "market_gravity_weight": 100 }, "geometry": { "type": "Point", "coordinates": [ -119.891931503776505, 47.249929639158886 ] } },
{ "type": "Feature", "properties": { "id": "53_7", "growth_scenario": "low", "market_gravity_weight": 100 }, "geometry": { "type": "Point", "coordinates": [ -119.884079802483299, 47.255426231647775 ] } },
{ "type": "Feature", "properties": { "id": "56_0", "growth_scenario": "low", "market_gravity_weight": 100 }, "geometry": { "type": "Point", "coordinates": [ -104.840244740299184, 41.114087795709516 ] } },
{ "type": "Feature", "properties": { "id": "56_1", "growth_scenario": "low", "market_gravity_weight": 100 }, "geometry": { "type": "Point", "coordinates": [ -104.839910258442416, 41.111419929472504 ] } }
]
}
