{
"type": "FeatureCollection",
"name": "low_growth_25_market_gravity_epsg4326_centroids",
"crs": { "type": "name", "properties": { "name": "urn:ogc:def:crs:OGC:1.3:CRS84" } },
"features": [
{ "type": "Feature", "properties": { "id": "1_0", "growth_scenario": "low", "market_gravity_weight": 25 }, "geometry": { "type": "Point", "coordinates": [ -86.626063192751985, 34.836800523816258 ] } },
{ "type": "Feature", "properties": { "id": "1_1", "growth_scenario": "low", "market_gravity_weight": 25 }, "geometry": { "type": "Point", "coordinates": [ -86.912807264182902, 33.400479549212022 ] } },
{ "type": "Feature", "properties": { "id": "4_0", "growth_scenario": "low", "market_gravity_weight": 25 }, "geometry": { "type": "Point", "coordinates": [ -113.175503892585823, 34.564482600700103 ] } },
{ "type": "Feature", "properties": { "id": "4_1", "growth_scenario": "low", "market_gravity_weight": 25 }, "geometry": { "type": "Point", "coordinates": [ -113.173630745376485, 34.586485699069883 ] } },
{ "type": "Feature", "properties": { "id": "4_2", "growth_scenario": "low", "market_gravity_weight": 25 }, "geometry": { "type": "Point", "coordinates": [ -113.176226125001293, 34.587099675324581 ] } },
{ "type": "Feature", "properties": { "id": "4_3", "growth_scenario": "low", "market_gravity_weight": 25 }, "geometry": { "type": "Point", "coordinates": [ -113.172348173969738, 34.562861251570368 ] } },
{ "type": "Feature", "properties": { "id": "4_4", "growth_scenario": "low", "market_gravity_weight": 25 }, "geometry": { "type": "Point", "coordinates": [ -113.17214761144011, 34.568435873369225 ] } },
{ "type": "Feature", "properties": { "id": "4_5", "growth_scenario": "low", "market_gravity_weight": 25 }, "geometry": { "type": "Point", "coordinates": [ -113.170793158684759, 34.589270820515743 ] } },
{ "type": "Feature", "properties": { "id": "4_6", "growth_scenario": "low", "market_gravity_weight": 25 }, "geometry": { "type": "Point", "coordinates": [ -113.179354698307748, 34.563727987869385 ] } },
{ "type": "Feature", "properties": { "id": "4_7", "growth_scenario": "low", "market_gravity_weight": 25 }, "geometry": { "type": "Point", "coordinates": [ -113.178267283394973, 34.584251024322597 ] } },
{ "type": "Feature", "properties": { "id": "4_8", "growth_scenario": "low", "market_gravity_weight": 25 }, "geometry": { "type": "Point", "coordinates": [ -114.63897728294161, 32.6399991297612 ] } },
{ "type": "Feature", "properties": { "id": "6_0", "growth_scenario": "low", "market_gravity_weight": 25 }, "geometry": { "type": "Point", "coordinates": [ -121.93599305745856, 37.425035704478049 ] } },
{ "type": "Feature", "properties": { "id": "6_1", "growth_scenario": "low", "market_gravity_weight": 25 }, "geometry": { "type": "Point", "coordinates": [ -121.935658727206942, 37.428074065660319 ] } },
{ "type": "Feature", "properties": { "id": "6_10", "growth_scenario": "low", "market_gravity_weight": 25 }, "geometry": { "type": "Point", "coordinates": [ -121.489160861707305, 38.661495350866858 ] } },
{ "type": "Feature", "properties": { "id": "6_11", "growth_scenario": "low", "market_gravity_weight": 25 }, "geometry": { "type": "Point", "coordinates": [ -121.473959771129302, 38.661376495657699 ] } },
{ "type": "Feature", "properties": { "id": "6_12", "growth_scenario": "low", "market_gravity_weight": 25 }, "geometry": { "type": "Point", "coordinates": [ -122.268341079376754, 38.260732874609928 ] } },
{ "type": "Feature", "properties": { "id": "6_13", "growth_scenario": "low", "market_gravity_weight": 25 }, "geometry": { "type": "Point", "coordinates": [ -121.928397166336438, 37.437910223619198 ] } },
{ "type": "Feature", "properties": { "id": "6_2", "growth_scenario": "low", "market_gravity_weight": 25 }, "geometry": { "type": "Point", "coordinates": [ -121.93080716965612, 37.429414063689329 ] } },
{ "type": "Feature", "properties": { "id": "6_3", "growth_scenario": "low", "market_gravity_weight": 25 }, "geometry": { "type": "Point", "coordinates": [ -121.928808435825516, 37.426145145780197 ] } },
{ "type": "Feature", "properties": { "id": "6_4", "growth_scenario": "low", "market_gravity_weight": 25 }, "geometry": { "type": "Point", "coordinates": [ -121.488633066186779, 38.657998433364561 ] } },
{ "type": "Feature", "properties": { "id": "6_5", "growth_scenario": "low", "market_gravity_weight": 25 }, "geometry": { "type": "Point", "coordinates": [ -121.481360548328709, 38.637977530643795 ] } },
{ "type": "Feature", "properties": { "id": "6_6", "growth_scenario": "low", "market_gravity_weight": 25 }, "geometry": { "type": "Point", "coordinates": [ -121.491689123160398, 38.659480522490753 ] } },
{ "type": "Feature", "properties": { "id": "6_7", "growth_scenario": "low", "market_gravity_weight": 25 }, "geometry": { "type": "Point", "coordinates": [ -121.486459988396675, 38.659660552873504 ] } },
{ "type": "Feature", "properties": { "id": "6_8", "growth_scenario": "low", "market_gravity_weight": 25 }, "geometry": { "type": "Point", "coordinates": [ -121.928468245376564, 37.434466281294164 ] } },
{ "type": "Feature", "properties": { "id": "6_9", "growth_scenario": "low", "market_gravity_weight": 25 }, "geometry": { "type": "Point", "coordinates": [ -121.470392766442401, 38.658799182432418 ] } },
{ "type": "Feature", "properties": { "id": "8_0", "growth_scenario": "low", "market_gravity_weight": 25 }, "geometry": { "type": "Point", "coordinates": [ -104.782779344324652, 38.98662710912415 ] } },
{ "type": "Feature", "properties": { "id": "8_1", "growth_scenario": "low", "market_gravity_weight": 25 }, "geometry": { "type": "Point", "coordinates": [ -104.780686351391694, 38.984804369729218 ] } },
{ "type": "Feature", "properties": { "id": "12_0", "growth_scenario": "low", "market_gravity_weight": 25 }, "geometry": { "type": "Point", "coordinates": [ -80.308063534106012, 25.964919423376269 ] } },
{ "type": "Feature", "properties": { "id": "12_1", "growth_scenario": "low", "market_gravity_weight": 25 }, "geometry": { "type": "Point", "coordinates": [ -80.193219153451921, 26.07265212781622 ] } },
{ "type": "Feature", "properties": { "id": "13_0", "growth_scenario": "low", "market_gravity_weight": 25 }, "geometry": { "type": "Point", "coordinates": [ -83.975623207471287, 34.886368094311294 ] } },
{ "type": "Feature", "properties": { "id": "13_1", "growth_scenario": "low", "market_gravity_weight": 25 }, "geometry": { "type": "Point", "coordinates": [ -83.844636221426526, 34.949303723703323 ] } },
{ "type": "Feature", "properties": { "id": "13_2", "growth_scenario": "low", "market_gravity_weight": 25 }, "geometry": { "type": "Point", "coordinates": [ -84.153363640509966, 33.927858188895556 ] } },
{ "type": "Feature", "properties": { "id": "13_3", "growth_scenario": "low", "market_gravity_weight": 25 }, "geometry": { "type": "Point", "coordinates": [ -84.029214007096428, 33.909690458515165 ] } },
{ "type": "Feature", "properties": { "id": "13_4", "growth_scenario": "low", "market_gravity_weight": 25 }, "geometry": { "type": "Point", "coordinates": [ -84.005632651389618, 33.827758236814887 ] } },
{ "type": "Feature", "properties": { "id": "13_5", "growth_scenario": "low", "market_gravity_weight": 25 }, "geometry": { "type": "Point", "coordinates": [ -84.552944780804097, 33.761921188066736 ] } },
{ "type": "Feature", "properties": { "id": "13_6", "growth_scenario": "low", "market_gravity_weight": 25 }, "geometry": { "type": "Point", "coordinates": [ -84.020469188334516, 34.054628380181533 ] } },
{ "type": "Feature", "properties": { "id": "13_7", "growth_scenario": "low", "market_gravity_weight": 25 }, "geometry": { "type": "Point", "coordinates": [ -84.020355582522569, 34.115852112344733 ] } },
{ "type": "Feature", "properties": { "id": "13_8", "growth_scenario": "low", "market_gravity_weight": 25 }, "geometry": { "type": "Point", "coordinates": [ -84.011654495921448, 34.105208756807691 ] } },
{ "type": "Feature", "properties": { "id": "17_0", "growth_scenario": "low", "market_gravity_weight": 25 }, "geometry": { "type": "Point", "coordinates": [ -88.421959442974298, 41.690476118235182 ] } },
{ "type": "Feature", "properties": { "id": "17_1", "growth_scenario": "low", "market_gravity_weight": 25 }, "geometry": { "type": "Point", "coordinates": [ -88.48004660807122, 41.68429844076779 ] } },
{ "type": "Feature", "properties": { "id": "17_10", "growth_scenario": "low", "market_gravity_weight": 25 }, "geometry": { "type": "Point", "coordinates": [ -87.973338653341315, 42.314091911377297 ] } },
{ "type": "Feature", "properties": { "id": "17_2", "growth_scenario": "low", "market_gravity_weight": 25 }, "geometry": { "type": "Point", "coordinates": [ -88.481327899075708, 41.687062800277282 ] } },
{ "type": "Feature", "properties": { "id": "17_3", "growth_scenario": "low", "market_gravity_weight": 25 }, "geometry": { "type": "Point", "coordinates": [ -88.485308901815898, 41.687295810837384 ] } },
{ "type": "Feature", "properties": { "id": "17_4", "growth_scenario": "low", "market_gravity_weight": 25 }, "geometry": { "type": "Point", "coordinates": [ -88.48363097076404, 41.683701487148589 ] } },
{ "type": "Feature", "properties": { "id": "17_5", "growth_scenario": "low", "market_gravity_weight": 25 }, "geometry": { "type": "Point", "coordinates": [ -87.561679373537842, 41.687757057569883 ] } },
{ "type": "Feature", "properties": { "id": "17_6", "growth_scenario": "low", "market_gravity_weight": 25 }, "geometry": { "type": "Point", "coordinates": [ -88.29223106852713, 41.409782879281586 ] } },
{ "type": "Feature", "properties": { "id": "17_7", "growth_scenario": "low", "market_gravity_weight": 25 }, "geometry": { "type": "Point", "coordinates": [ -88.295822570127228, 41.409013231131837 ] } },
{ "type": "Feature", "properties": { "id": "17_8", "growth_scenario": "low", "market_gravity_weight": 25 }, "geometry": { "type": "Point", "coordinates": [ -88.282970163085409, 41.393897229433357 ] } },
{ "type": "Feature", "properties": { "id": "17_9", "growth_scenario": "low", "market_gravity_weight": 25 }, "geometry": { "type": "Point", "coordinates": [ -87.974369288247644, 42.310476076534535 ] } },
{ "type": "Feature", "properties": { "id": "19_0", "growth_scenario": "low", "market_gravity_weight": 25 }, "geometry": { "type": "Point", "coordinates": [ -93.611522932049851, 41.888080353226762 ] } },
{ "type": "Feature", "properties": { "id": "19_1", "growth_scenario": "low", "market_gravity_weight": 25 }, "geometry": { "type": "Point", "coordinates": [ -91.973015525750057, 41.036252611576778 ] } },
{ "type": "Feature", "properties": { "id": "19_2", "growth_scenario": "low", "market_gravity_weight": 25 }, "geometry": { "type": "Point", "coordinates": [ -91.97327245222715, 41.033847212200826 ] } },
{ "type": "Feature", "properties": { "id": "19_3", "growth_scenario": "low", "market_gravity_weight": 25 }, "geometry": { "type": "Point", "coordinates": [ -93.613378784174571, 41.890618243601736 ] } },
{ "type": "Feature", "properties": { "id": "19_4", "growth_scenario": "low", "market_gravity_weight": 25 }, "geometry": { "type": "Point", "coordinates": [ -91.970473715983601, 41.0324179555857 ] } },
{ "type": "Feature", "properties": { "id": "19_5", "growth_scenario": "low", "market_gravity_weight": 25 }, "geometry": { "type": "Point", "coordinates": [ -93.612700201712428, 41.885598607706662 ] } },
{ "type": "Feature", "properties": { "id": "19_6", "growth_scenario": "low", "market_gravity_weight": 25 }, "geometry": { "type": "Point", "coordinates": [ -92.435230885291759, 40.988969893357336 ] } },
{ "type": "Feature", "properties": { "id": "19_7", "growth_scenario": "low", "market_gravity_weight": 25 }, "geometry": { "type": "Point", "coordinates": [ -92.435033448964703, 40.985747104286794 ] } },
{ "type": "Feature", "properties": { "id": "19_8", "growth_scenario": "low", "market_gravity_weight": 25 }, "geometry": { "type": "Point", "coordinates": [ -91.976845878961754, 41.034317569441562 ] } },
{ "type": "Feature", "properties": { "id": "21_0", "growth_scenario": "low", "market_gravity_weight": 25 }, "geometry": { "type": "Point", "coordinates": [ -87.148400276247799, 36.820478212800857 ] } },
{ "type": "Feature", "properties": { "id": "21_1", "growth_scenario": "low", "market_gravity_weight": 25 }, "geometry": { "type": "Point", "coordinates": [ -87.153284027189372, 36.821465443047728 ] } },
{ "type": "Feature", "properties": { "id": "25_0", "growth_scenario": "low", "market_gravity_weight": 25 }, "geometry": { "type": "Point", "coordinates": [ -71.039770607158175, 42.504304034588088 ] } },
{ "type": "Feature", "properties": { "id": "27_0", "growth_scenario": "low", "market_gravity_weight": 25 }, "geometry": { "type": "Point", "coordinates": [ -94.185926773355888, 46.321500754532039 ] } },
{ "type": "Feature", "properties": { "id": "29_0", "growth_scenario": "low", "market_gravity_weight": 25 }, "geometry": { "type": "Point", "coordinates": [ -94.581870040679306, 39.328082955851009 ] } },
{ "type": "Feature", "properties": { "id": "31_0", "growth_scenario": "low", "market_gravity_weight": 25 }, "geometry": { "type": "Point", "coordinates": [ -96.093219889681365, 41.124144920431576 ] } },
{ "type": "Feature", "properties": { "id": "31_1", "growth_scenario": "low", "market_gravity_weight": 25 }, "geometry": { "type": "Point", "coordinates": [ -96.141249122694504, 41.128477331258992 ] } },
{ "type": "Feature", "properties": { "id": "31_2", "growth_scenario": "low", "market_gravity_weight": 25 }, "geometry": { "type": "Point", "coordinates": [ -96.044240561983614, 41.126761438446749 ] } },
{ "type": "Feature", "properties": { "id": "31_3", "growth_scenario": "low", "market_gravity_weight": 25 }, "geometry": { "type": "Point", "coordinates": [ -96.140988157086952, 41.17822788652191 ] } },
{ "type": "Feature", "properties": { "id": "31_4", "growth_scenario": "low", "market_gravity_weight": 25 }, "geometry": { "type": "Point", "coordinates": [ -96.133341041116395, 41.073200344907853 ] } },
{ "type": "Feature", "properties": { "id": "31_5", "growth_scenario": "low", "market_gravity_weight": 25 }, "geometry": { "type": "Point", "coordinates": [ -96.14078525529068, 41.076407591736732 ] } },
{ "type": "Feature", "properties": { "id": "32_0", "growth_scenario": "low", "market_gravity_weight": 25 }, "geometry": { "type": "Point", "coordinates": [ -115.27624826089513, 36.11732842888857 ] } },
{ "type": "Feature", "properties": { "id": "32_1", "growth_scenario": "low", "market_gravity_weight": 25 }, "geometry": { "type": "Point", "coordinates": [ -114.045981300796015, 40.741674278442169 ] } },
{ "type": "Feature", "properties": { "id": "32_2", "growth_scenario": "low", "market_gravity_weight": 25 }, "geometry": { "type": "Point", "coordinates": [ -115.018304803091283, 36.109989595933058 ] } },
{ "type": "Feature", "properties": { "id": "32_3", "growth_scenario": "low", "market_gravity_weight": 25 }, "geometry": { "type": "Point", "coordinates": [ -119.934880489214123, 39.505193410142731 ] } },
{ "type": "Feature", "properties": { "id": "32_4", "growth_scenario": "low", "market_gravity_weight": 25 }, "geometry": { "type": "Point", "coordinates": [ -119.93152583728282, 39.505665397619687 ] } },
{ "type": "Feature", "properties": { "id": "34_0", "growth_scenario": "low", "market_gravity_weight": 25 }, "geometry": { "type": "Point", "coordinates": [ -74.84443322527089, 40.51730608959334 ] } },
{ "type": "Feature", "properties": { "id": "34_1", "growth_scenario": "low", "market_gravity_weight": 25 }, "geometry": { "type": "Point", "coordinates": [ -74.323979808092929, 40.460024995536308 ] } },
{ "type": "Feature", "properties": { "id": "34_2", "growth_scenario": "low", "market_gravity_weight": 25 }, "geometry": { "type": "Point", "coordinates": [ -74.347999462866539, 40.450644886423525 ] } },
{ "type": "Feature", "properties": { "id": "34_3", "growth_scenario": "low", "market_gravity_weight": 25 }, "geometry": { "type": "Point", "coordinates": [ -74.344319317262261, 40.449912632273374 ] } },
{ "type": "Feature", "properties": { "id": "34_4", "growth_scenario": "low", "market_gravity_weight": 25 }, "geometry": { "type": "Point", "coordinates": [ -74.348387182833704, 40.4474133670412 ] } },
{ "type": "Feature", "properties": { "id": "34_5", "growth_scenario": "low", "market_gravity_weight": 25 }, "geometry": { "type": "Point", "coordinates": [ -74.312978340998825, 40.441519524277375 ] } },
{ "type": "Feature", "properties": { "id": "36_0", "growth_scenario": "low", "market_gravity_weight": 25 }, "geometry": { "type": "Point", "coordinates": [ -74.024082617564318, 41.151706260913876 ] } },
{ "type": "Feature", "properties": { "id": "36_1", "growth_scenario": "low", "market_gravity_weight": 25 }, "geometry": { "type": "Point", "coordinates": [ -73.960829278272143, 41.089770859692528 ] } },
{ "type": "Feature", "properties": { "id": "36_2", "growth_scenario": "low", "market_gravity_weight": 25 }, "geometry": { "type": "Point", "coordinates": [ -73.994988613517094, 41.248932428289891 ] } },
{ "type": "Feature", "properties": { "id": "36_3", "growth_scenario": "low", "market_gravity_weight": 25 }, "geometry": { "type": "Point", "coordinates": [ -73.980734339559959, 41.223399199325975 ] } },
{ "type": "Feature", "properties": { "id": "36_4", "growth_scenario": "low", "market_gravity_weight": 25 }, "geometry": { "type": "Point", "coordinates": [ -74.029085506764517, 41.075873856370876 ] } },
{ "type": "Feature", "properties": { "id": "36_5", "growth_scenario": "low", "market_gravity_weight": 25 }, "geometry": { "type": "Point", "coordinates": [ -74.119448712816833, 41.120387392222085 ] } },
{ "type": "Feature", "properties": { "id": "37_0", "growth_scenario": "low", "market_gravity_weight": 25 }, "geometry": { "type": "Point", "coordinates": [ -78.291111196602174, 35.797756197627088 ] } },
{ "type": "Feature", "properties": { "id": "37_1", "growth_scenario": "low", "market_gravity_weight": 25 }, "geometry": { "type": "Point", "coordinates": [ -78.290449336439195, 35.80056473365066 ] } },
{ "type": "Feature", "properties": { "id": "37_2", "growth_scenario": "low", "market_gravity_weight": 25 }, "geometry": { "type": "Point", "coordinates": [ -78.294489570688981, 35.799810777416482 ] } },
{ "type": "Feature", "properties": { "id": "37_3", "growth_scenario": "low", "market_gravity_weight": 25 }, "geometry": { "type": "Point", "coordinates": [ -78.294575775045843, 35.796551886467348 ] } },
{ "type": "Feature", "properties": { "id": "38_0", "growth_scenario": "low", "market_gravity_weight": 25 }, "geometry": { "type": "Point", "coordinates": [ -100.875046723499295, 46.845237283070624 ] } },
{ "type": "Feature", "properties": { "id": "38_1", "growth_scenario": "low", "market_gravity_weight": 25 }, "geometry": { "type": "Point", "coordinates": [ -100.881504382865302, 46.798433714647388 ] } },
{ "type": "Feature", "properties": { "id": "38_2", "growth_scenario": "low", "market_gravity_weight": 25 }, "geometry": { "type": "Point", "coordinates": [ -100.889671269735388, 46.844988403061727 ] } },
{ "type": "Feature", "properties": { "id": "38_3", "growth_scenario": "low", "market_gravity_weight": 25 }, "geometry": { "type": "Point", "coordinates": [ -97.05031351081287, 46.873420748423911 ] } },
{ "type": "Feature", "properties": { "id": "38_4", "growth_scenario": "low", "market_gravity_weight": 25 }, "geometry": { "type": "Point", "coordinates": [ -97.04720460450514, 46.875070528516702 ] } },
{ "type": "Feature", "properties": { "id": "38_5", "growth_scenario": "low", "market_gravity_weight": 25 }, "geometry": { "type": "Point", "coordinates": [ -100.875553351714018, 46.793943118407945 ] } },
{ "type": "Feature", "properties": { "id": "39_0", "growth_scenario": "low", "market_gravity_weight": 25 }, "geometry": { "type": "Point", "coordinates": [ -82.78030345668131, 39.878746732676433 ] } },
{ "type": "Feature", "properties": { "id": "39_1", "growth_scenario": "low", "market_gravity_weight": 25 }, "geometry": { "type": "Point", "coordinates": [ -82.802304083340758, 39.802228924603362 ] } },
{ "type": "Feature", "properties": { "id": "39_2", "growth_scenario": "low", "market_gravity_weight": 25 }, "geometry": { "type": "Point", "coordinates": [ -82.638269867248624, 39.701206708018312 ] } },
{ "type": "Feature", "properties": { "id": "40_0", "growth_scenario": "low", "market_gravity_weight": 25 }, "geometry": { "type": "Point", "coordinates": [ -95.910200812322799, 36.260762798360531 ] } },
{ "type": "Feature", "properties": { "id": "41_0", "growth_scenario": "low", "market_gravity_weight": 25 }, "geometry": { "type": "Point", "coordinates": [ -122.94176346461299, 45.560724261921223 ] } },
{ "type": "Feature", "properties": { "id": "41_1", "growth_scenario": "low", "market_gravity_weight": 25 }, "geometry": { "type": "Point", "coordinates": [ -122.937536584468262, 45.562433120660053 ] } },
{ "type": "Feature", "properties": { "id": "41_2", "growth_scenario": "low", "market_gravity_weight": 25 }, "geometry": { "type": "Point", "coordinates": [ -122.902193236391966, 45.569849687906746 ] } },
{ "type": "Feature", "properties": { "id": "41_3", "growth_scenario": "low", "market_gravity_weight": 25 }, "geometry": { "type": "Point", "coordinates": [ -120.879194144187267, 44.282896079597691 ] } },
{ "type": "Feature", "properties": { "id": "41_4", "growth_scenario": "low", "market_gravity_weight": 25 }, "geometry": { "type": "Point", "coordinates": [ -120.873552353691707, 44.282767832845515 ] } },
{ "type": "Feature", "properties": { "id": "41_5", "growth_scenario": "low", "market_gravity_weight": 25 }, "geometry": { "type": "Point", "coordinates": [ -122.940712074010193, 45.563657706026788 ] } },
{ "type": "Feature", "properties": { "id": "41_6", "growth_scenario": "low", "market_gravity_weight": 25 }, "geometry": { "type": "Point", "coordinates": [ -120.869642350628723, 44.282401044861629 ] } },
{ "type": "Feature", "properties": { "id": "41_7", "growth_scenario": "low", "market_gravity_weight": 25 }, "geometry": { "type": "Point", "coordinates": [ -122.944974776278087, 45.562035139356446 ] } },
{ "type": "Feature", "properties": { "id": "41_8", "growth_scenario": "low", "market_gravity_weight": 25 }, "geometry": { "type": "Point", "coordinates": [ -122.900815666248477, 45.574255004607458 ] } },
{ "type": "Feature", "properties": { "id": "41_9", "growth_scenario": "low", "market_gravity_weight": 25 }, "geometry": { "type": "Point", "coordinates": [ -120.875460179758619, 44.291320149491234 ] } },
{ "type": "Feature", "properties": { "id": "42_0", "growth_scenario": "low", "market_gravity_weight": 25 }, "geometry": { "type": "Point", "coordinates": [ -77.704529417614864, 39.777045634132648 ] } },
{ "type": "Feature", "properties": { "id": "42_1", "growth_scenario": "low", "market_gravity_weight": 25 }, "geometry": { "type": "Point", "coordinates": [ -77.687631919155493, 39.861290879402361 ] } },
{ "type": "Feature", "properties": { "id": "42_2", "growth_scenario": "low", "market_gravity_weight": 25 }, "geometry": { "type": "Point", "coordinates": [ -77.686129804103061, 39.865251707527307 ] } },
{ "type": "Feature", "properties": { "id": "42_3", "growth_scenario": "low", "market_gravity_weight": 25 }, "geometry": { "type": "Point", "coordinates": [ -77.699867110827853, 39.86837015977688 ] } },
{ "type": "Feature", "properties": { "id": "42_4", "growth_scenario": "low", "market_gravity_weight": 25 }, "geometry": { "type": "Point", "coordinates": [ -77.703456166333225, 39.868899562709217 ] } },
{ "type": "Feature", "properties": { "id": "42_5", "growth_scenario": "low", "market_gravity_weight": 25 }, "geometry": { "type": "Point", "coordinates": [ -77.679681634680549, 39.911673195518595 ] } },
{ "type": "Feature", "properties": { "id": "42_6", "growth_scenario": "low", "market_gravity_weight": 25 }, "geometry": { "type": "Point", "coordinates": [ -77.603793137467306, 39.936733931700864 ] } },
{ "type": "Feature", "properties": { "id": "45_0", "growth_scenario": "low", "market_gravity_weight": 25 }, "geometry": { "type": "Point", "coordinates": [ -81.916848072372844, 33.637042114776968 ] } },
{ "type": "Feature", "properties": { "id": "45_1", "growth_scenario": "low", "market_gravity_weight": 25 }, "geometry": { "type": "Point", "coordinates": [ -81.867123361318164, 35.134071920197009 ] } },
{ "type": "Feature", "properties": { "id": "45_2", "growth_scenario": "low", "market_gravity_weight": 25 }, "geometry": { "type": "Point", "coordinates": [ -81.868271937292647, 35.131499992606535 ] } },
{ "type": "Feature", "properties": { "id": "47_0", "growth_scenario": "low", "market_gravity_weight": 25 }, "geometry": { "type": "Point", "coordinates": [ -82.308723733626422, 36.424577515211411 ] } },
{ "type": "Feature", "properties": { "id": "47_1", "growth_scenario": "low", "market_gravity_weight": 25 }, "geometry": { "type": "Point", "coordinates": [ -82.31109027257736, 36.426563731969097 ] } },
{ "type": "Feature", "properties": { "id": "48_0", "growth_scenario": "low", "market_gravity_weight": 25 }, "geometry": { "type": "Point", "coordinates": [ -96.958747459774358, 32.983528714201711 ] } },
{ "type": "Feature", "properties": { "id": "48_1", "growth_scenario": "low", "market_gravity_weight": 25 }, "geometry": { "type": "Point", "coordinates": [ -96.957534016106791, 32.981119399394082 ] } },
{ "type": "Feature", "properties": { "id": "48_10", "growth_scenario": "low", "market_gravity_weight": 25 }, "geometry": { "type": "Point", "coordinates": [ -96.972908855168996, 32.95320929828474 ] } },
{ "type": "Feature", "properties": { "id": "48_11", "growth_scenario": "low", "market_gravity_weight": 25 }, "geometry": { "type": "Point", "coordinates": [ -96.955396870239852, 33.009185003573329 ] } },
{ "type": "Feature", "properties": { "id": "48_12", "growth_scenario": "low", "market_gravity_weight": 25 }, "geometry": { "type": "Point", "coordinates": [ -96.95693483038977, 33.011681129623902 ] } },
{ "type": "Feature", "properties": { "id": "48_13", "growth_scenario": "low", "market_gravity_weight": 25 }, "geometry": { "type": "Point", "coordinates": [ -98.714737987990759, 29.423320942565777 ] } },
{ "type": "Feature", "properties": { "id": "48_14", "growth_scenario": "low", "market_gravity_weight": 25 }, "geometry": { "type": "Point", "coordinates": [ -96.966008735354023, 32.952192531502369 ] } },
{ "type": "Feature", "properties": { "id": "48_15", "growth_scenario": "low", "market_gravity_weight": 25 }, "geometry": { "type": "Point", "coordinates": [ -98.737732862136525, 29.417326795681543 ] } },
{ "type": "Feature", "properties": { "id": "48_16", "growth_scenario": "low", "market_gravity_weight": 25 }, "geometry": { "type": "Point", "coordinates": [ -96.973940832406967, 32.949615878074994 ] } },
{ "type": "Feature", "properties": { "id": "48_17", "growth_scenario": "low", "market_gravity_weight": 25 }, "geometry": { "type": "Point", "coordinates": [ -96.971133223277931, 32.948833263783214 ] } },
{ "type": "Feature", "properties": { "id": "48_18", "growth_scenario": "low", "market_gravity_weight": 25 }, "geometry": { "type": "Point", "coordinates": [ -96.977803513407693, 32.9486866884276 ] } },
{ "type": "Feature", "properties": { "id": "48_19", "growth_scenario": "low", "market_gravity_weight": 25 }, "geometry": { "type": "Point", "coordinates": [ -97.020811499726349, 32.995804995921837 ] } },
{ "type": "Feature", "properties": { "id": "48_2", "growth_scenario": "low", "market_gravity_weight": 25 }, "geometry": { "type": "Point", "coordinates": [ -98.720735556924893, 29.430211710265684 ] } },
{ "type": "Feature", "properties": { "id": "48_20", "growth_scenario": "low", "market_gravity_weight": 25 }, "geometry": { "type": "Point", "coordinates": [ -96.981355521674203, 32.948745813550502 ] } },
{ "type": "Feature", "properties": { "id": "48_21", "growth_scenario": "low", "market_gravity_weight": 25 }, "geometry": { "type": "Point", "coordinates": [ -97.020858920849761, 32.999478564229179 ] } },
{ "type": "Feature", "properties": { "id": "48_22", "growth_scenario": "low", "market_gravity_weight": 25 }, "geometry": { "type": "Point", "coordinates": [ -97.021429683470302, 33.001982516740192 ] } },
{ "type": "Feature", "properties": { "id": "48_23", "growth_scenario": "low", "market_gravity_weight": 25 }, "geometry": { "type": "Point", "coordinates": [ -97.709571097310629, 30.194978425518435 ] } },
{ "type": "Feature", "properties": { "id": "48_24", "growth_scenario": "low", "market_gravity_weight": 25 }, "geometry": { "type": "Point", "coordinates": [ -96.969482948183668, 32.94588996910246 ] } },
{ "type": "Feature", "properties": { "id": "48_25", "growth_scenario": "low", "market_gravity_weight": 25 }, "geometry": { "type": "Point", "coordinates": [ -96.981204588646278, 32.94525208258024 ] } },
{ "type": "Feature", "properties": { "id": "48_26", "growth_scenario": "low", "market_gravity_weight": 25 }, "geometry": { "type": "Point", "coordinates": [ -96.989280052662338, 32.945630439988172 ] } },
{ "type": "Feature", "properties": { "id": "48_27", "growth_scenario": "low", "market_gravity_weight": 25 }, "geometry": { "type": "Point", "coordinates": [ -97.024714197322552, 32.997831064771596 ] } },
{ "type": "Feature", "properties": { "id": "48_28", "growth_scenario": "low", "market_gravity_weight": 25 }, "geometry": { "type": "Point", "coordinates": [ -97.024435295834081, 33.001238722197677 ] } },
{ "type": "Feature", "properties": { "id": "48_29", "growth_scenario": "low", "market_gravity_weight": 25 }, "geometry": { "type": "Point", "coordinates": [ -98.707725740781797, 29.423225381182856 ] } },
{ "type": "Feature", "properties": { "id": "48_3", "growth_scenario": "low", "market_gravity_weight": 25 }, "geometry": { "type": "Point", "coordinates": [ -96.95621625171259, 32.978979771763797 ] } },
{ "type": "Feature", "properties": { "id": "48_30", "growth_scenario": "low", "market_gravity_weight": 25 }, "geometry": { "type": "Point", "coordinates": [ -96.961275220564374, 33.023203892947777 ] } },
{ "type": "Feature", "properties": { "id": "48_31", "growth_scenario": "low", "market_gravity_weight": 25 }, "geometry": { "type": "Point", "coordinates": [ -96.967338468305911, 33.025751267152309 ] } },
{ "type": "Feature", "properties": { "id": "48_32", "growth_scenario": "low", "market_gravity_weight": 25 }, "geometry": { "type": "Point", "coordinates": [ -96.963780826027502, 33.025512520747625 ] } },
{ "type": "Feature", "properties": { "id": "48_33", "growth_scenario": "low", "market_gravity_weight": 25 }, "geometry": { "type": "Point", "coordinates": [ -96.969218365969837, 32.941859476924563 ] } },
{ "type": "Feature", "properties": { "id": "48_4", "growth_scenario": "low", "market_gravity_weight": 25 }, "geometry": { "type": "Point", "coordinates": [ -96.955430854092398, 32.985259120800642 ] } },
{ "type": "Feature", "properties": { "id": "48_5", "growth_scenario": "low", "market_gravity_weight": 25 }, "geometry": { "type": "Point", "coordinates": [ -96.95546873757597, 32.988395167961194 ] } },
{ "type": "Feature", "properties": { "id": "48_6", "growth_scenario": "low", "market_gravity_weight": 25 }, "geometry": { "type": "Point", "coordinates": [ -96.955079224022114, 32.991803605001948 ] } },
{ "type": "Feature", "properties": { "id": "48_7", "growth_scenario": "low", "market_gravity_weight": 25 }, "geometry": { "type": "Point", "coordinates": [ -98.721235549697852, 29.426588406728197 ] } },
{ "type": "Feature", "properties": { "id": "48_8", "growth_scenario": "low", "market_gravity_weight": 25 }, "geometry": { "type": "Point", "coordinates": [ -98.718654767965674, 29.426472570436619 ] } },
{ "type": "Feature", "properties": { "id": "48_9", "growth_scenario": "low", "market_gravity_weight": 25 }, "geometry": { "type": "Point", "coordinates": [ -98.719384393725505, 29.423565651384298 ] } },
{ "type": "Feature", "properties": { "id": "49_0", "growth_scenario": "low", "market_gravity_weight": 25 }, "geometry": { "type": "Point", "coordinates": [ -111.901200096587431, 40.495035130597664 ] } },
{ "type": "Feature", "properties": { "id": "49_1", "growth_scenario": "low", "market_gravity_weight": 25 }, "geometry": { "type": "Point", "coordinates": [ -112.054026553159233, 40.534981418229712 ] } },
{ "type": "Feature", "properties": { "id": "49_2", "growth_scenario": "low", "market_gravity_weight": 25 }, "geometry": { "type": "Point", "coordinates": [ -112.048328417587356, 40.550290921224715 ] } },
{ "type": "Feature", "properties": { "id": "49_3", "growth_scenario": "low", "market_gravity_weight": 25 }, "geometry": { "type": "Point", "coordinates": [ -112.045793864981619, 40.552426150684006 ] } },
{ "type": "Feature", "properties": { "id": "51_0", "growth_scenario": "low", "market_gravity_weight": 25 }, "geometry": { "type": "Point", "coordinates": [ -79.920046478258897, 37.339062700665501 ] } },
{ "type": "Feature", "properties": { "id": "51_1", "growth_scenario": "low", "market_gravity_weight": 25 }, "geometry": { "type": "Point", "coordinates": [ -79.915567266086171, 37.339459159962544 ] } },
{ "type": "Feature", "properties": { "id": "51_10", "growth_scenario": "low", "market_gravity_weight": 25 }, "geometry": { "type": "Point", "coordinates": [ -78.34931903183525, 36.684287488962944 ] } },
{ "type": "Feature", "properties": { "id": "51_11", "growth_scenario": "low", "market_gravity_weight": 25 }, "geometry": { "type": "Point", "coordinates": [ -79.867080431929523, 37.264151763046215 ] } },
{ "type": "Feature", "properties": { "id": "51_12", "growth_scenario": "low", "market_gravity_weight": 25 }, "geometry": { "type": "Point", "coordinates": [ -79.861073195138985, 37.264159235036715 ] } },
{ "type": "Feature", "properties": { "id": "51_13", "growth_scenario": "low", "market_gravity_weight": 25 }, "geometry": { "type": "Point", "coordinates": [ -79.868602817149835, 37.333255060339141 ] } },
{ "type": "Feature", "properties": { "id": "51_14", "growth_scenario": "low", "market_gravity_weight": 25 }, "geometry": { "type": "Point", "coordinates": [ -80.387151518849933, 37.122726451951856 ] } },
{ "type": "Feature", "properties": { "id": "51_15", "growth_scenario": "low", "market_gravity_weight": 25 }, "geometry": { "type": "Point", "coordinates": [ -80.039827026461211, 37.196361083321982 ] } },
{ "type": "Feature", "properties": { "id": "51_16", "growth_scenario": "low", "market_gravity_weight": 25 }, "geometry": { "type": "Point", "coordinates": [ -80.386326299130317, 37.205750454888481 ] } },
{ "type": "Feature", "properties": { "id": "51_17", "growth_scenario": "low", "market_gravity_weight": 25 }, "geometry": { "type": "Point", "coordinates": [ -79.891120190296519, 37.369862718243553 ] } },
{ "type": "Feature", "properties": { "id": "51_18", "growth_scenario": "low", "market_gravity_weight": 25 }, "geometry": { "type": "Point", "coordinates": [ -77.785785115092366, 38.315180544906376 ] } },
{ "type": "Feature", "properties": { "id": "51_19", "growth_scenario": "low", "market_gravity_weight": 25 }, "geometry": { "type": "Point", "coordinates": [ -80.3841746884099, 37.275393261851214 ] } },
{ "type": "Feature", "properties": { "id": "51_2", "growth_scenario": "low", "market_gravity_weight": 25 }, "geometry": { "type": "Point", "coordinates": [ -79.916569728117992, 37.247977504732049 ] } },
{ "type": "Feature", "properties": { "id": "51_20", "growth_scenario": "low", "market_gravity_weight": 25 }, "geometry": { "type": "Point", "coordinates": [ -79.915093836674785, 37.336861011136222 ] } },
{ "type": "Feature", "properties": { "id": "51_21", "growth_scenario": "low", "market_gravity_weight": 25 }, "geometry": { "type": "Point", "coordinates": [ -80.443741406980848, 37.220530636560831 ] } },
{ "type": "Feature", "properties": { "id": "51_22", "growth_scenario": "low", "market_gravity_weight": 25 }, "geometry": { "type": "Point", "coordinates": [ -80.446245736187933, 37.229447541033174 ] } },
{ "type": "Feature", "properties": { "id": "51_23", "growth_scenario": "low", "market_gravity_weight": 25 }, "geometry": { "type": "Point", "coordinates": [ -77.466356678466425, 39.003919752973943 ] } },
{ "type": "Feature", "properties": { "id": "51_24", "growth_scenario": "low", "market_gravity_weight": 25 }, "geometry": { "type": "Point", "coordinates": [ -77.463231172420279, 39.005902616196494 ] } },
{ "type": "Feature", "properties": { "id": "51_25", "growth_scenario": "low", "market_gravity_weight": 25 }, "geometry": { "type": "Point", "coordinates": [ -79.234937090865373, 37.397538924803001 ] } },
{ "type": "Feature", "properties": { "id": "51_26", "growth_scenario": "low", "market_gravity_weight": 25 }, "geometry": { "type": "Point", "coordinates": [ -82.101450833945805, 36.661040543210838 ] } },
{ "type": "Feature", "properties": { "id": "51_27", "growth_scenario": "low", "market_gravity_weight": 25 }, "geometry": { "type": "Point", "coordinates": [ -82.062067199585599, 36.685501917927198 ] } },
{ "type": "Feature", "properties": { "id": "51_28", "growth_scenario": "low", "market_gravity_weight": 25 }, "geometry": { "type": "Point", "coordinates": [ -79.231905748570213, 37.432193566973297 ] } },
{ "type": "Feature", "properties": { "id": "51_29", "growth_scenario": "low", "market_gravity_weight": 25 }, "geometry": { "type": "Point", "coordinates": [ -81.938125936013179, 36.724482541415689 ] } },
{ "type": "Feature", "properties": { "id": "51_3", "growth_scenario": "low", "market_gravity_weight": 25 }, "geometry": { "type": "Point", "coordinates": [ -78.378871147101364, 36.678409304300885 ] } },
{ "type": "Feature", "properties": { "id": "51_30", "growth_scenario": "low", "market_gravity_weight": 25 }, "geometry": { "type": "Point", "coordinates": [ -82.005624091962545, 36.724017239901507 ] } },
{ "type": "Feature", "properties": { "id": "51_31", "growth_scenario": "low", "market_gravity_weight": 25 }, "geometry": { "type": "Point", "coordinates": [ -77.262757881348492, 38.694824977607745 ] } },
{ "type": "Feature", "properties": { "id": "51_32", "growth_scenario": "low", "market_gravity_weight": 25 }, "geometry": { "type": "Point", "coordinates": [ -78.354799679668858, 36.686372653017912 ] } },
{ "type": "Feature", "properties": { "id": "51_33", "growth_scenario": "low", "market_gravity_weight": 25 }, "geometry": { "type": "Point", "coordinates": [ -78.34790871961755, 36.68780180104627 ] } },
{ "type": "Feature", "properties": { "id": "51_34", "growth_scenario": "low", "market_gravity_weight": 25 }, "geometry": { "type": "Point", "coordinates": [ -78.346230870644902, 36.685191245707934 ] } },
{ "type": "Feature", "properties": { "id": "51_35", "growth_scenario": "low", "market_gravity_weight": 25 }, "geometry": { "type": "Point", "coordinates": [ -79.153528279701689, 37.38678850740618 ] } },
{ "type": "Feature", "properties": { "id": "51_36", "growth_scenario": "low", "market_gravity_weight": 25 }, "geometry": { "type": "Point", "coordinates": [ -79.151788227177661, 37.381739857382179 ] } },
{ "type": "Feature", "properties": { "id": "51_37", "growth_scenario": "low", "market_gravity_weight": 25 }, "geometry": { "type": "Point", "coordinates": [ -79.870213712865237, 37.336458964305706 ] } },
{ "type": "Feature", "properties": { "id": "51_38", "growth_scenario": "low", "market_gravity_weight": 25 }, "geometry": { "type": "Point", "coordinates": [ -79.124208553597214, 37.386844264328019 ] } },
{ "type": "Feature", "properties": { "id": "51_39", "growth_scenario": "low", "market_gravity_weight": 25 }, "geometry": { "type": "Point", "coordinates": [ -79.120876287073628, 37.387736074851674 ] } },
{ "type": "Feature", "properties": { "id": "51_4", "growth_scenario": "low", "market_gravity_weight": 25 }, "geometry": { "type": "Point", "coordinates": [ -79.913714643262139, 37.342651297088238 ] } },
{ "type": "Feature", "properties": { "id": "51_40", "growth_scenario": "low", "market_gravity_weight": 25 }, "geometry": { "type": "Point", "coordinates": [ -79.121112178839383, 37.39175822074062 ] } },
{ "type": "Feature", "properties": { "id": "51_41", "growth_scenario": "low", "market_gravity_weight": 25 }, "geometry": { "type": "Point", "coordinates": [ -78.255911758887109, 39.054325411387332 ] } },
{ "type": "Feature", "properties": { "id": "51_42", "growth_scenario": "low", "market_gravity_weight": 25 }, "geometry": { "type": "Point", "coordinates": [ -79.883448292794526, 37.371097921865989 ] } },
{ "type": "Feature", "properties": { "id": "51_43", "growth_scenario": "low", "market_gravity_weight": 25 }, "geometry": { "type": "Point", "coordinates": [ -79.895394153810827, 37.373060629397159 ] } },
{ "type": "Feature", "properties": { "id": "51_44", "growth_scenario": "low", "market_gravity_weight": 25 }, "geometry": { "type": "Point", "coordinates": [ -77.786740959229903, 38.312779191898969 ] } },
{ "type": "Feature", "properties": { "id": "51_45", "growth_scenario": "low", "market_gravity_weight": 25 }, "geometry": { "type": "Point", "coordinates": [ -80.041107614582046, 37.204315505478405 ] } },
{ "type": "Feature", "properties": { "id": "51_46", "growth_scenario": "low", "market_gravity_weight": 25 }, "geometry": { "type": "Point", "coordinates": [ -77.310684270996376, 37.184770602180826 ] } },
{ "type": "Feature", "properties": { "id": "51_47", "growth_scenario": "low", "market_gravity_weight": 25 }, "geometry": { "type": "Point", "coordinates": [ -77.320891974308793, 37.179268855081261 ] } },
{ "type": "Feature", "properties": { "id": "51_48", "growth_scenario": "low", "market_gravity_weight": 25 }, "geometry": { "type": "Point", "coordinates": [ -77.315159563556833, 37.177644877891858 ] } },
{ "type": "Feature", "properties": { "id": "51_49", "growth_scenario": "low", "market_gravity_weight": 25 }, "geometry": { "type": "Point", "coordinates": [ -78.371786772810211, 36.681627352002778 ] } },
{ "type": "Feature", "properties": { "id": "51_5", "growth_scenario": "low", "market_gravity_weight": 25 }, "geometry": { "type": "Point", "coordinates": [ -81.937399012808399, 36.719252996531814 ] } },
{ "type": "Feature", "properties": { "id": "51_50", "growth_scenario": "low", "market_gravity_weight": 25 }, "geometry": { "type": "Point", "coordinates": [ -81.003262096672515, 36.962824593243468 ] } },
{ "type": "Feature", "properties": { "id": "51_51", "growth_scenario": "low", "market_gravity_weight": 25 }, "geometry": { "type": "Point", "coordinates": [ -79.912460757858341, 37.338862332635109 ] } },
{ "type": "Feature", "properties": { "id": "51_6", "growth_scenario": "low", "market_gravity_weight": 25 }, "geometry": { "type": "Point", "coordinates": [ -81.932540006974648, 36.721388159903597 ] } },
{ "type": "Feature", "properties": { "id": "51_7", "growth_scenario": "low", "market_gravity_weight": 25 }, "geometry": { "type": "Point", "coordinates": [ -81.711804561315063, 36.792044623007868 ] } },
{ "type": "Feature", "properties": { "id": "51_8", "growth_scenario": "low", "market_gravity_weight": 25 }, "geometry": { "type": "Point", "coordinates": [ -78.355016742147086, 36.681591330222076 ] } },
{ "type": "Feature", "properties": { "id": "51_9", "growth_scenario": "low", "market_gravity_weight": 25 }, "geometry": { "type": "Point", "coordinates": [ -78.351079724840943, 36.688000154043714 ] } },
{ "type": "Feature", "properties": { "id": "53_0", "growth_scenario": "low", "market_gravity_weight": 25 }, "geometry": { "type": "Point", "coordinates": [ -119.898922409550678, 47.237768248877998 ] } },
{ "type": "Feature", "properties": { "id": "53_1", "growth_scenario": "low", "market_gravity_weight": 25 }, "geometry": { "type": "Point", "coordinates": [ -119.899379040533987, 47.242262904945385 ] } },
{ "type": "Feature", "properties": { "id": "53_2", "growth_scenario": "low", "market_gravity_weight": 25 }, "geometry": { "type": "Point", "coordinates": [ -119.872788375372352, 47.243695566793072 ] } },
{ "type": "Feature", "properties": { "id": "53_3", "growth_scenario": "low", "market_gravity_weight": 25 }, "geometry": { "type": "Point", "coordinates": [ -119.889975640807748, 47.241778257987043 ] } },
{ "type": "Feature", "properties": { "id": "53_4", "growth_scenario": "low", "market_gravity_weight": 25 }, "geometry": { "type": "Point", "coordinates": [ -119.894380828845897, 47.242680037790343 ] } },
{ "type": "Feature", "properties": { "id": "53_5", "growth_scenario": "low", "market_gravity_weight": 25 }, "geometry": { "type": "Point", "coordinates": [ -119.902720490416257, 47.23849698565261 ] } },
{ "type": "Feature", "properties": { "id": "53_6", "growth_scenario": "low", "market_gravity_weight": 25 }, "geometry": { "type": "Point", "coordinates": [ -119.899722906139459, 47.234825393219843 ] } },
{ "type": "Feature", "properties": { "id": "53_7", "growth_scenario": "low", "market_gravity_weight": 25 }, "geometry": { "type": "Point", "coordinates": [ -119.900388893559182, 47.244605463464808 ] } },
{ "type": "Feature", "properties": { "id": "56_0", "growth_scenario": "low", "market_gravity_weight": 25 }, "geometry": { "type": "Point", "coordinates": [ -110.557707673437363, 41.788214884124145 ] } },
{ "type": "Feature", "properties": { "id": "56_1", "growth_scenario": "low", "market_gravity_weight": 25 }, "geometry": { "type": "Point", "coordinates": [ -110.557359730598392, 41.79123879210438 ] } }
]
}
