{
"type": "FeatureCollection",
"name": "low_growth_0_market_gravity_epsg4326_centroids",
"crs": { "type": "name", "properties": { "name": "urn:ogc:def:crs:OGC:1.3:CRS84" } },
"features": [
{ "type": "Feature", "properties": { "id": "1_0", "growth_scenario": "low", "market_gravity_weight": 0 }, "geometry": { "type": "Point", "coordinates": [ -87.623891273767683, 34.188916298985752 ] } },
{ "type": "Feature", "properties": { "id": "1_1", "growth_scenario": "low", "market_gravity_weight": 0 }, "geometry": { "type": "Point", "coordinates": [ -86.781889362752338, 34.061371607846013 ] } },
{ "type": "Feature", "properties": { "id": "4_0", "growth_scenario": "low", "market_gravity_weight": 0 }, "geometry": { "type": "Point", "coordinates": [ -113.174624425945154, 34.587428721623297 ] } },
{ "type": "Feature", "properties": { "id": "4_1", "growth_scenario": "low", "market_gravity_weight": 0 }, "geometry": { "type": "Point", "coordinates": [ -113.175811326045519, 34.585252518341491 ] } },
{ "type": "Feature", "properties": { "id": "4_2", "growth_scenario": "low", "market_gravity_weight": 0 }, "geometry": { "type": "Point", "coordinates": [ -113.175503892585823, 34.564482600700103 ] } },
{ "type": "Feature", "properties": { "id": "4_3", "growth_scenario": "low", "market_gravity_weight": 0 }, "geometry": { "type": "Point", "coordinates": [ -113.170793158684759, 34.589270820515743 ] } },
{ "type": "Feature", "properties": { "id": "4_4", "growth_scenario": "low", "market_gravity_weight": 0 }, "geometry": { "type": "Point", "coordinates": [ -113.172348173969738, 34.562861251570368 ] } },
{ "type": "Feature", "properties": { "id": "4_5", "growth_scenario": "low", "market_gravity_weight": 0 }, "geometry": { "type": "Point", "coordinates": [ -113.179056370470221, 34.586769698173349 ] } },
{ "type": "Feature", "properties": { "id": "4_6", "growth_scenario": "low", "market_gravity_weight": 0 }, "geometry": { "type": "Point", "coordinates": [ -114.643430732018516, 32.642184009284037 ] } },
{ "type": "Feature", "properties": { "id": "4_7", "growth_scenario": "low", "market_gravity_weight": 0 }, "geometry": { "type": "Point", "coordinates": [ -114.638914616419314, 32.639735322137106 ] } },
{ "type": "Feature", "properties": { "id": "4_8", "growth_scenario": "low", "market_gravity_weight": 0 }, "geometry": { "type": "Point", "coordinates": [ -114.750953531266134, 32.503921758928747 ] } },
{ "type": "Feature", "properties": { "id": "6_0", "growth_scenario": "low", "market_gravity_weight": 0 }, "geometry": { "type": "Point", "coordinates": [ -121.872458199592117, 37.98900554247161 ] } },
{ "type": "Feature", "properties": { "id": "6_1", "growth_scenario": "low", "market_gravity_weight": 0 }, "geometry": { "type": "Point", "coordinates": [ -121.73623128309346, 38.682136038097184 ] } },
{ "type": "Feature", "properties": { "id": "6_10", "growth_scenario": "low", "market_gravity_weight": 0 }, "geometry": { "type": "Point", "coordinates": [ -121.973471702026671, 38.285255507334817 ] } },
{ "type": "Feature", "properties": { "id": "6_11", "growth_scenario": "low", "market_gravity_weight": 0 }, "geometry": { "type": "Point", "coordinates": [ -121.963677039705132, 38.402730927728349 ] } },
{ "type": "Feature", "properties": { "id": "6_12", "growth_scenario": "low", "market_gravity_weight": 0 }, "geometry": { "type": "Point", "coordinates": [ -121.950960541062045, 38.514899413721018 ] } },
{ "type": "Feature", "properties": { "id": "6_13", "growth_scenario": "low", "market_gravity_weight": 0 }, "geometry": { "type": "Point", "coordinates": [ -121.849472064076068, 38.414864034912497 ] } },
{ "type": "Feature", "properties": { "id": "6_2", "growth_scenario": "low", "market_gravity_weight": 0 }, "geometry": { "type": "Point", "coordinates": [ -121.992993578686779, 38.525000349623014 ] } },
{ "type": "Feature", "properties": { "id": "6_3", "growth_scenario": "low", "market_gravity_weight": 0 }, "geometry": { "type": "Point", "coordinates": [ -121.735654146280041, 38.67920370988795 ] } },
{ "type": "Feature", "properties": { "id": "6_4", "growth_scenario": "low", "market_gravity_weight": 0 }, "geometry": { "type": "Point", "coordinates": [ -121.99440447462031, 38.52061826021805 ] } },
{ "type": "Feature", "properties": { "id": "6_5", "growth_scenario": "low", "market_gravity_weight": 0 }, "geometry": { "type": "Point", "coordinates": [ -121.558635893866153, 39.162270001384421 ] } },
{ "type": "Feature", "properties": { "id": "6_6", "growth_scenario": "low", "market_gravity_weight": 0 }, "geometry": { "type": "Point", "coordinates": [ -122.160079483277698, 38.217119913070462 ] } },
{ "type": "Feature", "properties": { "id": "6_7", "growth_scenario": "low", "market_gravity_weight": 0 }, "geometry": { "type": "Point", "coordinates": [ -122.211282803478753, 38.139250177490766 ] } },
{ "type": "Feature", "properties": { "id": "6_8", "growth_scenario": "low", "market_gravity_weight": 0 }, "geometry": { "type": "Point", "coordinates": [ -121.949484708089273, 38.519109183092269 ] } },
{ "type": "Feature", "properties": { "id": "6_9", "growth_scenario": "low", "market_gravity_weight": 0 }, "geometry": { "type": "Point", "coordinates": [ -122.110297037484457, 38.213990752753155 ] } },
{ "type": "Feature", "properties": { "id": "8_0", "growth_scenario": "low", "market_gravity_weight": 0 }, "geometry": { "type": "Point", "coordinates": [ -106.295915419689777, 40.721460468988077 ] } },
{ "type": "Feature", "properties": { "id": "8_1", "growth_scenario": "low", "market_gravity_weight": 0 }, "geometry": { "type": "Point", "coordinates": [ -106.284796469536388, 40.719310917189389 ] } },
{ "type": "Feature", "properties": { "id": "12_0", "growth_scenario": "low", "market_gravity_weight": 0 }, "geometry": { "type": "Point", "coordinates": [ -81.836974738453691, 27.907565609961079 ] } },
{ "type": "Feature", "properties": { "id": "12_1", "growth_scenario": "low", "market_gravity_weight": 0 }, "geometry": { "type": "Point", "coordinates": [ -81.86076712072429, 27.904806932860556 ] } },
{ "type": "Feature", "properties": { "id": "13_0", "growth_scenario": "low", "market_gravity_weight": 0 }, "geometry": { "type": "Point", "coordinates": [ -85.06097011586651, 31.619147281029189 ] } },
{ "type": "Feature", "properties": { "id": "13_1", "growth_scenario": "low", "market_gravity_weight": 0 }, "geometry": { "type": "Point", "coordinates": [ -85.270255424109521, 34.669055642443197 ] } },
{ "type": "Feature", "properties": { "id": "13_2", "growth_scenario": "low", "market_gravity_weight": 0 }, "geometry": { "type": "Point", "coordinates": [ -85.301836163758324, 34.917927410791286 ] } },
{ "type": "Feature", "properties": { "id": "13_3", "growth_scenario": "low", "market_gravity_weight": 0 }, "geometry": { "type": "Point", "coordinates": [ -85.276865920114929, 34.881274178572738 ] } },
{ "type": "Feature", "properties": { "id": "13_4", "growth_scenario": "low", "market_gravity_weight": 0 }, "geometry": { "type": "Point", "coordinates": [ -85.269721685243169, 34.703828476134561 ] } },
{ "type": "Feature", "properties": { "id": "13_5", "growth_scenario": "low", "market_gravity_weight": 0 }, "geometry": { "type": "Point", "coordinates": [ -85.273732442470134, 34.752874266128579 ] } },
{ "type": "Feature", "properties": { "id": "13_6", "growth_scenario": "low", "market_gravity_weight": 0 }, "geometry": { "type": "Point", "coordinates": [ -85.267046200285975, 34.669839614499494 ] } },
{ "type": "Feature", "properties": { "id": "13_7", "growth_scenario": "low", "market_gravity_weight": 0 }, "geometry": { "type": "Point", "coordinates": [ -85.177747648930833, 34.936186931046507 ] } },
{ "type": "Feature", "properties": { "id": "13_8", "growth_scenario": "low", "market_gravity_weight": 0 }, "geometry": { "type": "Point", "coordinates": [ -85.068569044202761, 34.90316864646153 ] } },
{ "type": "Feature", "properties": { "id": "17_0", "growth_scenario": "low", "market_gravity_weight": 0 }, "geometry": { "type": "Point", "coordinates": [ -87.790740893807836, 38.403237630559566 ] } },
{ "type": "Feature", "properties": { "id": "17_1", "growth_scenario": "low", "market_gravity_weight": 0 }, "geometry": { "type": "Point", "coordinates": [ -88.872546441182124, 37.410462659084018 ] } },
{ "type": "Feature", "properties": { "id": "17_10", "growth_scenario": "low", "market_gravity_weight": 0 }, "geometry": { "type": "Point", "coordinates": [ -88.721551334873439, 37.17962421877013 ] } },
{ "type": "Feature", "properties": { "id": "17_2", "growth_scenario": "low", "market_gravity_weight": 0 }, "geometry": { "type": "Point", "coordinates": [ -88.876271386094942, 37.409786741777779 ] } },
{ "type": "Feature", "properties": { "id": "17_3", "growth_scenario": "low", "market_gravity_weight": 0 }, "geometry": { "type": "Point", "coordinates": [ -88.878017090668877, 37.438076522689862 ] } },
{ "type": "Feature", "properties": { "id": "17_4", "growth_scenario": "low", "market_gravity_weight": 0 }, "geometry": { "type": "Point", "coordinates": [ -88.880980854352032, 37.440577063660633 ] } },
{ "type": "Feature", "properties": { "id": "17_5", "growth_scenario": "low", "market_gravity_weight": 0 }, "geometry": { "type": "Point", "coordinates": [ -88.8718134248425, 37.407377104954463 ] } },
{ "type": "Feature", "properties": { "id": "17_6", "growth_scenario": "low", "market_gravity_weight": 0 }, "geometry": { "type": "Point", "coordinates": [ -89.233046003038041, 37.470297131868747 ] } },
{ "type": "Feature", "properties": { "id": "17_7", "growth_scenario": "low", "market_gravity_weight": 0 }, "geometry": { "type": "Point", "coordinates": [ -88.718001649402765, 37.177441316943231 ] } },
{ "type": "Feature", "properties": { "id": "17_8", "growth_scenario": "low", "market_gravity_weight": 0 }, "geometry": { "type": "Point", "coordinates": [ -88.758148309886309, 37.175020830727057 ] } },
{ "type": "Feature", "properties": { "id": "17_9", "growth_scenario": "low", "market_gravity_weight": 0 }, "geometry": { "type": "Point", "coordinates": [ -88.760588679808762, 37.173377060229157 ] } },
{ "type": "Feature", "properties": { "id": "19_0", "growth_scenario": "low", "market_gravity_weight": 0 }, "geometry": { "type": "Point", "coordinates": [ -91.971016759546302, 41.033418398729232 ] } },
{ "type": "Feature", "properties": { "id": "19_1", "growth_scenario": "low", "market_gravity_weight": 0 }, "geometry": { "type": "Point", "coordinates": [ -91.971802337362078, 41.036482460014163 ] } },
{ "type": "Feature", "properties": { "id": "19_2", "growth_scenario": "low", "market_gravity_weight": 0 }, "geometry": { "type": "Point", "coordinates": [ -91.974605380964007, 41.033621132145718 ] } },
{ "type": "Feature", "properties": { "id": "19_3", "growth_scenario": "low", "market_gravity_weight": 0 }, "geometry": { "type": "Point", "coordinates": [ -93.611622907606062, 41.888708089656973 ] } },
{ "type": "Feature", "properties": { "id": "19_4", "growth_scenario": "low", "market_gravity_weight": 0 }, "geometry": { "type": "Point", "coordinates": [ -91.971049416419916, 41.030737753208093 ] } },
{ "type": "Feature", "properties": { "id": "19_5", "growth_scenario": "low", "market_gravity_weight": 0 }, "geometry": { "type": "Point", "coordinates": [ -93.608737711983935, 43.078922367549076 ] } },
{ "type": "Feature", "properties": { "id": "19_6", "growth_scenario": "low", "market_gravity_weight": 0 }, "geometry": { "type": "Point", "coordinates": [ -92.434374741217781, 40.989303418275846 ] } },
{ "type": "Feature", "properties": { "id": "19_7", "growth_scenario": "low", "market_gravity_weight": 0 }, "geometry": { "type": "Point", "coordinates": [ -92.372661176963462, 41.002576247392845 ] } },
{ "type": "Feature", "properties": { "id": "19_8", "growth_scenario": "low", "market_gravity_weight": 0 }, "geometry": { "type": "Point", "coordinates": [ -92.435033448964703, 40.985747104286794 ] } },
{ "type": "Feature", "properties": { "id": "21_0", "growth_scenario": "low", "market_gravity_weight": 0 }, "geometry": { "type": "Point", "coordinates": [ -88.065809676790579, 37.081912103196451 ] } },
{ "type": "Feature", "properties": { "id": "21_1", "growth_scenario": "low", "market_gravity_weight": 0 }, "geometry": { "type": "Point", "coordinates": [ -87.148030699779994, 36.820719910310686 ] } },
{ "type": "Feature", "properties": { "id": "25_0", "growth_scenario": "low", "market_gravity_weight": 0 }, "geometry": { "type": "Point", "coordinates": [ -71.307801095889971, 42.687538043185 ] } },
{ "type": "Feature", "properties": { "id": "27_0", "growth_scenario": "low", "market_gravity_weight": 0 }, "geometry": { "type": "Point", "coordinates": [ -94.293708499109371, 46.392256386843918 ] } },
{ "type": "Feature", "properties": { "id": "29_0", "growth_scenario": "low", "market_gravity_weight": 0 }, "geometry": { "type": "Point", "coordinates": [ -93.01324572493499, 37.115194549133825 ] } },
{ "type": "Feature", "properties": { "id": "31_0", "growth_scenario": "low", "market_gravity_weight": 0 }, "geometry": { "type": "Point", "coordinates": [ -96.135859101141193, 41.072572505240096 ] } },
{ "type": "Feature", "properties": { "id": "31_1", "growth_scenario": "low", "market_gravity_weight": 0 }, "geometry": { "type": "Point", "coordinates": [ -95.955181693523315, 41.091213972240794 ] } },
{ "type": "Feature", "properties": { "id": "31_2", "growth_scenario": "low", "market_gravity_weight": 0 }, "geometry": { "type": "Point", "coordinates": [ -96.14078525529068, 41.076407591736732 ] } },
{ "type": "Feature", "properties": { "id": "31_3", "growth_scenario": "low", "market_gravity_weight": 0 }, "geometry": { "type": "Point", "coordinates": [ -96.141249122694504, 41.128477331258992 ] } },
{ "type": "Feature", "properties": { "id": "31_4", "growth_scenario": "low", "market_gravity_weight": 0 }, "geometry": { "type": "Point", "coordinates": [ -96.044240561983614, 41.126761438446742 ] } },
{ "type": "Feature", "properties": { "id": "31_5", "growth_scenario": "low", "market_gravity_weight": 0 }, "geometry": { "type": "Point", "coordinates": [ -95.920730596057552, 41.102272144986941 ] } },
{ "type": "Feature", "properties": { "id": "32_0", "growth_scenario": "low", "market_gravity_weight": 0 }, "geometry": { "type": "Point", "coordinates": [ -119.717914180994256, 39.457186308893725 ] } },
{ "type": "Feature", "properties": { "id": "32_1", "growth_scenario": "low", "market_gravity_weight": 0 }, "geometry": { "type": "Point", "coordinates": [ -119.736362089383562, 39.572493919919005 ] } },
{ "type": "Feature", "properties": { "id": "32_2", "growth_scenario": "low", "market_gravity_weight": 0 }, "geometry": { "type": "Point", "coordinates": [ -119.716395058343636, 39.682077583524112 ] } },
{ "type": "Feature", "properties": { "id": "32_3", "growth_scenario": "low", "market_gravity_weight": 0 }, "geometry": { "type": "Point", "coordinates": [ -119.713124527428803, 39.683906935705508 ] } },
{ "type": "Feature", "properties": { "id": "32_4", "growth_scenario": "low", "market_gravity_weight": 0 }, "geometry": { "type": "Point", "coordinates": [ -119.755751630853808, 39.392838183447964 ] } },
{ "type": "Feature", "properties": { "id": "34_0", "growth_scenario": "low", "market_gravity_weight": 0 }, "geometry": { "type": "Point", "coordinates": [ -74.84443322527089, 40.51730608959334 ] } },
{ "type": "Feature", "properties": { "id": "34_1", "growth_scenario": "low", "market_gravity_weight": 0 }, "geometry": { "type": "Point", "coordinates": [ -75.048444397109392, 40.825530367025145 ] } },
{ "type": "Feature", "properties": { "id": "34_2", "growth_scenario": "low", "market_gravity_weight": 0 }, "geometry": { "type": "Point", "coordinates": [ -75.073308871628498, 40.834539642062552 ] } },
{ "type": "Feature", "properties": { "id": "34_3", "growth_scenario": "low", "market_gravity_weight": 0 }, "geometry": { "type": "Point", "coordinates": [ -75.051682620251569, 40.826987473112872 ] } },
{ "type": "Feature", "properties": { "id": "34_4", "growth_scenario": "low", "market_gravity_weight": 0 }, "geometry": { "type": "Point", "coordinates": [ -74.383799873982568, 40.253003117975545 ] } },
{ "type": "Feature", "properties": { "id": "34_5", "growth_scenario": "low", "market_gravity_weight": 0 }, "geometry": { "type": "Point", "coordinates": [ -74.048911257619437, 40.222225675978912 ] } },
{ "type": "Feature", "properties": { "id": "36_0", "growth_scenario": "low", "market_gravity_weight": 0 }, "geometry": { "type": "Point", "coordinates": [ -76.126217985426621, 44.075831513078676 ] } },
{ "type": "Feature", "properties": { "id": "36_1", "growth_scenario": "low", "market_gravity_weight": 0 }, "geometry": { "type": "Point", "coordinates": [ -75.867731953265462, 43.987486045643017 ] } },
{ "type": "Feature", "properties": { "id": "36_2", "growth_scenario": "low", "market_gravity_weight": 0 }, "geometry": { "type": "Point", "coordinates": [ -75.938090277474288, 43.99867834060214 ] } },
{ "type": "Feature", "properties": { "id": "36_3", "growth_scenario": "low", "market_gravity_weight": 0 }, "geometry": { "type": "Point", "coordinates": [ -75.871192224605252, 43.987469075046882 ] } },
{ "type": "Feature", "properties": { "id": "36_4", "growth_scenario": "low", "market_gravity_weight": 0 }, "geometry": { "type": "Point", "coordinates": [ -75.886462909125811, 44.003120903693528 ] } },
{ "type": "Feature", "properties": { "id": "36_5", "growth_scenario": "low", "market_gravity_weight": 0 }, "geometry": { "type": "Point", "coordinates": [ -75.944557315512213, 43.996736705779782 ] } },
{ "type": "Feature", "properties": { "id": "37_0", "growth_scenario": "low", "market_gravity_weight": 0 }, "geometry": { "type": "Point", "coordinates": [ -78.031786312452198, 34.818026727999033 ] } },
{ "type": "Feature", "properties": { "id": "37_1", "growth_scenario": "low", "market_gravity_weight": 0 }, "geometry": { "type": "Point", "coordinates": [ -78.089549107763304, 35.010879000761783 ] } },
{ "type": "Feature", "properties": { "id": "37_2", "growth_scenario": "low", "market_gravity_weight": 0 }, "geometry": { "type": "Point", "coordinates": [ -78.117355702808524, 35.003610689834225 ] } },
{ "type": "Feature", "properties": { "id": "37_3", "growth_scenario": "low", "market_gravity_weight": 0 }, "geometry": { "type": "Point", "coordinates": [ -78.117256205330179, 34.981577279077889 ] } },
{ "type": "Feature", "properties": { "id": "38_0", "growth_scenario": "low", "market_gravity_weight": 0 }, "geometry": { "type": "Point", "coordinates": [ -104.039837076545709, 47.879971640629925 ] } },
{ "type": "Feature", "properties": { "id": "38_1", "growth_scenario": "low", "market_gravity_weight": 0 }, "geometry": { "type": "Point", "coordinates": [ -103.215864640924849, 47.787449100545409 ] } },
{ "type": "Feature", "properties": { "id": "38_2", "growth_scenario": "low", "market_gravity_weight": 0 }, "geometry": { "type": "Point", "coordinates": [ -103.650763476288788, 47.831493269753828 ] } },
{ "type": "Feature", "properties": { "id": "38_3", "growth_scenario": "low", "market_gravity_weight": 0 }, "geometry": { "type": "Point", "coordinates": [ -101.842952162760227, 46.416511091536854 ] } },
{ "type": "Feature", "properties": { "id": "38_4", "growth_scenario": "low", "market_gravity_weight": 0 }, "geometry": { "type": "Point", "coordinates": [ -101.841507956198541, 46.413409817254255 ] } },
{ "type": "Feature", "properties": { "id": "38_5", "growth_scenario": "low", "market_gravity_weight": 0 }, "geometry": { "type": "Point", "coordinates": [ -100.890089320129817, 46.845335278486473 ] } },
{ "type": "Feature", "properties": { "id": "39_0", "growth_scenario": "low", "market_gravity_weight": 0 }, "geometry": { "type": "Point", "coordinates": [ -82.632373125381662, 38.501974749659936 ] } },
{ "type": "Feature", "properties": { "id": "39_1", "growth_scenario": "low", "market_gravity_weight": 0 }, "geometry": { "type": "Point", "coordinates": [ -83.422007349811153, 38.958236955087386 ] } },
{ "type": "Feature", "properties": { "id": "39_2", "growth_scenario": "low", "market_gravity_weight": 0 }, "geometry": { "type": "Point", "coordinates": [ -83.39165038568224, 38.95171709460341 ] } },
{ "type": "Feature", "properties": { "id": "40_0", "growth_scenario": "low", "market_gravity_weight": 0 }, "geometry": { "type": "Point", "coordinates": [ -101.21799828411821, 36.851289124866632 ] } },
{ "type": "Feature", "properties": { "id": "41_0", "growth_scenario": "low", "market_gravity_weight": 0 }, "geometry": { "type": "Point", "coordinates": [ -122.741199583492048, 45.33423938707584 ] } },
{ "type": "Feature", "properties": { "id": "41_1", "growth_scenario": "low", "market_gravity_weight": 0 }, "geometry": { "type": "Point", "coordinates": [ -122.606809254428285, 45.144283900706633 ] } },
{ "type": "Feature", "properties": { "id": "41_2", "growth_scenario": "low", "market_gravity_weight": 0 }, "geometry": { "type": "Point", "coordinates": [ -122.482749049685651, 45.45911332196723 ] } },
{ "type": "Feature", "properties": { "id": "41_3", "growth_scenario": "low", "market_gravity_weight": 0 }, "geometry": { "type": "Point", "coordinates": [ -122.378282335469052, 45.43856193553345 ] } },
{ "type": "Feature", "properties": { "id": "41_4", "growth_scenario": "low", "market_gravity_weight": 0 }, "geometry": { "type": "Point", "coordinates": [ -122.611533806222482, 45.146130458648997 ] } },
{ "type": "Feature", "properties": { "id": "41_5", "growth_scenario": "low", "market_gravity_weight": 0 }, "geometry": { "type": "Point", "coordinates": [ -122.358711196229777, 45.354382596592586 ] } },
{ "type": "Feature", "properties": { "id": "41_6", "growth_scenario": "low", "market_gravity_weight": 0 }, "geometry": { "type": "Point", "coordinates": [ -122.584382149267554, 45.188122121802003 ] } },
{ "type": "Feature", "properties": { "id": "41_7", "growth_scenario": "low", "market_gravity_weight": 0 }, "geometry": { "type": "Point", "coordinates": [ -122.741504217298157, 45.319760157123731 ] } },
{ "type": "Feature", "properties": { "id": "41_8", "growth_scenario": "low", "market_gravity_weight": 0 }, "geometry": { "type": "Point", "coordinates": [ -122.280515591350024, 45.431754049117345 ] } },
{ "type": "Feature", "properties": { "id": "41_9", "growth_scenario": "low", "market_gravity_weight": 0 }, "geometry": { "type": "Point", "coordinates": [ -122.609722197061544, 45.148836919898187 ] } },
{ "type": "Feature", "properties": { "id": "42_0", "growth_scenario": "low", "market_gravity_weight": 0 }, "geometry": { "type": "Point", "coordinates": [ -80.220138814887605, 40.254381138822339 ] } },
{ "type": "Feature", "properties": { "id": "42_1", "growth_scenario": "low", "market_gravity_weight": 0 }, "geometry": { "type": "Point", "coordinates": [ -79.930605552527467, 39.858330171725683 ] } },
{ "type": "Feature", "properties": { "id": "42_2", "growth_scenario": "low", "market_gravity_weight": 0 }, "geometry": { "type": "Point", "coordinates": [ -79.927645296192679, 39.857132908112554 ] } },
{ "type": "Feature", "properties": { "id": "42_3", "growth_scenario": "low", "market_gravity_weight": 0 }, "geometry": { "type": "Point", "coordinates": [ -79.787431290149755, 40.558899509232027 ] } },
{ "type": "Feature", "properties": { "id": "42_4", "growth_scenario": "low", "market_gravity_weight": 0 }, "geometry": { "type": "Point", "coordinates": [ -80.306140106600296, 40.507825423603251 ] } },
{ "type": "Feature", "properties": { "id": "42_5", "growth_scenario": "low", "market_gravity_weight": 0 }, "geometry": { "type": "Point", "coordinates": [ -79.755179132155675, 40.62023360228654 ] } },
{ "type": "Feature", "properties": { "id": "42_6", "growth_scenario": "low", "market_gravity_weight": 0 }, "geometry": { "type": "Point", "coordinates": [ -80.274940282733382, 40.490253976951777 ] } },
{ "type": "Feature", "properties": { "id": "45_0", "growth_scenario": "low", "market_gravity_weight": 0 }, "geometry": { "type": "Point", "coordinates": [ -82.766127033931198, 34.76236316800221 ] } },
{ "type": "Feature", "properties": { "id": "45_1", "growth_scenario": "low", "market_gravity_weight": 0 }, "geometry": { "type": "Point", "coordinates": [ -82.685694877334328, 34.896273719614584 ] } },
{ "type": "Feature", "properties": { "id": "45_2", "growth_scenario": "low", "market_gravity_weight": 0 }, "geometry": { "type": "Point", "coordinates": [ -82.748048770896858, 34.753714771834993 ] } },
{ "type": "Feature", "properties": { "id": "47_0", "growth_scenario": "low", "market_gravity_weight": 0 }, "geometry": { "type": "Point", "coordinates": [ -82.445898272927764, 36.526857597202259 ] } },
{ "type": "Feature", "properties": { "id": "47_1", "growth_scenario": "low", "market_gravity_weight": 0 }, "geometry": { "type": "Point", "coordinates": [ -82.267991777109089, 36.559168826033712 ] } },
{ "type": "Feature", "properties": { "id": "48_0", "growth_scenario": "low", "market_gravity_weight": 0 }, "geometry": { "type": "Point", "coordinates": [ -96.095831061778256, 30.370354444410161 ] } },
{ "type": "Feature", "properties": { "id": "48_1", "growth_scenario": "low", "market_gravity_weight": 0 }, "geometry": { "type": "Point", "coordinates": [ -94.92982261749674, 29.855511392643475 ] } },
{ "type": "Feature", "properties": { "id": "48_10", "growth_scenario": "low", "market_gravity_weight": 0 }, "geometry": { "type": "Point", "coordinates": [ -93.960084358944002, 29.942312127278409 ] } },
{ "type": "Feature", "properties": { "id": "48_11", "growth_scenario": "low", "market_gravity_weight": 0 }, "geometry": { "type": "Point", "coordinates": [ -94.054745618888987, 29.978380971135177 ] } },
{ "type": "Feature", "properties": { "id": "48_12", "growth_scenario": "low", "market_gravity_weight": 0 }, "geometry": { "type": "Point", "coordinates": [ -94.04744373845557, 29.966893491539444 ] } },
{ "type": "Feature", "properties": { "id": "48_13", "growth_scenario": "low", "market_gravity_weight": 0 }, "geometry": { "type": "Point", "coordinates": [ -94.223769751705177, 30.078589349891587 ] } },
{ "type": "Feature", "properties": { "id": "48_14", "growth_scenario": "low", "market_gravity_weight": 0 }, "geometry": { "type": "Point", "coordinates": [ -94.158525200078273, 30.158247237862263 ] } },
{ "type": "Feature", "properties": { "id": "48_15", "growth_scenario": "low", "market_gravity_weight": 0 }, "geometry": { "type": "Point", "coordinates": [ -94.057227965604994, 29.983112163881053 ] } },
{ "type": "Feature", "properties": { "id": "48_16", "growth_scenario": "low", "market_gravity_weight": 0 }, "geometry": { "type": "Point", "coordinates": [ -96.085103324959391, 30.075387812825038 ] } },
{ "type": "Feature", "properties": { "id": "48_17", "growth_scenario": "low", "market_gravity_weight": 0 }, "geometry": { "type": "Point", "coordinates": [ -95.808051946136231, 30.158225561530401 ] } },
{ "type": "Feature", "properties": { "id": "48_18", "growth_scenario": "low", "market_gravity_weight": 0 }, "geometry": { "type": "Point", "coordinates": [ -95.812207975883226, 30.159133573198549 ] } },
{ "type": "Feature", "properties": { "id": "48_19", "growth_scenario": "low", "market_gravity_weight": 0 }, "geometry": { "type": "Point", "coordinates": [ -96.082298804517592, 30.074759268790267 ] } },
{ "type": "Feature", "properties": { "id": "48_2", "growth_scenario": "low", "market_gravity_weight": 0 }, "geometry": { "type": "Point", "coordinates": [ -94.932059171243282, 29.850755404351037 ] } },
{ "type": "Feature", "properties": { "id": "48_20", "growth_scenario": "low", "market_gravity_weight": 0 }, "geometry": { "type": "Point", "coordinates": [ -95.98426561738016, 30.082897819189323 ] } },
{ "type": "Feature", "properties": { "id": "48_21", "growth_scenario": "low", "market_gravity_weight": 0 }, "geometry": { "type": "Point", "coordinates": [ -95.80804354726034, 30.161828801076137 ] } },
{ "type": "Feature", "properties": { "id": "48_22", "growth_scenario": "low", "market_gravity_weight": 0 }, "geometry": { "type": "Point", "coordinates": [ -93.762030283974084, 30.147987701804187 ] } },
{ "type": "Feature", "properties": { "id": "48_23", "growth_scenario": "low", "market_gravity_weight": 0 }, "geometry": { "type": "Point", "coordinates": [ -93.798110760409074, 30.112854051220744 ] } },
{ "type": "Feature", "properties": { "id": "48_24", "growth_scenario": "low", "market_gravity_weight": 0 }, "geometry": { "type": "Point", "coordinates": [ -93.765573020527086, 30.147699531372101 ] } },
{ "type": "Feature", "properties": { "id": "48_25", "growth_scenario": "low", "market_gravity_weight": 0 }, "geometry": { "type": "Point", "coordinates": [ -95.779396486601513, 29.912090984890764 ] } },
{ "type": "Feature", "properties": { "id": "48_26", "growth_scenario": "low", "market_gravity_weight": 0 }, "geometry": { "type": "Point", "coordinates": [ -95.45591909507921, 29.991710809621519 ] } },
{ "type": "Feature", "properties": { "id": "48_27", "growth_scenario": "low", "market_gravity_weight": 0 }, "geometry": { "type": "Point", "coordinates": [ -95.859851537742315, 30.017664682231519 ] } },
{ "type": "Feature", "properties": { "id": "48_28", "growth_scenario": "low", "market_gravity_weight": 0 }, "geometry": { "type": "Point", "coordinates": [ -95.040215797341801, 29.643017249667452 ] } },
{ "type": "Feature", "properties": { "id": "48_29", "growth_scenario": "low", "market_gravity_weight": 0 }, "geometry": { "type": "Point", "coordinates": [ -95.229564821062041, 29.756342341687507 ] } },
{ "type": "Feature", "properties": { "id": "48_3", "growth_scenario": "low", "market_gravity_weight": 0 }, "geometry": { "type": "Point", "coordinates": [ -94.924320772824501, 29.856448959691981 ] } },
{ "type": "Feature", "properties": { "id": "48_30", "growth_scenario": "low", "market_gravity_weight": 0 }, "geometry": { "type": "Point", "coordinates": [ -95.055124258840138, 29.848824764848711 ] } },
{ "type": "Feature", "properties": { "id": "48_31", "growth_scenario": "low", "market_gravity_weight": 0 }, "geometry": { "type": "Point", "coordinates": [ -95.121772350393343, 29.814492667417408 ] } },
{ "type": "Feature", "properties": { "id": "48_32", "growth_scenario": "low", "market_gravity_weight": 0 }, "geometry": { "type": "Point", "coordinates": [ -95.041821929636285, 29.65601874297576 ] } },
{ "type": "Feature", "properties": { "id": "48_33", "growth_scenario": "low", "market_gravity_weight": 0 }, "geometry": { "type": "Point", "coordinates": [ -95.459760457053775, 29.991279263895798 ] } },
{ "type": "Feature", "properties": { "id": "48_4", "growth_scenario": "low", "market_gravity_weight": 0 }, "geometry": { "type": "Point", "coordinates": [ -94.884575596324808, 29.846584450060679 ] } },
{ "type": "Feature", "properties": { "id": "48_5", "growth_scenario": "low", "market_gravity_weight": 0 }, "geometry": { "type": "Point", "coordinates": [ -94.19989277492158, 30.15884404634096 ] } },
{ "type": "Feature", "properties": { "id": "48_6", "growth_scenario": "low", "market_gravity_weight": 0 }, "geometry": { "type": "Point", "coordinates": [ -94.051115408122826, 29.965156210165443 ] } },
{ "type": "Feature", "properties": { "id": "48_7", "growth_scenario": "low", "market_gravity_weight": 0 }, "geometry": { "type": "Point", "coordinates": [ -94.054595917430873, 30.055167985793819 ] } },
{ "type": "Feature", "properties": { "id": "48_8", "growth_scenario": "low", "market_gravity_weight": 0 }, "geometry": { "type": "Point", "coordinates": [ -93.957623337301087, 29.941184422519459 ] } },
{ "type": "Feature", "properties": { "id": "48_9", "growth_scenario": "low", "market_gravity_weight": 0 }, "geometry": { "type": "Point", "coordinates": [ -94.23421453164238, 30.080740715575516 ] } },
{ "type": "Feature", "properties": { "id": "49_0", "growth_scenario": "low", "market_gravity_weight": 0 }, "geometry": { "type": "Point", "coordinates": [ -109.466534692219241, 40.397447611411792 ] } },
{ "type": "Feature", "properties": { "id": "49_1", "growth_scenario": "low", "market_gravity_weight": 0 }, "geometry": { "type": "Point", "coordinates": [ -109.586916389549188, 40.461238136151586 ] } },
{ "type": "Feature", "properties": { "id": "49_2", "growth_scenario": "low", "market_gravity_weight": 0 }, "geometry": { "type": "Point", "coordinates": [ -109.583776127326871, 40.464914481457903 ] } },
{ "type": "Feature", "properties": { "id": "49_3", "growth_scenario": "low", "market_gravity_weight": 0 }, "geometry": { "type": "Point", "coordinates": [ -111.278091583215286, 40.70796138320302 ] } },
{ "type": "Feature", "properties": { "id": "51_0", "growth_scenario": "low", "market_gravity_weight": 0 }, "geometry": { "type": "Point", "coordinates": [ -81.131055617771182, 37.094950404595558 ] } },
{ "type": "Feature", "properties": { "id": "51_1", "growth_scenario": "low", "market_gravity_weight": 0 }, "geometry": { "type": "Point", "coordinates": [ -81.003651438573357, 36.962602251327496 ] } },
{ "type": "Feature", "properties": { "id": "51_10", "growth_scenario": "low", "market_gravity_weight": 0 }, "geometry": { "type": "Point", "coordinates": [ -79.121112178839383, 37.39175822074062 ] } },
{ "type": "Feature", "properties": { "id": "51_11", "growth_scenario": "low", "market_gravity_weight": 0 }, "geometry": { "type": "Point", "coordinates": [ -79.231905748570213, 37.432193566973304 ] } },
{ "type": "Feature", "properties": { "id": "51_12", "growth_scenario": "low", "market_gravity_weight": 0 }, "geometry": { "type": "Point", "coordinates": [ -79.915454947523955, 37.339444128896659 ] } },
{ "type": "Feature", "properties": { "id": "51_13", "growth_scenario": "low", "market_gravity_weight": 0 }, "geometry": { "type": "Point", "coordinates": [ -79.920046478258897, 37.339062700665501 ] } },
{ "type": "Feature", "properties": { "id": "51_14", "growth_scenario": "low", "market_gravity_weight": 0 }, "geometry": { "type": "Point", "coordinates": [ -81.711804561315063, 36.792044623007868 ] } },
{ "type": "Feature", "properties": { "id": "51_15", "growth_scenario": "low", "market_gravity_weight": 0 }, "geometry": { "type": "Point", "coordinates": [ -81.937527443886538, 36.719177873041545 ] } },
{ "type": "Feature", "properties": { "id": "51_16", "growth_scenario": "low", "market_gravity_weight": 0 }, "geometry": { "type": "Point", "coordinates": [ -81.126521264192988, 37.096917979560942 ] } },
{ "type": "Feature", "properties": { "id": "51_17", "growth_scenario": "low", "market_gravity_weight": 0 }, "geometry": { "type": "Point", "coordinates": [ -81.060908099654782, 36.951326247000694 ] } },
{ "type": "Feature", "properties": { "id": "51_18", "growth_scenario": "low", "market_gravity_weight": 0 }, "geometry": { "type": "Point", "coordinates": [ -81.006361507556889, 36.959417238556284 ] } },
{ "type": "Feature", "properties": { "id": "51_19", "growth_scenario": "low", "market_gravity_weight": 0 }, "geometry": { "type": "Point", "coordinates": [ -82.475547453491458, 36.952039080569151 ] } },
{ "type": "Feature", "properties": { "id": "51_2", "growth_scenario": "low", "market_gravity_weight": 0 }, "geometry": { "type": "Point", "coordinates": [ -81.063808121036274, 36.93406739135915 ] } },
{ "type": "Feature", "properties": { "id": "51_20", "growth_scenario": "low", "market_gravity_weight": 0 }, "geometry": { "type": "Point", "coordinates": [ -81.525593360297847, 36.821105897168088 ] } },
{ "type": "Feature", "properties": { "id": "51_21", "growth_scenario": "low", "market_gravity_weight": 0 }, "geometry": { "type": "Point", "coordinates": [ -80.991530465723713, 36.716067891542735 ] } },
{ "type": "Feature", "properties": { "id": "51_22", "growth_scenario": "low", "market_gravity_weight": 0 }, "geometry": { "type": "Point", "coordinates": [ -80.443741406980848, 37.220530636560831 ] } },
{ "type": "Feature", "properties": { "id": "51_23", "growth_scenario": "low", "market_gravity_weight": 0 }, "geometry": { "type": "Point", "coordinates": [ -80.446245736187933, 37.229447541033174 ] } },
{ "type": "Feature", "properties": { "id": "51_24", "growth_scenario": "low", "market_gravity_weight": 0 }, "geometry": { "type": "Point", "coordinates": [ -80.3841746884099, 37.275393261851214 ] } },
{ "type": "Feature", "properties": { "id": "51_25", "growth_scenario": "low", "market_gravity_weight": 0 }, "geometry": { "type": "Point", "coordinates": [ -80.386326299130317, 37.205750454888481 ] } },
{ "type": "Feature", "properties": { "id": "51_26", "growth_scenario": "low", "market_gravity_weight": 0 }, "geometry": { "type": "Point", "coordinates": [ -80.387188087759696, 37.122007533844972 ] } },
{ "type": "Feature", "properties": { "id": "51_27", "growth_scenario": "low", "market_gravity_weight": 0 }, "geometry": { "type": "Point", "coordinates": [ -79.190167806835646, 37.458635442489694 ] } },
{ "type": "Feature", "properties": { "id": "51_28", "growth_scenario": "low", "market_gravity_weight": 0 }, "geometry": { "type": "Point", "coordinates": [ -79.229818848309662, 37.428639502898207 ] } },
{ "type": "Feature", "properties": { "id": "51_29", "growth_scenario": "low", "market_gravity_weight": 0 }, "geometry": { "type": "Point", "coordinates": [ -79.218096201718154, 37.385036516004028 ] } },
{ "type": "Feature", "properties": { "id": "51_3", "growth_scenario": "low", "market_gravity_weight": 0 }, "geometry": { "type": "Point", "coordinates": [ -81.255364450870189, 36.888617851203414 ] } },
{ "type": "Feature", "properties": { "id": "51_30", "growth_scenario": "low", "market_gravity_weight": 0 }, "geometry": { "type": "Point", "coordinates": [ -79.118352505935903, 37.389647997982699 ] } },
{ "type": "Feature", "properties": { "id": "51_31", "growth_scenario": "low", "market_gravity_weight": 0 }, "geometry": { "type": "Point", "coordinates": [ -79.128757752975588, 37.383675489198332 ] } },
{ "type": "Feature", "properties": { "id": "51_32", "growth_scenario": "low", "market_gravity_weight": 0 }, "geometry": { "type": "Point", "coordinates": [ -79.224862014433711, 37.431573648137828 ] } },
{ "type": "Feature", "properties": { "id": "51_33", "growth_scenario": "low", "market_gravity_weight": 0 }, "geometry": { "type": "Point", "coordinates": [ -79.165422513069373, 37.378846423104783 ] } },
{ "type": "Feature", "properties": { "id": "51_34", "growth_scenario": "low", "market_gravity_weight": 0 }, "geometry": { "type": "Point", "coordinates": [ -79.123595568216729, 37.382950488507213 ] } },
{ "type": "Feature", "properties": { "id": "51_35", "growth_scenario": "low", "market_gravity_weight": 0 }, "geometry": { "type": "Point", "coordinates": [ -78.852966341199732, 37.359943863035539 ] } },
{ "type": "Feature", "properties": { "id": "51_36", "growth_scenario": "low", "market_gravity_weight": 0 }, "geometry": { "type": "Point", "coordinates": [ -79.913714643262139, 37.342651297088238 ] } },
{ "type": "Feature", "properties": { "id": "51_37", "growth_scenario": "low", "market_gravity_weight": 0 }, "geometry": { "type": "Point", "coordinates": [ -79.916569728117992, 37.247977504732049 ] } },
{ "type": "Feature", "properties": { "id": "51_38", "growth_scenario": "low", "market_gravity_weight": 0 }, "geometry": { "type": "Point", "coordinates": [ -78.418837687758653, 38.12025894260902 ] } },
{ "type": "Feature", "properties": { "id": "51_39", "growth_scenario": "low", "market_gravity_weight": 0 }, "geometry": { "type": "Point", "coordinates": [ -79.868564322021669, 37.333430964944881 ] } },
{ "type": "Feature", "properties": { "id": "51_4", "growth_scenario": "low", "market_gravity_weight": 0 }, "geometry": { "type": "Point", "coordinates": [ -81.058574696175413, 36.943534863175316 ] } },
{ "type": "Feature", "properties": { "id": "51_40", "growth_scenario": "low", "market_gravity_weight": 0 }, "geometry": { "type": "Point", "coordinates": [ -79.891120190296519, 37.369862718243525 ] } },
{ "type": "Feature", "properties": { "id": "51_41", "growth_scenario": "low", "market_gravity_weight": 0 }, "geometry": { "type": "Point", "coordinates": [ -82.061794194400946, 36.685740735362906 ] } },
{ "type": "Feature", "properties": { "id": "51_42", "growth_scenario": "low", "market_gravity_weight": 0 }, "geometry": { "type": "Point", "coordinates": [ -82.101546090874791, 36.661141859903111 ] } },
{ "type": "Feature", "properties": { "id": "51_43", "growth_scenario": "low", "market_gravity_weight": 0 }, "geometry": { "type": "Point", "coordinates": [ -81.938125936013179, 36.724482541415696 ] } },
{ "type": "Feature", "properties": { "id": "51_44", "growth_scenario": "low", "market_gravity_weight": 0 }, "geometry": { "type": "Point", "coordinates": [ -82.005624091962545, 36.724017239901507 ] } },
{ "type": "Feature", "properties": { "id": "51_45", "growth_scenario": "low", "market_gravity_weight": 0 }, "geometry": { "type": "Point", "coordinates": [ -79.389141987510314, 36.851284933050223 ] } },
{ "type": "Feature", "properties": { "id": "51_46", "growth_scenario": "low", "market_gravity_weight": 0 }, "geometry": { "type": "Point", "coordinates": [ -79.39051870886837, 36.85437687820329 ] } },
{ "type": "Feature", "properties": { "id": "51_47", "growth_scenario": "low", "market_gravity_weight": 0 }, "geometry": { "type": "Point", "coordinates": [ -79.384761615170135, 36.850312433562685 ] } },
{ "type": "Feature", "properties": { "id": "51_48", "growth_scenario": "low", "market_gravity_weight": 0 }, "geometry": { "type": "Point", "coordinates": [ -79.385784001540458, 36.853445750163417 ] } },
{ "type": "Feature", "properties": { "id": "51_49", "growth_scenario": "low", "market_gravity_weight": 0 }, "geometry": { "type": "Point", "coordinates": [ -79.314931806923738, 37.095268276693538 ] } },
{ "type": "Feature", "properties": { "id": "51_5", "growth_scenario": "low", "market_gravity_weight": 0 }, "geometry": { "type": "Point", "coordinates": [ -81.752863719262976, 36.8996675620931 ] } },
{ "type": "Feature", "properties": { "id": "51_50", "growth_scenario": "low", "market_gravity_weight": 0 }, "geometry": { "type": "Point", "coordinates": [ -79.388106449555622, 36.84769665489987 ] } },
{ "type": "Feature", "properties": { "id": "51_51", "growth_scenario": "low", "market_gravity_weight": 0 }, "geometry": { "type": "Point", "coordinates": [ -79.31598141645047, 37.092151677228706 ] } },
{ "type": "Feature", "properties": { "id": "51_6", "growth_scenario": "low", "market_gravity_weight": 0 }, "geometry": { "type": "Point", "coordinates": [ -81.42125147699042, 36.858098543915631 ] } },
{ "type": "Feature", "properties": { "id": "51_7", "growth_scenario": "low", "market_gravity_weight": 0 }, "geometry": { "type": "Point", "coordinates": [ -79.122435958822308, 37.387501872976117 ] } },
{ "type": "Feature", "properties": { "id": "51_8", "growth_scenario": "low", "market_gravity_weight": 0 }, "geometry": { "type": "Point", "coordinates": [ -79.151788227177661, 37.381739857382172 ] } },
{ "type": "Feature", "properties": { "id": "51_9", "growth_scenario": "low", "market_gravity_weight": 0 }, "geometry": { "type": "Point", "coordinates": [ -79.234937090865373, 37.397538924803001 ] } },
{ "type": "Feature", "properties": { "id": "53_0", "growth_scenario": "low", "market_gravity_weight": 0 }, "geometry": { "type": "Point", "coordinates": [ -119.905673078024009, 46.693883539390825 ] } },
{ "type": "Feature", "properties": { "id": "53_1", "growth_scenario": "low", "market_gravity_weight": 0 }, "geometry": { "type": "Point", "coordinates": [ -119.274403133640277, 47.614055653629499 ] } },
{ "type": "Feature", "properties": { "id": "53_2", "growth_scenario": "low", "market_gravity_weight": 0 }, "geometry": { "type": "Point", "coordinates": [ -119.009773722328291, 47.936042568985073 ] } },
{ "type": "Feature", "properties": { "id": "53_3", "growth_scenario": "low", "market_gravity_weight": 0 }, "geometry": { "type": "Point", "coordinates": [ -119.279081252803252, 47.614187578685033 ] } },
{ "type": "Feature", "properties": { "id": "53_4", "growth_scenario": "low", "market_gravity_weight": 0 }, "geometry": { "type": "Point", "coordinates": [ -119.903597307589152, 46.691550060720331 ] } },
{ "type": "Feature", "properties": { "id": "53_5", "growth_scenario": "low", "market_gravity_weight": 0 }, "geometry": { "type": "Point", "coordinates": [ -119.151116613208856, 46.838893290430427 ] } },
{ "type": "Feature", "properties": { "id": "53_6", "growth_scenario": "low", "market_gravity_weight": 0 }, "geometry": { "type": "Point", "coordinates": [ -119.151457882537926, 46.842464311809287 ] } },
{ "type": "Feature", "properties": { "id": "53_7", "growth_scenario": "low", "market_gravity_weight": 0 }, "geometry": { "type": "Point", "coordinates": [ -119.199910785492264, 46.814112280239321 ] } },
{ "type": "Feature", "properties": { "id": "56_0", "growth_scenario": "low", "market_gravity_weight": 0 }, "geometry": { "type": "Point", "coordinates": [ -110.557848506657848, 41.791816174593336 ] } },
{ "type": "Feature", "properties": { "id": "56_1", "growth_scenario": "low", "market_gravity_weight": 0 }, "geometry": { "type": "Point", "coordinates": [ -110.552578306112366, 41.792416117107855 ] } }
]
}
