{
"type": "FeatureCollection",
"name": "moderate_growth_25_market_gravity_epsg4326_centroids",
"crs": { "type": "name", "properties": { "name": "urn:ogc:def:crs:OGC:1.3:CRS84" } },
"features": [
{ "type": "Feature", "properties": { "id": "1_0", "growth_scenario": "moderate", "market_gravity_weight": 25 }, "geometry": { "type": "Point", "coordinates": [ -86.626063192751985, 34.836800523816258 ] } },
{ "type": "Feature", "properties": { "id": "1_1", "growth_scenario": "moderate", "market_gravity_weight": 25 }, "geometry": { "type": "Point", "coordinates": [ -86.912807264182902, 33.400479549212022 ] } },
{ "type": "Feature", "properties": { "id": "1_2", "growth_scenario": "moderate", "market_gravity_weight": 25 }, "geometry": { "type": "Point", "coordinates": [ -86.637299903992812, 34.8473131456876 ] } },
{ "type": "Feature", "properties": { "id": "4_0", "growth_scenario": "moderate", "market_gravity_weight": 25 }, "geometry": { "type": "Point", "coordinates": [ -113.175503892585823, 34.564482600700103 ] } },
{ "type": "Feature", "properties": { "id": "4_1", "growth_scenario": "moderate", "market_gravity_weight": 25 }, "geometry": { "type": "Point", "coordinates": [ -113.173630745376485, 34.586485699069883 ] } },
{ "type": "Feature", "properties": { "id": "4_10", "growth_scenario": "moderate", "market_gravity_weight": 25 }, "geometry": { "type": "Point", "coordinates": [ -114.750953531266134, 32.503921758928747 ] } },
{ "type": "Feature", "properties": { "id": "4_11", "growth_scenario": "moderate", "market_gravity_weight": 25 }, "geometry": { "type": "Point", "coordinates": [ -114.758592428964505, 32.49934950853649 ] } },
{ "type": "Feature", "properties": { "id": "4_12", "growth_scenario": "moderate", "market_gravity_weight": 25 }, "geometry": { "type": "Point", "coordinates": [ -112.577133282735602, 34.749798141480298 ] } },
{ "type": "Feature", "properties": { "id": "4_13", "growth_scenario": "moderate", "market_gravity_weight": 25 }, "geometry": { "type": "Point", "coordinates": [ -112.580481860895134, 34.751316131151185 ] } },
{ "type": "Feature", "properties": { "id": "4_2", "growth_scenario": "moderate", "market_gravity_weight": 25 }, "geometry": { "type": "Point", "coordinates": [ -113.176226125001293, 34.587099675324581 ] } },
{ "type": "Feature", "properties": { "id": "4_3", "growth_scenario": "moderate", "market_gravity_weight": 25 }, "geometry": { "type": "Point", "coordinates": [ -113.172348173969738, 34.562861251570368 ] } },
{ "type": "Feature", "properties": { "id": "4_4", "growth_scenario": "moderate", "market_gravity_weight": 25 }, "geometry": { "type": "Point", "coordinates": [ -113.17214761144011, 34.568435873369225 ] } },
{ "type": "Feature", "properties": { "id": "4_5", "growth_scenario": "moderate", "market_gravity_weight": 25 }, "geometry": { "type": "Point", "coordinates": [ -113.170793158684759, 34.589270820515743 ] } },
{ "type": "Feature", "properties": { "id": "4_6", "growth_scenario": "moderate", "market_gravity_weight": 25 }, "geometry": { "type": "Point", "coordinates": [ -113.179354698307748, 34.563727987869385 ] } },
{ "type": "Feature", "properties": { "id": "4_7", "growth_scenario": "moderate", "market_gravity_weight": 25 }, "geometry": { "type": "Point", "coordinates": [ -113.178267283394973, 34.584251024322597 ] } },
{ "type": "Feature", "properties": { "id": "4_8", "growth_scenario": "moderate", "market_gravity_weight": 25 }, "geometry": { "type": "Point", "coordinates": [ -114.63897728294161, 32.6399991297612 ] } },
{ "type": "Feature", "properties": { "id": "4_9", "growth_scenario": "moderate", "market_gravity_weight": 25 }, "geometry": { "type": "Point", "coordinates": [ -114.643430732018516, 32.64218400928408 ] } },
{ "type": "Feature", "properties": { "id": "6_0", "growth_scenario": "moderate", "market_gravity_weight": 25 }, "geometry": { "type": "Point", "coordinates": [ -121.93599305745856, 37.425035704478049 ] } },
{ "type": "Feature", "properties": { "id": "6_1", "growth_scenario": "moderate", "market_gravity_weight": 25 }, "geometry": { "type": "Point", "coordinates": [ -121.935658727206942, 37.428074065660319 ] } },
{ "type": "Feature", "properties": { "id": "6_10", "growth_scenario": "moderate", "market_gravity_weight": 25 }, "geometry": { "type": "Point", "coordinates": [ -121.489160861707305, 38.661495350866858 ] } },
{ "type": "Feature", "properties": { "id": "6_11", "growth_scenario": "moderate", "market_gravity_weight": 25 }, "geometry": { "type": "Point", "coordinates": [ -121.473959771129302, 38.661376495657699 ] } },
{ "type": "Feature", "properties": { "id": "6_12", "growth_scenario": "moderate", "market_gravity_weight": 25 }, "geometry": { "type": "Point", "coordinates": [ -122.268341079376754, 38.260732874609928 ] } },
{ "type": "Feature", "properties": { "id": "6_13", "growth_scenario": "moderate", "market_gravity_weight": 25 }, "geometry": { "type": "Point", "coordinates": [ -121.928397166336438, 37.437910223619198 ] } },
{ "type": "Feature", "properties": { "id": "6_14", "growth_scenario": "moderate", "market_gravity_weight": 25 }, "geometry": { "type": "Point", "coordinates": [ -121.926786026958595, 37.448640526985251 ] } },
{ "type": "Feature", "properties": { "id": "6_15", "growth_scenario": "moderate", "market_gravity_weight": 25 }, "geometry": { "type": "Point", "coordinates": [ -121.92946017883547, 37.44055003643691 ] } },
{ "type": "Feature", "properties": { "id": "6_16", "growth_scenario": "moderate", "market_gravity_weight": 25 }, "geometry": { "type": "Point", "coordinates": [ -121.486724684098021, 38.663768210907442 ] } },
{ "type": "Feature", "properties": { "id": "6_17", "growth_scenario": "moderate", "market_gravity_weight": 25 }, "geometry": { "type": "Point", "coordinates": [ -121.491587777932324, 38.663573079804102 ] } },
{ "type": "Feature", "properties": { "id": "6_18", "growth_scenario": "moderate", "market_gravity_weight": 25 }, "geometry": { "type": "Point", "coordinates": [ -121.984849783600083, 37.495880847623482 ] } },
{ "type": "Feature", "properties": { "id": "6_19", "growth_scenario": "moderate", "market_gravity_weight": 25 }, "geometry": { "type": "Point", "coordinates": [ -122.266165972740239, 38.262322825845857 ] } },
{ "type": "Feature", "properties": { "id": "6_2", "growth_scenario": "moderate", "market_gravity_weight": 25 }, "geometry": { "type": "Point", "coordinates": [ -121.93080716965612, 37.429414063689329 ] } },
{ "type": "Feature", "properties": { "id": "6_20", "growth_scenario": "moderate", "market_gravity_weight": 25 }, "geometry": { "type": "Point", "coordinates": [ -121.542001793710298, 38.641059701959016 ] } },
{ "type": "Feature", "properties": { "id": "6_3", "growth_scenario": "moderate", "market_gravity_weight": 25 }, "geometry": { "type": "Point", "coordinates": [ -121.928808435825516, 37.426145145780197 ] } },
{ "type": "Feature", "properties": { "id": "6_4", "growth_scenario": "moderate", "market_gravity_weight": 25 }, "geometry": { "type": "Point", "coordinates": [ -121.488633066186779, 38.657998433364561 ] } },
{ "type": "Feature", "properties": { "id": "6_5", "growth_scenario": "moderate", "market_gravity_weight": 25 }, "geometry": { "type": "Point", "coordinates": [ -121.481360548328709, 38.637977530643795 ] } },
{ "type": "Feature", "properties": { "id": "6_6", "growth_scenario": "moderate", "market_gravity_weight": 25 }, "geometry": { "type": "Point", "coordinates": [ -121.491689123160398, 38.659480522490753 ] } },
{ "type": "Feature", "properties": { "id": "6_7", "growth_scenario": "moderate", "market_gravity_weight": 25 }, "geometry": { "type": "Point", "coordinates": [ -121.486459988396675, 38.659660552873504 ] } },
{ "type": "Feature", "properties": { "id": "6_8", "growth_scenario": "moderate", "market_gravity_weight": 25 }, "geometry": { "type": "Point", "coordinates": [ -121.928468245376564, 37.434466281294164 ] } },
{ "type": "Feature", "properties": { "id": "6_9", "growth_scenario": "moderate", "market_gravity_weight": 25 }, "geometry": { "type": "Point", "coordinates": [ -121.470392766442401, 38.658799182432418 ] } },
{ "type": "Feature", "properties": { "id": "8_0", "growth_scenario": "moderate", "market_gravity_weight": 25 }, "geometry": { "type": "Point", "coordinates": [ -104.782779344324652, 38.98662710912415 ] } },
{ "type": "Feature", "properties": { "id": "8_1", "growth_scenario": "moderate", "market_gravity_weight": 25 }, "geometry": { "type": "Point", "coordinates": [ -104.780686351391694, 38.984804369729218 ] } },
{ "type": "Feature", "properties": { "id": "8_2", "growth_scenario": "moderate", "market_gravity_weight": 25 }, "geometry": { "type": "Point", "coordinates": [ -104.782955938886602, 38.990019467757236 ] } },
{ "type": "Feature", "properties": { "id": "12_0", "growth_scenario": "moderate", "market_gravity_weight": 25 }, "geometry": { "type": "Point", "coordinates": [ -80.308063534106012, 25.964919423376269 ] } },
{ "type": "Feature", "properties": { "id": "12_1", "growth_scenario": "moderate", "market_gravity_weight": 25 }, "geometry": { "type": "Point", "coordinates": [ -80.193219153451921, 26.07265212781622 ] } },
{ "type": "Feature", "properties": { "id": "12_2", "growth_scenario": "moderate", "market_gravity_weight": 25 }, "geometry": { "type": "Point", "coordinates": [ -80.410961978230091, 25.99283927541105 ] } },
{ "type": "Feature", "properties": { "id": "13_0", "growth_scenario": "moderate", "market_gravity_weight": 25 }, "geometry": { "type": "Point", "coordinates": [ -83.975623207471287, 34.886368094311294 ] } },
{ "type": "Feature", "properties": { "id": "13_1", "growth_scenario": "moderate", "market_gravity_weight": 25 }, "geometry": { "type": "Point", "coordinates": [ -83.844636221426526, 34.949303723703323 ] } },
{ "type": "Feature", "properties": { "id": "13_10", "growth_scenario": "moderate", "market_gravity_weight": 25 }, "geometry": { "type": "Point", "coordinates": [ -84.030128665400866, 34.133819899200645 ] } },
{ "type": "Feature", "properties": { "id": "13_11", "growth_scenario": "moderate", "market_gravity_weight": 25 }, "geometry": { "type": "Point", "coordinates": [ -83.961222132978449, 34.168318924530304 ] } },
{ "type": "Feature", "properties": { "id": "13_12", "growth_scenario": "moderate", "market_gravity_weight": 25 }, "geometry": { "type": "Point", "coordinates": [ -84.033349759548656, 34.150025011583359 ] } },
{ "type": "Feature", "properties": { "id": "13_13", "growth_scenario": "moderate", "market_gravity_weight": 25 }, "geometry": { "type": "Point", "coordinates": [ -84.00870311729139, 34.134932808414284 ] } },
{ "type": "Feature", "properties": { "id": "13_2", "growth_scenario": "moderate", "market_gravity_weight": 25 }, "geometry": { "type": "Point", "coordinates": [ -84.153363640509966, 33.927858188895556 ] } },
{ "type": "Feature", "properties": { "id": "13_3", "growth_scenario": "moderate", "market_gravity_weight": 25 }, "geometry": { "type": "Point", "coordinates": [ -84.029214007096428, 33.909690458515165 ] } },
{ "type": "Feature", "properties": { "id": "13_4", "growth_scenario": "moderate", "market_gravity_weight": 25 }, "geometry": { "type": "Point", "coordinates": [ -84.005632651389618, 33.827758236814887 ] } },
{ "type": "Feature", "properties": { "id": "13_5", "growth_scenario": "moderate", "market_gravity_weight": 25 }, "geometry": { "type": "Point", "coordinates": [ -84.552944780804097, 33.761921188066736 ] } },
{ "type": "Feature", "properties": { "id": "13_6", "growth_scenario": "moderate", "market_gravity_weight": 25 }, "geometry": { "type": "Point", "coordinates": [ -84.020469188334516, 34.054628380181533 ] } },
{ "type": "Feature", "properties": { "id": "13_7", "growth_scenario": "moderate", "market_gravity_weight": 25 }, "geometry": { "type": "Point", "coordinates": [ -84.020355582522569, 34.115852112344733 ] } },
{ "type": "Feature", "properties": { "id": "13_8", "growth_scenario": "moderate", "market_gravity_weight": 25 }, "geometry": { "type": "Point", "coordinates": [ -84.011654495921448, 34.105208756807691 ] } },
{ "type": "Feature", "properties": { "id": "13_9", "growth_scenario": "moderate", "market_gravity_weight": 25 }, "geometry": { "type": "Point", "coordinates": [ -84.041317508685083, 34.143365976217495 ] } },
{ "type": "Feature", "properties": { "id": "17_0", "growth_scenario": "moderate", "market_gravity_weight": 25 }, "geometry": { "type": "Point", "coordinates": [ -88.421959442974298, 41.690476118235182 ] } },
{ "type": "Feature", "properties": { "id": "17_1", "growth_scenario": "moderate", "market_gravity_weight": 25 }, "geometry": { "type": "Point", "coordinates": [ -88.48004660807122, 41.68429844076779 ] } },
{ "type": "Feature", "properties": { "id": "17_10", "growth_scenario": "moderate", "market_gravity_weight": 25 }, "geometry": { "type": "Point", "coordinates": [ -87.973338653341315, 42.314091911377297 ] } },
{ "type": "Feature", "properties": { "id": "17_11", "growth_scenario": "moderate", "market_gravity_weight": 25 }, "geometry": { "type": "Point", "coordinates": [ -87.883886736027335, 42.305641768869478 ] } },
{ "type": "Feature", "properties": { "id": "17_12", "growth_scenario": "moderate", "market_gravity_weight": 25 }, "geometry": { "type": "Point", "coordinates": [ -88.78931564783818, 41.949516863644632 ] } },
{ "type": "Feature", "properties": { "id": "17_13", "growth_scenario": "moderate", "market_gravity_weight": 25 }, "geometry": { "type": "Point", "coordinates": [ -88.791210436255213, 41.952401946933207 ] } },
{ "type": "Feature", "properties": { "id": "17_14", "growth_scenario": "moderate", "market_gravity_weight": 25 }, "geometry": { "type": "Point", "coordinates": [ -88.793320313877615, 41.948485772151301 ] } },
{ "type": "Feature", "properties": { "id": "17_15", "growth_scenario": "moderate", "market_gravity_weight": 25 }, "geometry": { "type": "Point", "coordinates": [ -88.054450372834594, 42.378418882721867 ] } },
{ "type": "Feature", "properties": { "id": "17_2", "growth_scenario": "moderate", "market_gravity_weight": 25 }, "geometry": { "type": "Point", "coordinates": [ -88.481327899075708, 41.687062800277282 ] } },
{ "type": "Feature", "properties": { "id": "17_3", "growth_scenario": "moderate", "market_gravity_weight": 25 }, "geometry": { "type": "Point", "coordinates": [ -88.485308901815898, 41.687295810837384 ] } },
{ "type": "Feature", "properties": { "id": "17_4", "growth_scenario": "moderate", "market_gravity_weight": 25 }, "geometry": { "type": "Point", "coordinates": [ -88.48363097076404, 41.683701487148589 ] } },
{ "type": "Feature", "properties": { "id": "17_5", "growth_scenario": "moderate", "market_gravity_weight": 25 }, "geometry": { "type": "Point", "coordinates": [ -87.561679373537842, 41.687757057569883 ] } },
{ "type": "Feature", "properties": { "id": "17_6", "growth_scenario": "moderate", "market_gravity_weight": 25 }, "geometry": { "type": "Point", "coordinates": [ -88.29223106852713, 41.409782879281586 ] } },
{ "type": "Feature", "properties": { "id": "17_7", "growth_scenario": "moderate", "market_gravity_weight": 25 }, "geometry": { "type": "Point", "coordinates": [ -88.295822570127228, 41.409013231131837 ] } },
{ "type": "Feature", "properties": { "id": "17_8", "growth_scenario": "moderate", "market_gravity_weight": 25 }, "geometry": { "type": "Point", "coordinates": [ -88.282970163085409, 41.393897229433357 ] } },
{ "type": "Feature", "properties": { "id": "17_9", "growth_scenario": "moderate", "market_gravity_weight": 25 }, "geometry": { "type": "Point", "coordinates": [ -87.974369288247644, 42.310476076534535 ] } },
{ "type": "Feature", "properties": { "id": "19_0", "growth_scenario": "moderate", "market_gravity_weight": 25 }, "geometry": { "type": "Point", "coordinates": [ -93.611522932049851, 41.888080353226762 ] } },
{ "type": "Feature", "properties": { "id": "19_1", "growth_scenario": "moderate", "market_gravity_weight": 25 }, "geometry": { "type": "Point", "coordinates": [ -91.973015525750057, 41.036252611576778 ] } },
{ "type": "Feature", "properties": { "id": "19_10", "growth_scenario": "moderate", "market_gravity_weight": 25 }, "geometry": { "type": "Point", "coordinates": [ -91.974732304130995, 41.031390410758881 ] } },
{ "type": "Feature", "properties": { "id": "19_11", "growth_scenario": "moderate", "market_gravity_weight": 25 }, "geometry": { "type": "Point", "coordinates": [ -93.522106241521669, 41.557408863066122 ] } },
{ "type": "Feature", "properties": { "id": "19_12", "growth_scenario": "moderate", "market_gravity_weight": 25 }, "geometry": { "type": "Point", "coordinates": [ -93.525418725612255, 41.552556698327791 ] } },
{ "type": "Feature", "properties": { "id": "19_13", "growth_scenario": "moderate", "market_gravity_weight": 25 }, "geometry": { "type": "Point", "coordinates": [ -93.521247347341216, 41.554353286422725 ] } },
{ "type": "Feature", "properties": { "id": "19_2", "growth_scenario": "moderate", "market_gravity_weight": 25 }, "geometry": { "type": "Point", "coordinates": [ -91.97327245222715, 41.033847212200826 ] } },
{ "type": "Feature", "properties": { "id": "19_3", "growth_scenario": "moderate", "market_gravity_weight": 25 }, "geometry": { "type": "Point", "coordinates": [ -93.613378784174571, 41.890618243601736 ] } },
{ "type": "Feature", "properties": { "id": "19_4", "growth_scenario": "moderate", "market_gravity_weight": 25 }, "geometry": { "type": "Point", "coordinates": [ -91.970473715983601, 41.0324179555857 ] } },
{ "type": "Feature", "properties": { "id": "19_5", "growth_scenario": "moderate", "market_gravity_weight": 25 }, "geometry": { "type": "Point", "coordinates": [ -93.612700201712428, 41.885598607706662 ] } },
{ "type": "Feature", "properties": { "id": "19_6", "growth_scenario": "moderate", "market_gravity_weight": 25 }, "geometry": { "type": "Point", "coordinates": [ -92.435230885291759, 40.988969893357336 ] } },
{ "type": "Feature", "properties": { "id": "19_7", "growth_scenario": "moderate", "market_gravity_weight": 25 }, "geometry": { "type": "Point", "coordinates": [ -92.435033448964703, 40.985747104286794 ] } },
{ "type": "Feature", "properties": { "id": "19_8", "growth_scenario": "moderate", "market_gravity_weight": 25 }, "geometry": { "type": "Point", "coordinates": [ -91.976845878961754, 41.034317569441562 ] } },
{ "type": "Feature", "properties": { "id": "19_9", "growth_scenario": "moderate", "market_gravity_weight": 25 }, "geometry": { "type": "Point", "coordinates": [ -92.373020450972632, 41.002586470699022 ] } },
{ "type": "Feature", "properties": { "id": "21_0", "growth_scenario": "moderate", "market_gravity_weight": 25 }, "geometry": { "type": "Point", "coordinates": [ -87.148400276247799, 36.820478212800857 ] } },
{ "type": "Feature", "properties": { "id": "21_1", "growth_scenario": "moderate", "market_gravity_weight": 25 }, "geometry": { "type": "Point", "coordinates": [ -87.153284027189372, 36.821465443047728 ] } },
{ "type": "Feature", "properties": { "id": "21_2", "growth_scenario": "moderate", "market_gravity_weight": 25 }, "geometry": { "type": "Point", "coordinates": [ -87.15499958786296, 36.8232949616173 ] } },
{ "type": "Feature", "properties": { "id": "25_0", "growth_scenario": "moderate", "market_gravity_weight": 25 }, "geometry": { "type": "Point", "coordinates": [ -71.039770607158175, 42.504304034588088 ] } },
{ "type": "Feature", "properties": { "id": "25_1", "growth_scenario": "moderate", "market_gravity_weight": 25 }, "geometry": { "type": "Point", "coordinates": [ -71.307801095889971, 42.687538043185 ] } },
{ "type": "Feature", "properties": { "id": "26_0", "growth_scenario": "moderate", "market_gravity_weight": 25 }, "geometry": { "type": "Point", "coordinates": [ -85.576167487991086, 42.890335843192318 ] } },
{ "type": "Feature", "properties": { "id": "27_0", "growth_scenario": "moderate", "market_gravity_weight": 25 }, "geometry": { "type": "Point", "coordinates": [ -94.185926773355888, 46.321500754532039 ] } },
{ "type": "Feature", "properties": { "id": "29_0", "growth_scenario": "moderate", "market_gravity_weight": 25 }, "geometry": { "type": "Point", "coordinates": [ -94.581870040679306, 39.328082955851009 ] } },
{ "type": "Feature", "properties": { "id": "29_1", "growth_scenario": "moderate", "market_gravity_weight": 25 }, "geometry": { "type": "Point", "coordinates": [ -94.578581786328954, 39.328580930854791 ] } },
{ "type": "Feature", "properties": { "id": "30_0", "growth_scenario": "moderate", "market_gravity_weight": 25 }, "geometry": { "type": "Point", "coordinates": [ -114.089727097654034, 46.895103186268095 ] } },
{ "type": "Feature", "properties": { "id": "31_0", "growth_scenario": "moderate", "market_gravity_weight": 25 }, "geometry": { "type": "Point", "coordinates": [ -96.093219889681365, 41.124144920431576 ] } },
{ "type": "Feature", "properties": { "id": "31_1", "growth_scenario": "moderate", "market_gravity_weight": 25 }, "geometry": { "type": "Point", "coordinates": [ -96.141249122694504, 41.128477331258992 ] } },
{ "type": "Feature", "properties": { "id": "31_2", "growth_scenario": "moderate", "market_gravity_weight": 25 }, "geometry": { "type": "Point", "coordinates": [ -96.044240561983614, 41.126761438446749 ] } },
{ "type": "Feature", "properties": { "id": "31_3", "growth_scenario": "moderate", "market_gravity_weight": 25 }, "geometry": { "type": "Point", "coordinates": [ -96.140988157086952, 41.17822788652191 ] } },
{ "type": "Feature", "properties": { "id": "31_4", "growth_scenario": "moderate", "market_gravity_weight": 25 }, "geometry": { "type": "Point", "coordinates": [ -96.133341041116395, 41.073200344907853 ] } },
{ "type": "Feature", "properties": { "id": "31_5", "growth_scenario": "moderate", "market_gravity_weight": 25 }, "geometry": { "type": "Point", "coordinates": [ -96.14078525529068, 41.076407591736732 ] } },
{ "type": "Feature", "properties": { "id": "31_6", "growth_scenario": "moderate", "market_gravity_weight": 25 }, "geometry": { "type": "Point", "coordinates": [ -96.136337579198425, 41.071857498916373 ] } },
{ "type": "Feature", "properties": { "id": "31_7", "growth_scenario": "moderate", "market_gravity_weight": 25 }, "geometry": { "type": "Point", "coordinates": [ -96.140537685996051, 41.072567439980631 ] } },
{ "type": "Feature", "properties": { "id": "32_0", "growth_scenario": "moderate", "market_gravity_weight": 25 }, "geometry": { "type": "Point", "coordinates": [ -115.27624826089513, 36.11732842888857 ] } },
{ "type": "Feature", "properties": { "id": "32_1", "growth_scenario": "moderate", "market_gravity_weight": 25 }, "geometry": { "type": "Point", "coordinates": [ -114.045981300796015, 40.741674278442169 ] } },
{ "type": "Feature", "properties": { "id": "32_2", "growth_scenario": "moderate", "market_gravity_weight": 25 }, "geometry": { "type": "Point", "coordinates": [ -115.018304803091283, 36.109989595933058 ] } },
{ "type": "Feature", "properties": { "id": "32_3", "growth_scenario": "moderate", "market_gravity_weight": 25 }, "geometry": { "type": "Point", "coordinates": [ -119.934880489214123, 39.505193410142731 ] } },
{ "type": "Feature", "properties": { "id": "32_4", "growth_scenario": "moderate", "market_gravity_weight": 25 }, "geometry": { "type": "Point", "coordinates": [ -119.93152583728282, 39.505665397619687 ] } },
{ "type": "Feature", "properties": { "id": "32_5", "growth_scenario": "moderate", "market_gravity_weight": 25 }, "geometry": { "type": "Point", "coordinates": [ -119.719224504793075, 39.457484702097659 ] } },
{ "type": "Feature", "properties": { "id": "32_6", "growth_scenario": "moderate", "market_gravity_weight": 25 }, "geometry": { "type": "Point", "coordinates": [ -115.212041448410389, 36.321867561380635 ] } },
{ "type": "Feature", "properties": { "id": "34_0", "growth_scenario": "moderate", "market_gravity_weight": 25 }, "geometry": { "type": "Point", "coordinates": [ -74.84443322527089, 40.51730608959334 ] } },
{ "type": "Feature", "properties": { "id": "34_1", "growth_scenario": "moderate", "market_gravity_weight": 25 }, "geometry": { "type": "Point", "coordinates": [ -74.323979808092929, 40.460024995536308 ] } },
{ "type": "Feature", "properties": { "id": "34_2", "growth_scenario": "moderate", "market_gravity_weight": 25 }, "geometry": { "type": "Point", "coordinates": [ -74.347999462866539, 40.450644886423525 ] } },
{ "type": "Feature", "properties": { "id": "34_3", "growth_scenario": "moderate", "market_gravity_weight": 25 }, "geometry": { "type": "Point", "coordinates": [ -74.344319317262261, 40.449912632273374 ] } },
{ "type": "Feature", "properties": { "id": "34_4", "growth_scenario": "moderate", "market_gravity_weight": 25 }, "geometry": { "type": "Point", "coordinates": [ -74.348387182833704, 40.4474133670412 ] } },
{ "type": "Feature", "properties": { "id": "34_5", "growth_scenario": "moderate", "market_gravity_weight": 25 }, "geometry": { "type": "Point", "coordinates": [ -74.312978340998825, 40.441519524277375 ] } },
{ "type": "Feature", "properties": { "id": "34_6", "growth_scenario": "moderate", "market_gravity_weight": 25 }, "geometry": { "type": "Point", "coordinates": [ -74.509380724636529, 40.852324839466903 ] } },
{ "type": "Feature", "properties": { "id": "34_7", "growth_scenario": "moderate", "market_gravity_weight": 25 }, "geometry": { "type": "Point", "coordinates": [ -74.246891632148845, 40.397987669768774 ] } },
{ "type": "Feature", "properties": { "id": "34_8", "growth_scenario": "moderate", "market_gravity_weight": 25 }, "geometry": { "type": "Point", "coordinates": [ -74.354258125648784, 40.607892890368809 ] } },
{ "type": "Feature", "properties": { "id": "36_0", "growth_scenario": "moderate", "market_gravity_weight": 25 }, "geometry": { "type": "Point", "coordinates": [ -74.024082617564318, 41.151706260913876 ] } },
{ "type": "Feature", "properties": { "id": "36_1", "growth_scenario": "moderate", "market_gravity_weight": 25 }, "geometry": { "type": "Point", "coordinates": [ -73.960829278272143, 41.089770859692528 ] } },
{ "type": "Feature", "properties": { "id": "36_2", "growth_scenario": "moderate", "market_gravity_weight": 25 }, "geometry": { "type": "Point", "coordinates": [ -73.994988613517094, 41.248932428289891 ] } },
{ "type": "Feature", "properties": { "id": "36_3", "growth_scenario": "moderate", "market_gravity_weight": 25 }, "geometry": { "type": "Point", "coordinates": [ -73.980734339559959, 41.223399199325975 ] } },
{ "type": "Feature", "properties": { "id": "36_4", "growth_scenario": "moderate", "market_gravity_weight": 25 }, "geometry": { "type": "Point", "coordinates": [ -74.029085506764517, 41.075873856370876 ] } },
{ "type": "Feature", "properties": { "id": "36_5", "growth_scenario": "moderate", "market_gravity_weight": 25 }, "geometry": { "type": "Point", "coordinates": [ -74.119448712816833, 41.120387392222085 ] } },
{ "type": "Feature", "properties": { "id": "36_6", "growth_scenario": "moderate", "market_gravity_weight": 25 }, "geometry": { "type": "Point", "coordinates": [ -73.969357508516268, 41.088149506072952 ] } },
{ "type": "Feature", "properties": { "id": "36_7", "growth_scenario": "moderate", "market_gravity_weight": 25 }, "geometry": { "type": "Point", "coordinates": [ -73.957614610482807, 41.089022205103483 ] } },
{ "type": "Feature", "properties": { "id": "36_8", "growth_scenario": "moderate", "market_gravity_weight": 25 }, "geometry": { "type": "Point", "coordinates": [ -73.997998670143119, 41.247624039241011 ] } },
{ "type": "Feature", "properties": { "id": "37_0", "growth_scenario": "moderate", "market_gravity_weight": 25 }, "geometry": { "type": "Point", "coordinates": [ -78.291111196602174, 35.797756197627088 ] } },
{ "type": "Feature", "properties": { "id": "37_1", "growth_scenario": "moderate", "market_gravity_weight": 25 }, "geometry": { "type": "Point", "coordinates": [ -78.290449336439195, 35.80056473365066 ] } },
{ "type": "Feature", "properties": { "id": "37_2", "growth_scenario": "moderate", "market_gravity_weight": 25 }, "geometry": { "type": "Point", "coordinates": [ -78.294489570688981, 35.799810777416482 ] } },
{ "type": "Feature", "properties": { "id": "37_3", "growth_scenario": "moderate", "market_gravity_weight": 25 }, "geometry": { "type": "Point", "coordinates": [ -78.294575775045843, 35.796551886467348 ] } },
{ "type": "Feature", "properties": { "id": "37_4", "growth_scenario": "moderate", "market_gravity_weight": 25 }, "geometry": { "type": "Point", "coordinates": [ -78.292730719328915, 35.802453880099222 ] } },
{ "type": "Feature", "properties": { "id": "37_5", "growth_scenario": "moderate", "market_gravity_weight": 25 }, "geometry": { "type": "Point", "coordinates": [ -78.296791708225825, 35.80161207976812 ] } },
{ "type": "Feature", "properties": { "id": "38_0", "growth_scenario": "moderate", "market_gravity_weight": 25 }, "geometry": { "type": "Point", "coordinates": [ -100.875046723499295, 46.845237283070624 ] } },
{ "type": "Feature", "properties": { "id": "38_1", "growth_scenario": "moderate", "market_gravity_weight": 25 }, "geometry": { "type": "Point", "coordinates": [ -100.881504382865302, 46.798433714647388 ] } },
{ "type": "Feature", "properties": { "id": "38_2", "growth_scenario": "moderate", "market_gravity_weight": 25 }, "geometry": { "type": "Point", "coordinates": [ -100.889671269735388, 46.844988403061727 ] } },
{ "type": "Feature", "properties": { "id": "38_3", "growth_scenario": "moderate", "market_gravity_weight": 25 }, "geometry": { "type": "Point", "coordinates": [ -97.05031351081287, 46.873420748423911 ] } },
{ "type": "Feature", "properties": { "id": "38_4", "growth_scenario": "moderate", "market_gravity_weight": 25 }, "geometry": { "type": "Point", "coordinates": [ -97.04720460450514, 46.875070528516702 ] } },
{ "type": "Feature", "properties": { "id": "38_5", "growth_scenario": "moderate", "market_gravity_weight": 25 }, "geometry": { "type": "Point", "coordinates": [ -100.875553351714018, 46.793943118407945 ] } },
{ "type": "Feature", "properties": { "id": "38_6", "growth_scenario": "moderate", "market_gravity_weight": 25 }, "geometry": { "type": "Point", "coordinates": [ -100.879993730310119, 46.795684195283037 ] } },
{ "type": "Feature", "properties": { "id": "38_7", "growth_scenario": "moderate", "market_gravity_weight": 25 }, "geometry": { "type": "Point", "coordinates": [ -100.883312449352857, 46.863213228846902 ] } },
{ "type": "Feature", "properties": { "id": "39_0", "growth_scenario": "moderate", "market_gravity_weight": 25 }, "geometry": { "type": "Point", "coordinates": [ -82.78030345668131, 39.878746732676433 ] } },
{ "type": "Feature", "properties": { "id": "39_1", "growth_scenario": "moderate", "market_gravity_weight": 25 }, "geometry": { "type": "Point", "coordinates": [ -82.802304083340758, 39.802228924603362 ] } },
{ "type": "Feature", "properties": { "id": "39_2", "growth_scenario": "moderate", "market_gravity_weight": 25 }, "geometry": { "type": "Point", "coordinates": [ -82.638269867248624, 39.701206708018312 ] } },
{ "type": "Feature", "properties": { "id": "39_3", "growth_scenario": "moderate", "market_gravity_weight": 25 }, "geometry": { "type": "Point", "coordinates": [ -82.636234237967017, 39.69810416503644 ] } },
{ "type": "Feature", "properties": { "id": "39_4", "growth_scenario": "moderate", "market_gravity_weight": 25 }, "geometry": { "type": "Point", "coordinates": [ -82.574732969066801, 39.707260203662571 ] } },
{ "type": "Feature", "properties": { "id": "40_0", "growth_scenario": "moderate", "market_gravity_weight": 25 }, "geometry": { "type": "Point", "coordinates": [ -95.910200812322799, 36.260762798360531 ] } },
{ "type": "Feature", "properties": { "id": "40_1", "growth_scenario": "moderate", "market_gravity_weight": 25 }, "geometry": { "type": "Point", "coordinates": [ -95.910208559370972, 36.25424511602094 ] } },
{ "type": "Feature", "properties": { "id": "41_0", "growth_scenario": "moderate", "market_gravity_weight": 25 }, "geometry": { "type": "Point", "coordinates": [ -122.94176346461299, 45.560724261921223 ] } },
{ "type": "Feature", "properties": { "id": "41_1", "growth_scenario": "moderate", "market_gravity_weight": 25 }, "geometry": { "type": "Point", "coordinates": [ -122.937536584468262, 45.562433120660053 ] } },
{ "type": "Feature", "properties": { "id": "41_10", "growth_scenario": "moderate", "market_gravity_weight": 25 }, "geometry": { "type": "Point", "coordinates": [ -122.947439446035986, 45.559937015504268 ] } },
{ "type": "Feature", "properties": { "id": "41_11", "growth_scenario": "moderate", "market_gravity_weight": 25 }, "geometry": { "type": "Point", "coordinates": [ -122.944148533159108, 45.552643769982069 ] } },
{ "type": "Feature", "properties": { "id": "41_12", "growth_scenario": "moderate", "market_gravity_weight": 25 }, "geometry": { "type": "Point", "coordinates": [ -120.87959482917762, 44.280497211584468 ] } },
{ "type": "Feature", "properties": { "id": "41_13", "growth_scenario": "moderate", "market_gravity_weight": 25 }, "geometry": { "type": "Point", "coordinates": [ -120.865012272925853, 44.287744943418595 ] } },
{ "type": "Feature", "properties": { "id": "41_2", "growth_scenario": "moderate", "market_gravity_weight": 25 }, "geometry": { "type": "Point", "coordinates": [ -122.902193236391966, 45.569849687906746 ] } },
{ "type": "Feature", "properties": { "id": "41_3", "growth_scenario": "moderate", "market_gravity_weight": 25 }, "geometry": { "type": "Point", "coordinates": [ -120.879194144187267, 44.282896079597691 ] } },
{ "type": "Feature", "properties": { "id": "41_4", "growth_scenario": "moderate", "market_gravity_weight": 25 }, "geometry": { "type": "Point", "coordinates": [ -120.873552353691707, 44.282767832845515 ] } },
{ "type": "Feature", "properties": { "id": "41_5", "growth_scenario": "moderate", "market_gravity_weight": 25 }, "geometry": { "type": "Point", "coordinates": [ -122.940712074010193, 45.563657706026788 ] } },
{ "type": "Feature", "properties": { "id": "41_6", "growth_scenario": "moderate", "market_gravity_weight": 25 }, "geometry": { "type": "Point", "coordinates": [ -120.869642350628723, 44.282401044861629 ] } },
{ "type": "Feature", "properties": { "id": "41_7", "growth_scenario": "moderate", "market_gravity_weight": 25 }, "geometry": { "type": "Point", "coordinates": [ -122.944974776278087, 45.562035139356446 ] } },
{ "type": "Feature", "properties": { "id": "41_8", "growth_scenario": "moderate", "market_gravity_weight": 25 }, "geometry": { "type": "Point", "coordinates": [ -122.900815666248477, 45.574255004607458 ] } },
{ "type": "Feature", "properties": { "id": "41_9", "growth_scenario": "moderate", "market_gravity_weight": 25 }, "geometry": { "type": "Point", "coordinates": [ -120.875460179758619, 44.291320149491234 ] } },
{ "type": "Feature", "properties": { "id": "42_0", "growth_scenario": "moderate", "market_gravity_weight": 25 }, "geometry": { "type": "Point", "coordinates": [ -77.704529417614864, 39.777045634132648 ] } },
{ "type": "Feature", "properties": { "id": "42_1", "growth_scenario": "moderate", "market_gravity_weight": 25 }, "geometry": { "type": "Point", "coordinates": [ -77.687631919155493, 39.861290879402361 ] } },
{ "type": "Feature", "properties": { "id": "42_2", "growth_scenario": "moderate", "market_gravity_weight": 25 }, "geometry": { "type": "Point", "coordinates": [ -77.686129804103061, 39.865251707527307 ] } },
{ "type": "Feature", "properties": { "id": "42_3", "growth_scenario": "moderate", "market_gravity_weight": 25 }, "geometry": { "type": "Point", "coordinates": [ -77.699867110827853, 39.86837015977688 ] } },
{ "type": "Feature", "properties": { "id": "42_4", "growth_scenario": "moderate", "market_gravity_weight": 25 }, "geometry": { "type": "Point", "coordinates": [ -77.703456166333225, 39.868899562709217 ] } },
{ "type": "Feature", "properties": { "id": "42_5", "growth_scenario": "moderate", "market_gravity_weight": 25 }, "geometry": { "type": "Point", "coordinates": [ -77.679681634680549, 39.911673195518595 ] } },
{ "type": "Feature", "properties": { "id": "42_6", "growth_scenario": "moderate", "market_gravity_weight": 25 }, "geometry": { "type": "Point", "coordinates": [ -77.603793137467306, 39.936733931700864 ] } },
{ "type": "Feature", "properties": { "id": "42_7", "growth_scenario": "moderate", "market_gravity_weight": 25 }, "geometry": { "type": "Point", "coordinates": [ -77.607016917378502, 39.937757243813799 ] } },
{ "type": "Feature", "properties": { "id": "42_8", "growth_scenario": "moderate", "market_gravity_weight": 25 }, "geometry": { "type": "Point", "coordinates": [ -77.603552485253431, 39.939517556802741 ] } },
{ "type": "Feature", "properties": { "id": "42_9", "growth_scenario": "moderate", "market_gravity_weight": 25 }, "geometry": { "type": "Point", "coordinates": [ -77.637841093699507, 39.98042329087842 ] } },
{ "type": "Feature", "properties": { "id": "45_0", "growth_scenario": "moderate", "market_gravity_weight": 25 }, "geometry": { "type": "Point", "coordinates": [ -81.916848072372844, 33.637042114776968 ] } },
{ "type": "Feature", "properties": { "id": "45_1", "growth_scenario": "moderate", "market_gravity_weight": 25 }, "geometry": { "type": "Point", "coordinates": [ -81.867123361318164, 35.134071920197009 ] } },
{ "type": "Feature", "properties": { "id": "45_2", "growth_scenario": "moderate", "market_gravity_weight": 25 }, "geometry": { "type": "Point", "coordinates": [ -81.868271937292647, 35.131499992606535 ] } },
{ "type": "Feature", "properties": { "id": "45_3", "growth_scenario": "moderate", "market_gravity_weight": 25 }, "geometry": { "type": "Point", "coordinates": [ -81.615695558718514, 35.076794439609927 ] } },
{ "type": "Feature", "properties": { "id": "47_0", "growth_scenario": "moderate", "market_gravity_weight": 25 }, "geometry": { "type": "Point", "coordinates": [ -82.308723733626422, 36.424577515211411 ] } },
{ "type": "Feature", "properties": { "id": "47_1", "growth_scenario": "moderate", "market_gravity_weight": 25 }, "geometry": { "type": "Point", "coordinates": [ -82.31109027257736, 36.426563731969097 ] } },
{ "type": "Feature", "properties": { "id": "47_2", "growth_scenario": "moderate", "market_gravity_weight": 25 }, "geometry": { "type": "Point", "coordinates": [ -82.207007087579086, 36.48951706815518 ] } },
{ "type": "Feature", "properties": { "id": "48_0", "growth_scenario": "moderate", "market_gravity_weight": 25 }, "geometry": { "type": "Point", "coordinates": [ -96.958747459774358, 32.983528714201711 ] } },
{ "type": "Feature", "properties": { "id": "48_1", "growth_scenario": "moderate", "market_gravity_weight": 25 }, "geometry": { "type": "Point", "coordinates": [ -96.957534016106791, 32.981119399394082 ] } },
{ "type": "Feature", "properties": { "id": "48_10", "growth_scenario": "moderate", "market_gravity_weight": 25 }, "geometry": { "type": "Point", "coordinates": [ -96.972908855168996, 32.95320929828474 ] } },
{ "type": "Feature", "properties": { "id": "48_11", "growth_scenario": "moderate", "market_gravity_weight": 25 }, "geometry": { "type": "Point", "coordinates": [ -96.955396870239852, 33.009185003573329 ] } },
{ "type": "Feature", "properties": { "id": "48_12", "growth_scenario": "moderate", "market_gravity_weight": 25 }, "geometry": { "type": "Point", "coordinates": [ -96.95693483038977, 33.011681129623902 ] } },
{ "type": "Feature", "properties": { "id": "48_13", "growth_scenario": "moderate", "market_gravity_weight": 25 }, "geometry": { "type": "Point", "coordinates": [ -98.714737987990759, 29.423320942565777 ] } },
{ "type": "Feature", "properties": { "id": "48_14", "growth_scenario": "moderate", "market_gravity_weight": 25 }, "geometry": { "type": "Point", "coordinates": [ -96.966008735354023, 32.952192531502369 ] } },
{ "type": "Feature", "properties": { "id": "48_15", "growth_scenario": "moderate", "market_gravity_weight": 25 }, "geometry": { "type": "Point", "coordinates": [ -98.737732862136525, 29.417326795681543 ] } },
{ "type": "Feature", "properties": { "id": "48_16", "growth_scenario": "moderate", "market_gravity_weight": 25 }, "geometry": { "type": "Point", "coordinates": [ -96.973940832406967, 32.949615878074994 ] } },
{ "type": "Feature", "properties": { "id": "48_17", "growth_scenario": "moderate", "market_gravity_weight": 25 }, "geometry": { "type": "Point", "coordinates": [ -96.971133223277931, 32.948833263783214 ] } },
{ "type": "Feature", "properties": { "id": "48_18", "growth_scenario": "moderate", "market_gravity_weight": 25 }, "geometry": { "type": "Point", "coordinates": [ -96.977803513407693, 32.9486866884276 ] } },
{ "type": "Feature", "properties": { "id": "48_19", "growth_scenario": "moderate", "market_gravity_weight": 25 }, "geometry": { "type": "Point", "coordinates": [ -97.020811499726349, 32.995804995921837 ] } },
{ "type": "Feature", "properties": { "id": "48_2", "growth_scenario": "moderate", "market_gravity_weight": 25 }, "geometry": { "type": "Point", "coordinates": [ -98.720735556924893, 29.430211710265684 ] } },
{ "type": "Feature", "properties": { "id": "48_20", "growth_scenario": "moderate", "market_gravity_weight": 25 }, "geometry": { "type": "Point", "coordinates": [ -96.981355521674203, 32.948745813550502 ] } },
{ "type": "Feature", "properties": { "id": "48_21", "growth_scenario": "moderate", "market_gravity_weight": 25 }, "geometry": { "type": "Point", "coordinates": [ -97.020858920849761, 32.999478564229179 ] } },
{ "type": "Feature", "properties": { "id": "48_22", "growth_scenario": "moderate", "market_gravity_weight": 25 }, "geometry": { "type": "Point", "coordinates": [ -97.021429683470302, 33.001982516740192 ] } },
{ "type": "Feature", "properties": { "id": "48_23", "growth_scenario": "moderate", "market_gravity_weight": 25 }, "geometry": { "type": "Point", "coordinates": [ -97.709571097310629, 30.194978425518435 ] } },
{ "type": "Feature", "properties": { "id": "48_24", "growth_scenario": "moderate", "market_gravity_weight": 25 }, "geometry": { "type": "Point", "coordinates": [ -96.969482948183668, 32.94588996910246 ] } },
{ "type": "Feature", "properties": { "id": "48_25", "growth_scenario": "moderate", "market_gravity_weight": 25 }, "geometry": { "type": "Point", "coordinates": [ -96.981204588646278, 32.94525208258024 ] } },
{ "type": "Feature", "properties": { "id": "48_26", "growth_scenario": "moderate", "market_gravity_weight": 25 }, "geometry": { "type": "Point", "coordinates": [ -96.989280052662338, 32.945630439988172 ] } },
{ "type": "Feature", "properties": { "id": "48_27", "growth_scenario": "moderate", "market_gravity_weight": 25 }, "geometry": { "type": "Point", "coordinates": [ -97.024714197322552, 32.997831064771596 ] } },
{ "type": "Feature", "properties": { "id": "48_28", "growth_scenario": "moderate", "market_gravity_weight": 25 }, "geometry": { "type": "Point", "coordinates": [ -97.024435295834081, 33.001238722197677 ] } },
{ "type": "Feature", "properties": { "id": "48_29", "growth_scenario": "moderate", "market_gravity_weight": 25 }, "geometry": { "type": "Point", "coordinates": [ -98.707725740781797, 29.423225381182856 ] } },
{ "type": "Feature", "properties": { "id": "48_3", "growth_scenario": "moderate", "market_gravity_weight": 25 }, "geometry": { "type": "Point", "coordinates": [ -96.95621625171259, 32.978979771763797 ] } },
{ "type": "Feature", "properties": { "id": "48_30", "growth_scenario": "moderate", "market_gravity_weight": 25 }, "geometry": { "type": "Point", "coordinates": [ -96.961275220564374, 33.023203892947777 ] } },
{ "type": "Feature", "properties": { "id": "48_31", "growth_scenario": "moderate", "market_gravity_weight": 25 }, "geometry": { "type": "Point", "coordinates": [ -96.967338468305911, 33.025751267152309 ] } },
{ "type": "Feature", "properties": { "id": "48_32", "growth_scenario": "moderate", "market_gravity_weight": 25 }, "geometry": { "type": "Point", "coordinates": [ -96.963780826027502, 33.025512520747625 ] } },
{ "type": "Feature", "properties": { "id": "48_33", "growth_scenario": "moderate", "market_gravity_weight": 25 }, "geometry": { "type": "Point", "coordinates": [ -96.969218365969837, 32.941859476924563 ] } },
{ "type": "Feature", "properties": { "id": "48_34", "growth_scenario": "moderate", "market_gravity_weight": 25 }, "geometry": { "type": "Point", "coordinates": [ -96.957617604292309, 33.023593034170851 ] } },
{ "type": "Feature", "properties": { "id": "48_35", "growth_scenario": "moderate", "market_gravity_weight": 25 }, "geometry": { "type": "Point", "coordinates": [ -96.960231911895022, 33.025990431516838 ] } },
{ "type": "Feature", "properties": { "id": "48_36", "growth_scenario": "moderate", "market_gravity_weight": 25 }, "geometry": { "type": "Point", "coordinates": [ -96.991387125591871, 32.942027486818958 ] } },
{ "type": "Feature", "properties": { "id": "48_37", "growth_scenario": "moderate", "market_gravity_weight": 25 }, "geometry": { "type": "Point", "coordinates": [ -96.954386448194697, 33.023620074348727 ] } },
{ "type": "Feature", "properties": { "id": "48_38", "growth_scenario": "moderate", "market_gravity_weight": 25 }, "geometry": { "type": "Point", "coordinates": [ -98.707296438500066, 29.419535016259633 ] } },
{ "type": "Feature", "properties": { "id": "48_39", "growth_scenario": "moderate", "market_gravity_weight": 25 }, "geometry": { "type": "Point", "coordinates": [ -96.956574161559303, 33.026379537687781 ] } },
{ "type": "Feature", "properties": { "id": "48_4", "growth_scenario": "moderate", "market_gravity_weight": 25 }, "geometry": { "type": "Point", "coordinates": [ -96.955430854092398, 32.985259120800642 ] } },
{ "type": "Feature", "properties": { "id": "48_40", "growth_scenario": "moderate", "market_gravity_weight": 25 }, "geometry": { "type": "Point", "coordinates": [ -96.976169959076799, 32.93839477049255 ] } },
{ "type": "Feature", "properties": { "id": "48_41", "growth_scenario": "moderate", "market_gravity_weight": 25 }, "geometry": { "type": "Point", "coordinates": [ -96.950504748825466, 33.023294016359962 ] } },
{ "type": "Feature", "properties": { "id": "48_42", "growth_scenario": "moderate", "market_gravity_weight": 25 }, "geometry": { "type": "Point", "coordinates": [ -97.703144008547852, 30.211113890592209 ] } },
{ "type": "Feature", "properties": { "id": "48_43", "growth_scenario": "moderate", "market_gravity_weight": 25 }, "geometry": { "type": "Point", "coordinates": [ -96.958649968583003, 33.028781469180778 ] } },
{ "type": "Feature", "properties": { "id": "48_44", "growth_scenario": "moderate", "market_gravity_weight": 25 }, "geometry": { "type": "Point", "coordinates": [ -96.952473661865795, 33.025786563504923 ] } },
{ "type": "Feature", "properties": { "id": "48_45", "growth_scenario": "moderate", "market_gravity_weight": 25 }, "geometry": { "type": "Point", "coordinates": [ -96.969598242873332, 32.937733867325449 ] } },
{ "type": "Feature", "properties": { "id": "48_46", "growth_scenario": "moderate", "market_gravity_weight": 25 }, "geometry": { "type": "Point", "coordinates": [ -96.954444862697358, 33.028458258659349 ] } },
{ "type": "Feature", "properties": { "id": "48_47", "growth_scenario": "moderate", "market_gravity_weight": 25 }, "geometry": { "type": "Point", "coordinates": [ -96.946847075398381, 33.023682812690737 ] } },
{ "type": "Feature", "properties": { "id": "48_48", "growth_scenario": "moderate", "market_gravity_weight": 25 }, "geometry": { "type": "Point", "coordinates": [ -96.949247793808311, 33.026261438376153 ] } },
{ "type": "Feature", "properties": { "id": "48_5", "growth_scenario": "moderate", "market_gravity_weight": 25 }, "geometry": { "type": "Point", "coordinates": [ -96.95546873757597, 32.988395167961194 ] } },
{ "type": "Feature", "properties": { "id": "48_6", "growth_scenario": "moderate", "market_gravity_weight": 25 }, "geometry": { "type": "Point", "coordinates": [ -96.955079224022114, 32.991803605001948 ] } },
{ "type": "Feature", "properties": { "id": "48_7", "growth_scenario": "moderate", "market_gravity_weight": 25 }, "geometry": { "type": "Point", "coordinates": [ -98.721235549697852, 29.426588406728197 ] } },
{ "type": "Feature", "properties": { "id": "48_8", "growth_scenario": "moderate", "market_gravity_weight": 25 }, "geometry": { "type": "Point", "coordinates": [ -98.718654767965674, 29.426472570436619 ] } },
{ "type": "Feature", "properties": { "id": "48_9", "growth_scenario": "moderate", "market_gravity_weight": 25 }, "geometry": { "type": "Point", "coordinates": [ -98.719384393725505, 29.423565651384298 ] } },
{ "type": "Feature", "properties": { "id": "49_0", "growth_scenario": "moderate", "market_gravity_weight": 25 }, "geometry": { "type": "Point", "coordinates": [ -111.901200096587431, 40.495035130597664 ] } },
{ "type": "Feature", "properties": { "id": "49_1", "growth_scenario": "moderate", "market_gravity_weight": 25 }, "geometry": { "type": "Point", "coordinates": [ -112.054026553159233, 40.534981418229712 ] } },
{ "type": "Feature", "properties": { "id": "49_2", "growth_scenario": "moderate", "market_gravity_weight": 25 }, "geometry": { "type": "Point", "coordinates": [ -112.048328417587356, 40.550290921224715 ] } },
{ "type": "Feature", "properties": { "id": "49_3", "growth_scenario": "moderate", "market_gravity_weight": 25 }, "geometry": { "type": "Point", "coordinates": [ -112.045793864981619, 40.552426150684006 ] } },
{ "type": "Feature", "properties": { "id": "49_4", "growth_scenario": "moderate", "market_gravity_weight": 25 }, "geometry": { "type": "Point", "coordinates": [ -112.034835947786746, 40.553644881861395 ] } },
{ "type": "Feature", "properties": { "id": "51_0", "growth_scenario": "moderate", "market_gravity_weight": 25 }, "geometry": { "type": "Point", "coordinates": [ -79.920046478258897, 37.339062700665501 ] } },
{ "type": "Feature", "properties": { "id": "51_1", "growth_scenario": "moderate", "market_gravity_weight": 25 }, "geometry": { "type": "Point", "coordinates": [ -79.915567266086171, 37.339459159962544 ] } },
{ "type": "Feature", "properties": { "id": "51_10", "growth_scenario": "moderate", "market_gravity_weight": 25 }, "geometry": { "type": "Point", "coordinates": [ -78.34931903183525, 36.684287488962944 ] } },
{ "type": "Feature", "properties": { "id": "51_11", "growth_scenario": "moderate", "market_gravity_weight": 25 }, "geometry": { "type": "Point", "coordinates": [ -79.867080431929523, 37.264151763046215 ] } },
{ "type": "Feature", "properties": { "id": "51_12", "growth_scenario": "moderate", "market_gravity_weight": 25 }, "geometry": { "type": "Point", "coordinates": [ -79.861073195138985, 37.264159235036715 ] } },
{ "type": "Feature", "properties": { "id": "51_13", "growth_scenario": "moderate", "market_gravity_weight": 25 }, "geometry": { "type": "Point", "coordinates": [ -79.868602817149835, 37.333255060339141 ] } },
{ "type": "Feature", "properties": { "id": "51_14", "growth_scenario": "moderate", "market_gravity_weight": 25 }, "geometry": { "type": "Point", "coordinates": [ -80.387151518849933, 37.122726451951856 ] } },
{ "type": "Feature", "properties": { "id": "51_15", "growth_scenario": "moderate", "market_gravity_weight": 25 }, "geometry": { "type": "Point", "coordinates": [ -80.039827026461211, 37.196361083321982 ] } },
{ "type": "Feature", "properties": { "id": "51_16", "growth_scenario": "moderate", "market_gravity_weight": 25 }, "geometry": { "type": "Point", "coordinates": [ -80.386326299130317, 37.205750454888481 ] } },
{ "type": "Feature", "properties": { "id": "51_17", "growth_scenario": "moderate", "market_gravity_weight": 25 }, "geometry": { "type": "Point", "coordinates": [ -79.891120190296519, 37.369862718243553 ] } },
{ "type": "Feature", "properties": { "id": "51_18", "growth_scenario": "moderate", "market_gravity_weight": 25 }, "geometry": { "type": "Point", "coordinates": [ -77.785785115092366, 38.315180544906376 ] } },
{ "type": "Feature", "properties": { "id": "51_19", "growth_scenario": "moderate", "market_gravity_weight": 25 }, "geometry": { "type": "Point", "coordinates": [ -80.3841746884099, 37.275393261851214 ] } },
{ "type": "Feature", "properties": { "id": "51_2", "growth_scenario": "moderate", "market_gravity_weight": 25 }, "geometry": { "type": "Point", "coordinates": [ -79.916569728117992, 37.247977504732049 ] } },
{ "type": "Feature", "properties": { "id": "51_20", "growth_scenario": "moderate", "market_gravity_weight": 25 }, "geometry": { "type": "Point", "coordinates": [ -79.915093836674785, 37.336861011136222 ] } },
{ "type": "Feature", "properties": { "id": "51_21", "growth_scenario": "moderate", "market_gravity_weight": 25 }, "geometry": { "type": "Point", "coordinates": [ -80.443741406980848, 37.220530636560831 ] } },
{ "type": "Feature", "properties": { "id": "51_22", "growth_scenario": "moderate", "market_gravity_weight": 25 }, "geometry": { "type": "Point", "coordinates": [ -80.446245736187933, 37.229447541033174 ] } },
{ "type": "Feature", "properties": { "id": "51_23", "growth_scenario": "moderate", "market_gravity_weight": 25 }, "geometry": { "type": "Point", "coordinates": [ -77.466356678466425, 39.003919752973943 ] } },
{ "type": "Feature", "properties": { "id": "51_24", "growth_scenario": "moderate", "market_gravity_weight": 25 }, "geometry": { "type": "Point", "coordinates": [ -77.463231172420279, 39.005902616196494 ] } },
{ "type": "Feature", "properties": { "id": "51_25", "growth_scenario": "moderate", "market_gravity_weight": 25 }, "geometry": { "type": "Point", "coordinates": [ -79.234937090865373, 37.397538924803001 ] } },
{ "type": "Feature", "properties": { "id": "51_26", "growth_scenario": "moderate", "market_gravity_weight": 25 }, "geometry": { "type": "Point", "coordinates": [ -82.101450833945805, 36.661040543210838 ] } },
{ "type": "Feature", "properties": { "id": "51_27", "growth_scenario": "moderate", "market_gravity_weight": 25 }, "geometry": { "type": "Point", "coordinates": [ -82.062067199585599, 36.685501917927198 ] } },
{ "type": "Feature", "properties": { "id": "51_28", "growth_scenario": "moderate", "market_gravity_weight": 25 }, "geometry": { "type": "Point", "coordinates": [ -79.231905748570213, 37.432193566973297 ] } },
{ "type": "Feature", "properties": { "id": "51_29", "growth_scenario": "moderate", "market_gravity_weight": 25 }, "geometry": { "type": "Point", "coordinates": [ -81.938125936013179, 36.724482541415689 ] } },
{ "type": "Feature", "properties": { "id": "51_3", "growth_scenario": "moderate", "market_gravity_weight": 25 }, "geometry": { "type": "Point", "coordinates": [ -78.378871147101364, 36.678409304300885 ] } },
{ "type": "Feature", "properties": { "id": "51_30", "growth_scenario": "moderate", "market_gravity_weight": 25 }, "geometry": { "type": "Point", "coordinates": [ -82.005624091962545, 36.724017239901507 ] } },
{ "type": "Feature", "properties": { "id": "51_31", "growth_scenario": "moderate", "market_gravity_weight": 25 }, "geometry": { "type": "Point", "coordinates": [ -77.262757881348492, 38.694824977607745 ] } },
{ "type": "Feature", "properties": { "id": "51_32", "growth_scenario": "moderate", "market_gravity_weight": 25 }, "geometry": { "type": "Point", "coordinates": [ -78.354799679668858, 36.686372653017912 ] } },
{ "type": "Feature", "properties": { "id": "51_33", "growth_scenario": "moderate", "market_gravity_weight": 25 }, "geometry": { "type": "Point", "coordinates": [ -78.34790871961755, 36.68780180104627 ] } },
{ "type": "Feature", "properties": { "id": "51_34", "growth_scenario": "moderate", "market_gravity_weight": 25 }, "geometry": { "type": "Point", "coordinates": [ -78.346230870644902, 36.685191245707934 ] } },
{ "type": "Feature", "properties": { "id": "51_35", "growth_scenario": "moderate", "market_gravity_weight": 25 }, "geometry": { "type": "Point", "coordinates": [ -79.153528279701689, 37.38678850740618 ] } },
{ "type": "Feature", "properties": { "id": "51_36", "growth_scenario": "moderate", "market_gravity_weight": 25 }, "geometry": { "type": "Point", "coordinates": [ -79.151788227177661, 37.381739857382179 ] } },
{ "type": "Feature", "properties": { "id": "51_37", "growth_scenario": "moderate", "market_gravity_weight": 25 }, "geometry": { "type": "Point", "coordinates": [ -79.870213712865237, 37.336458964305706 ] } },
{ "type": "Feature", "properties": { "id": "51_38", "growth_scenario": "moderate", "market_gravity_weight": 25 }, "geometry": { "type": "Point", "coordinates": [ -79.124208553597214, 37.386844264328019 ] } },
{ "type": "Feature", "properties": { "id": "51_39", "growth_scenario": "moderate", "market_gravity_weight": 25 }, "geometry": { "type": "Point", "coordinates": [ -79.120876287073628, 37.387736074851674 ] } },
{ "type": "Feature", "properties": { "id": "51_4", "growth_scenario": "moderate", "market_gravity_weight": 25 }, "geometry": { "type": "Point", "coordinates": [ -79.913714643262139, 37.342651297088238 ] } },
{ "type": "Feature", "properties": { "id": "51_40", "growth_scenario": "moderate", "market_gravity_weight": 25 }, "geometry": { "type": "Point", "coordinates": [ -79.121112178839383, 37.39175822074062 ] } },
{ "type": "Feature", "properties": { "id": "51_41", "growth_scenario": "moderate", "market_gravity_weight": 25 }, "geometry": { "type": "Point", "coordinates": [ -78.255911758887109, 39.054325411387332 ] } },
{ "type": "Feature", "properties": { "id": "51_42", "growth_scenario": "moderate", "market_gravity_weight": 25 }, "geometry": { "type": "Point", "coordinates": [ -79.883448292794526, 37.371097921865989 ] } },
{ "type": "Feature", "properties": { "id": "51_43", "growth_scenario": "moderate", "market_gravity_weight": 25 }, "geometry": { "type": "Point", "coordinates": [ -79.895394153810827, 37.373060629397159 ] } },
{ "type": "Feature", "properties": { "id": "51_44", "growth_scenario": "moderate", "market_gravity_weight": 25 }, "geometry": { "type": "Point", "coordinates": [ -77.786740959229903, 38.312779191898969 ] } },
{ "type": "Feature", "properties": { "id": "51_45", "growth_scenario": "moderate", "market_gravity_weight": 25 }, "geometry": { "type": "Point", "coordinates": [ -80.041107614582046, 37.204315505478405 ] } },
{ "type": "Feature", "properties": { "id": "51_46", "growth_scenario": "moderate", "market_gravity_weight": 25 }, "geometry": { "type": "Point", "coordinates": [ -77.310684270996376, 37.184770602180826 ] } },
{ "type": "Feature", "properties": { "id": "51_47", "growth_scenario": "moderate", "market_gravity_weight": 25 }, "geometry": { "type": "Point", "coordinates": [ -77.320891974308793, 37.179268855081261 ] } },
{ "type": "Feature", "properties": { "id": "51_48", "growth_scenario": "moderate", "market_gravity_weight": 25 }, "geometry": { "type": "Point", "coordinates": [ -77.315159563556833, 37.177644877891858 ] } },
{ "type": "Feature", "properties": { "id": "51_49", "growth_scenario": "moderate", "market_gravity_weight": 25 }, "geometry": { "type": "Point", "coordinates": [ -78.371786772810211, 36.681627352002778 ] } },
{ "type": "Feature", "properties": { "id": "51_5", "growth_scenario": "moderate", "market_gravity_weight": 25 }, "geometry": { "type": "Point", "coordinates": [ -81.937399012808399, 36.719252996531814 ] } },
{ "type": "Feature", "properties": { "id": "51_50", "growth_scenario": "moderate", "market_gravity_weight": 25 }, "geometry": { "type": "Point", "coordinates": [ -81.003262096672515, 36.962824593243468 ] } },
{ "type": "Feature", "properties": { "id": "51_51", "growth_scenario": "moderate", "market_gravity_weight": 25 }, "geometry": { "type": "Point", "coordinates": [ -79.912460757858341, 37.338862332635109 ] } },
{ "type": "Feature", "properties": { "id": "51_52", "growth_scenario": "moderate", "market_gravity_weight": 25 }, "geometry": { "type": "Point", "coordinates": [ -78.5282447256469, 38.070005141355523 ] } },
{ "type": "Feature", "properties": { "id": "51_53", "growth_scenario": "moderate", "market_gravity_weight": 25 }, "geometry": { "type": "Point", "coordinates": [ -80.444542615956749, 37.218915937950911 ] } },
{ "type": "Feature", "properties": { "id": "51_54", "growth_scenario": "moderate", "market_gravity_weight": 25 }, "geometry": { "type": "Point", "coordinates": [ -78.418837687758653, 38.12025894260902 ] } },
{ "type": "Feature", "properties": { "id": "51_55", "growth_scenario": "moderate", "market_gravity_weight": 25 }, "geometry": { "type": "Point", "coordinates": [ -81.058574696175413, 36.943534863175316 ] } },
{ "type": "Feature", "properties": { "id": "51_56", "growth_scenario": "moderate", "market_gravity_weight": 25 }, "geometry": { "type": "Point", "coordinates": [ -77.463632233169719, 39.002507368449052 ] } },
{ "type": "Feature", "properties": { "id": "51_57", "growth_scenario": "moderate", "market_gravity_weight": 25 }, "geometry": { "type": "Point", "coordinates": [ -81.063655210734794, 36.933686855103737 ] } },
{ "type": "Feature", "properties": { "id": "51_58", "growth_scenario": "moderate", "market_gravity_weight": 25 }, "geometry": { "type": "Point", "coordinates": [ -77.37850373805064, 37.670142232973049 ] } },
{ "type": "Feature", "properties": { "id": "51_59", "growth_scenario": "moderate", "market_gravity_weight": 25 }, "geometry": { "type": "Point", "coordinates": [ -79.858646878985255, 36.732485498076194 ] } },
{ "type": "Feature", "properties": { "id": "51_6", "growth_scenario": "moderate", "market_gravity_weight": 25 }, "geometry": { "type": "Point", "coordinates": [ -81.932540006974648, 36.721388159903597 ] } },
{ "type": "Feature", "properties": { "id": "51_60", "growth_scenario": "moderate", "market_gravity_weight": 25 }, "geometry": { "type": "Point", "coordinates": [ -79.859178839935623, 36.727395542726519 ] } },
{ "type": "Feature", "properties": { "id": "51_61", "growth_scenario": "moderate", "market_gravity_weight": 25 }, "geometry": { "type": "Point", "coordinates": [ -81.130719058996718, 37.09490868581431 ] } },
{ "type": "Feature", "properties": { "id": "51_62", "growth_scenario": "moderate", "market_gravity_weight": 25 }, "geometry": { "type": "Point", "coordinates": [ -78.878630180152769, 38.409813717379123 ] } },
{ "type": "Feature", "properties": { "id": "51_63", "growth_scenario": "moderate", "market_gravity_weight": 25 }, "geometry": { "type": "Point", "coordinates": [ -78.356834681397956, 39.001960825487146 ] } },
{ "type": "Feature", "properties": { "id": "51_64", "growth_scenario": "moderate", "market_gravity_weight": 25 }, "geometry": { "type": "Point", "coordinates": [ -79.217073573180727, 37.381902469572907 ] } },
{ "type": "Feature", "properties": { "id": "51_65", "growth_scenario": "moderate", "market_gravity_weight": 25 }, "geometry": { "type": "Point", "coordinates": [ -79.217976022705571, 37.385563588943377 ] } },
{ "type": "Feature", "properties": { "id": "51_66", "growth_scenario": "moderate", "market_gravity_weight": 25 }, "geometry": { "type": "Point", "coordinates": [ -79.229818848309662, 37.428639502898207 ] } },
{ "type": "Feature", "properties": { "id": "51_67", "growth_scenario": "moderate", "market_gravity_weight": 25 }, "geometry": { "type": "Point", "coordinates": [ -82.061486878173611, 36.69165997927648 ] } },
{ "type": "Feature", "properties": { "id": "51_68", "growth_scenario": "moderate", "market_gravity_weight": 25 }, "geometry": { "type": "Point", "coordinates": [ -79.224862014433711, 37.431573648137828 ] } },
{ "type": "Feature", "properties": { "id": "51_69", "growth_scenario": "moderate", "market_gravity_weight": 25 }, "geometry": { "type": "Point", "coordinates": [ -82.011794422199216, 36.716709081091281 ] } },
{ "type": "Feature", "properties": { "id": "51_7", "growth_scenario": "moderate", "market_gravity_weight": 25 }, "geometry": { "type": "Point", "coordinates": [ -81.711804561315063, 36.792044623007868 ] } },
{ "type": "Feature", "properties": { "id": "51_70", "growth_scenario": "moderate", "market_gravity_weight": 25 }, "geometry": { "type": "Point", "coordinates": [ -78.356930924777402, 36.683691884314108 ] } },
{ "type": "Feature", "properties": { "id": "51_71", "growth_scenario": "moderate", "market_gravity_weight": 25 }, "geometry": { "type": "Point", "coordinates": [ -81.715071573863852, 36.791712922488649 ] } },
{ "type": "Feature", "properties": { "id": "51_72", "growth_scenario": "moderate", "market_gravity_weight": 25 }, "geometry": { "type": "Point", "coordinates": [ -81.71387210526909, 36.796173516137209 ] } },
{ "type": "Feature", "properties": { "id": "51_73", "growth_scenario": "moderate", "market_gravity_weight": 25 }, "geometry": { "type": "Point", "coordinates": [ -77.486895740358378, 37.696412078202108 ] } },
{ "type": "Feature", "properties": { "id": "51_74", "growth_scenario": "moderate", "market_gravity_weight": 25 }, "geometry": { "type": "Point", "coordinates": [ -79.165422513069373, 37.378846423104783 ] } },
{ "type": "Feature", "properties": { "id": "51_75", "growth_scenario": "moderate", "market_gravity_weight": 25 }, "geometry": { "type": "Point", "coordinates": [ -79.31598141645047, 37.092151677228706 ] } },
{ "type": "Feature", "properties": { "id": "51_8", "growth_scenario": "moderate", "market_gravity_weight": 25 }, "geometry": { "type": "Point", "coordinates": [ -78.355016742147086, 36.681591330222076 ] } },
{ "type": "Feature", "properties": { "id": "51_9", "growth_scenario": "moderate", "market_gravity_weight": 25 }, "geometry": { "type": "Point", "coordinates": [ -78.351079724840943, 36.688000154043714 ] } },
{ "type": "Feature", "properties": { "id": "53_0", "growth_scenario": "moderate", "market_gravity_weight": 25 }, "geometry": { "type": "Point", "coordinates": [ -119.898922409550678, 47.237768248877998 ] } },
{ "type": "Feature", "properties": { "id": "53_1", "growth_scenario": "moderate", "market_gravity_weight": 25 }, "geometry": { "type": "Point", "coordinates": [ -119.899379040533987, 47.242262904945385 ] } },
{ "type": "Feature", "properties": { "id": "53_10", "growth_scenario": "moderate", "market_gravity_weight": 25 }, "geometry": { "type": "Point", "coordinates": [ -119.903553515742942, 47.235641692577019 ] } },
{ "type": "Feature", "properties": { "id": "53_2", "growth_scenario": "moderate", "market_gravity_weight": 25 }, "geometry": { "type": "Point", "coordinates": [ -119.872788375372352, 47.243695566793072 ] } },
{ "type": "Feature", "properties": { "id": "53_3", "growth_scenario": "moderate", "market_gravity_weight": 25 }, "geometry": { "type": "Point", "coordinates": [ -119.889975640807748, 47.241778257987043 ] } },
{ "type": "Feature", "properties": { "id": "53_4", "growth_scenario": "moderate", "market_gravity_weight": 25 }, "geometry": { "type": "Point", "coordinates": [ -119.894380828845897, 47.242680037790343 ] } },
{ "type": "Feature", "properties": { "id": "53_5", "growth_scenario": "moderate", "market_gravity_weight": 25 }, "geometry": { "type": "Point", "coordinates": [ -119.902720490416257, 47.23849698565261 ] } },
{ "type": "Feature", "properties": { "id": "53_6", "growth_scenario": "moderate", "market_gravity_weight": 25 }, "geometry": { "type": "Point", "coordinates": [ -119.899722906139459, 47.234825393219843 ] } },
{ "type": "Feature", "properties": { "id": "53_7", "growth_scenario": "moderate", "market_gravity_weight": 25 }, "geometry": { "type": "Point", "coordinates": [ -119.900388893559182, 47.244605463464808 ] } },
{ "type": "Feature", "properties": { "id": "53_8", "growth_scenario": "moderate", "market_gravity_weight": 25 }, "geometry": { "type": "Point", "coordinates": [ -119.877623503279665, 47.242841213833167 ] } },
{ "type": "Feature", "properties": { "id": "53_9", "growth_scenario": "moderate", "market_gravity_weight": 25 }, "geometry": { "type": "Point", "coordinates": [ -119.904093589474712, 47.242175901178022 ] } },
{ "type": "Feature", "properties": { "id": "56_0", "growth_scenario": "moderate", "market_gravity_weight": 25 }, "geometry": { "type": "Point", "coordinates": [ -110.557707673437363, 41.788214884124145 ] } },
{ "type": "Feature", "properties": { "id": "56_1", "growth_scenario": "moderate", "market_gravity_weight": 25 }, "geometry": { "type": "Point", "coordinates": [ -110.557359730598392, 41.79123879210438 ] } },
{ "type": "Feature", "properties": { "id": "56_2", "growth_scenario": "moderate", "market_gravity_weight": 25 }, "geometry": { "type": "Point", "coordinates": [ -110.551242256962837, 41.792477740356738 ] } },
{ "type": "Feature", "properties": { "id": "56_3", "growth_scenario": "moderate", "market_gravity_weight": 25 }, "geometry": { "type": "Point", "coordinates": [ -110.295067039188851, 41.33370276153444 ] } }
]
}
