{
"type": "FeatureCollection",
"name": "moderate_growth_50_market_gravity_epsg4326_centroids",
"crs": { "type": "name", "properties": { "name": "urn:ogc:def:crs:OGC:1.3:CRS84" } },
"features": [
{ "type": "Feature", "properties": { "id": "1_0", "growth_scenario": "moderate", "market_gravity_weight": 50 }, "geometry": { "type": "Point", "coordinates": [ -86.626063192751985, 34.836800523816258 ] } },
{ "type": "Feature", "properties": { "id": "1_1", "growth_scenario": "moderate", "market_gravity_weight": 50 }, "geometry": { "type": "Point", "coordinates": [ -86.912807264182902, 33.400479549212022 ] } },
{ "type": "Feature", "properties": { "id": "1_2", "growth_scenario": "moderate", "market_gravity_weight": 50 }, "geometry": { "type": "Point", "coordinates": [ -86.637299903992812, 34.8473131456876 ] } },
{ "type": "Feature", "properties": { "id": "4_0", "growth_scenario": "moderate", "market_gravity_weight": 50 }, "geometry": { "type": "Point", "coordinates": [ -113.175503892585823, 34.564482600700103 ] } },
{ "type": "Feature", "properties": { "id": "4_1", "growth_scenario": "moderate", "market_gravity_weight": 50 }, "geometry": { "type": "Point", "coordinates": [ -113.173630745376485, 34.586485699069883 ] } },
{ "type": "Feature", "properties": { "id": "4_10", "growth_scenario": "moderate", "market_gravity_weight": 50 }, "geometry": { "type": "Point", "coordinates": [ -111.670291012514596, 33.427517097257081 ] } },
{ "type": "Feature", "properties": { "id": "4_11", "growth_scenario": "moderate", "market_gravity_weight": 50 }, "geometry": { "type": "Point", "coordinates": [ -111.666013613760839, 33.443356332131508 ] } },
{ "type": "Feature", "properties": { "id": "4_12", "growth_scenario": "moderate", "market_gravity_weight": 50 }, "geometry": { "type": "Point", "coordinates": [ -111.886962485972873, 33.642644236043161 ] } },
{ "type": "Feature", "properties": { "id": "4_13", "growth_scenario": "moderate", "market_gravity_weight": 50 }, "geometry": { "type": "Point", "coordinates": [ -111.888647201868551, 33.645496540910372 ] } },
{ "type": "Feature", "properties": { "id": "4_2", "growth_scenario": "moderate", "market_gravity_weight": 50 }, "geometry": { "type": "Point", "coordinates": [ -113.176226125001293, 34.587099675324581 ] } },
{ "type": "Feature", "properties": { "id": "4_3", "growth_scenario": "moderate", "market_gravity_weight": 50 }, "geometry": { "type": "Point", "coordinates": [ -111.707943496201096, 33.478703904142215 ] } },
{ "type": "Feature", "properties": { "id": "4_4", "growth_scenario": "moderate", "market_gravity_weight": 50 }, "geometry": { "type": "Point", "coordinates": [ -113.172348173969738, 34.562861251570368 ] } },
{ "type": "Feature", "properties": { "id": "4_5", "growth_scenario": "moderate", "market_gravity_weight": 50 }, "geometry": { "type": "Point", "coordinates": [ -113.17214761144011, 34.568435873369225 ] } },
{ "type": "Feature", "properties": { "id": "4_6", "growth_scenario": "moderate", "market_gravity_weight": 50 }, "geometry": { "type": "Point", "coordinates": [ -113.170793158684759, 34.589270820515743 ] } },
{ "type": "Feature", "properties": { "id": "4_7", "growth_scenario": "moderate", "market_gravity_weight": 50 }, "geometry": { "type": "Point", "coordinates": [ -111.673691107004871, 33.425324250905994 ] } },
{ "type": "Feature", "properties": { "id": "4_8", "growth_scenario": "moderate", "market_gravity_weight": 50 }, "geometry": { "type": "Point", "coordinates": [ -111.669811377547475, 33.424587398486764 ] } },
{ "type": "Feature", "properties": { "id": "4_9", "growth_scenario": "moderate", "market_gravity_weight": 50 }, "geometry": { "type": "Point", "coordinates": [ -111.909802298559896, 33.289834342430254 ] } },
{ "type": "Feature", "properties": { "id": "6_0", "growth_scenario": "moderate", "market_gravity_weight": 50 }, "geometry": { "type": "Point", "coordinates": [ -121.488633066186779, 38.657998433364561 ] } },
{ "type": "Feature", "properties": { "id": "6_1", "growth_scenario": "moderate", "market_gravity_weight": 50 }, "geometry": { "type": "Point", "coordinates": [ -121.491689123160398, 38.659480522490753 ] } },
{ "type": "Feature", "properties": { "id": "6_10", "growth_scenario": "moderate", "market_gravity_weight": 50 }, "geometry": { "type": "Point", "coordinates": [ -121.491587777932324, 38.663573079804102 ] } },
{ "type": "Feature", "properties": { "id": "6_11", "growth_scenario": "moderate", "market_gravity_weight": 50 }, "geometry": { "type": "Point", "coordinates": [ -121.928397166336438, 37.437910223619198 ] } },
{ "type": "Feature", "properties": { "id": "6_12", "growth_scenario": "moderate", "market_gravity_weight": 50 }, "geometry": { "type": "Point", "coordinates": [ -121.486724684098021, 38.663768210907442 ] } },
{ "type": "Feature", "properties": { "id": "6_13", "growth_scenario": "moderate", "market_gravity_weight": 50 }, "geometry": { "type": "Point", "coordinates": [ -121.47257090994151, 38.659171801882593 ] } },
{ "type": "Feature", "properties": { "id": "6_14", "growth_scenario": "moderate", "market_gravity_weight": 50 }, "geometry": { "type": "Point", "coordinates": [ -121.92946017883547, 37.44055003643691 ] } },
{ "type": "Feature", "properties": { "id": "6_15", "growth_scenario": "moderate", "market_gravity_weight": 50 }, "geometry": { "type": "Point", "coordinates": [ -122.268341079376754, 38.260732874609928 ] } },
{ "type": "Feature", "properties": { "id": "6_16", "growth_scenario": "moderate", "market_gravity_weight": 50 }, "geometry": { "type": "Point", "coordinates": [ -121.47442304558102, 38.663684186431816 ] } },
{ "type": "Feature", "properties": { "id": "6_17", "growth_scenario": "moderate", "market_gravity_weight": 50 }, "geometry": { "type": "Point", "coordinates": [ -121.926786026958595, 37.448640526985251 ] } },
{ "type": "Feature", "properties": { "id": "6_18", "growth_scenario": "moderate", "market_gravity_weight": 50 }, "geometry": { "type": "Point", "coordinates": [ -121.926647091922561, 37.441628887420315 ] } },
{ "type": "Feature", "properties": { "id": "6_19", "growth_scenario": "moderate", "market_gravity_weight": 50 }, "geometry": { "type": "Point", "coordinates": [ -121.489008995050341, 38.665783604029514 ] } },
{ "type": "Feature", "properties": { "id": "6_2", "growth_scenario": "moderate", "market_gravity_weight": 50 }, "geometry": { "type": "Point", "coordinates": [ -121.93599305745856, 37.425035704478049 ] } },
{ "type": "Feature", "properties": { "id": "6_20", "growth_scenario": "moderate", "market_gravity_weight": 50 }, "geometry": { "type": "Point", "coordinates": [ -121.925354054836021, 37.444969518502063 ] } },
{ "type": "Feature", "properties": { "id": "6_3", "growth_scenario": "moderate", "market_gravity_weight": 50 }, "geometry": { "type": "Point", "coordinates": [ -121.935658727206942, 37.428074065660319 ] } },
{ "type": "Feature", "properties": { "id": "6_4", "growth_scenario": "moderate", "market_gravity_weight": 50 }, "geometry": { "type": "Point", "coordinates": [ -121.929199497043001, 37.426244872490493 ] } },
{ "type": "Feature", "properties": { "id": "6_5", "growth_scenario": "moderate", "market_gravity_weight": 50 }, "geometry": { "type": "Point", "coordinates": [ -121.930490689358507, 37.429853973472881 ] } },
{ "type": "Feature", "properties": { "id": "6_6", "growth_scenario": "moderate", "market_gravity_weight": 50 }, "geometry": { "type": "Point", "coordinates": [ -121.486459988396675, 38.659660552873504 ] } },
{ "type": "Feature", "properties": { "id": "6_7", "growth_scenario": "moderate", "market_gravity_weight": 50 }, "geometry": { "type": "Point", "coordinates": [ -121.481360548328709, 38.637977530643795 ] } },
{ "type": "Feature", "properties": { "id": "6_8", "growth_scenario": "moderate", "market_gravity_weight": 50 }, "geometry": { "type": "Point", "coordinates": [ -121.489160861707305, 38.661495350866858 ] } },
{ "type": "Feature", "properties": { "id": "6_9", "growth_scenario": "moderate", "market_gravity_weight": 50 }, "geometry": { "type": "Point", "coordinates": [ -121.928468245376564, 37.434466281294164 ] } },
{ "type": "Feature", "properties": { "id": "8_0", "growth_scenario": "moderate", "market_gravity_weight": 50 }, "geometry": { "type": "Point", "coordinates": [ -104.782841603852589, 38.986174679237067 ] } },
{ "type": "Feature", "properties": { "id": "8_1", "growth_scenario": "moderate", "market_gravity_weight": 50 }, "geometry": { "type": "Point", "coordinates": [ -104.783071973135179, 38.990011233734585 ] } },
{ "type": "Feature", "properties": { "id": "8_2", "growth_scenario": "moderate", "market_gravity_weight": 50 }, "geometry": { "type": "Point", "coordinates": [ -104.780211495980524, 38.984748456807615 ] } },
{ "type": "Feature", "properties": { "id": "12_0", "growth_scenario": "moderate", "market_gravity_weight": 50 }, "geometry": { "type": "Point", "coordinates": [ -80.308063534106012, 25.964919423376269 ] } },
{ "type": "Feature", "properties": { "id": "12_1", "growth_scenario": "moderate", "market_gravity_weight": 50 }, "geometry": { "type": "Point", "coordinates": [ -80.305509810659885, 25.966836368637892 ] } },
{ "type": "Feature", "properties": { "id": "12_2", "growth_scenario": "moderate", "market_gravity_weight": 50 }, "geometry": { "type": "Point", "coordinates": [ -80.193219153451921, 26.07265212781622 ] } },
{ "type": "Feature", "properties": { "id": "13_0", "growth_scenario": "moderate", "market_gravity_weight": 50 }, "geometry": { "type": "Point", "coordinates": [ -83.7092470027074, 33.608767896357193 ] } },
{ "type": "Feature", "properties": { "id": "13_1", "growth_scenario": "moderate", "market_gravity_weight": 50 }, "geometry": { "type": "Point", "coordinates": [ -84.886946857045572, 32.503920656906963 ] } },
{ "type": "Feature", "properties": { "id": "13_10", "growth_scenario": "moderate", "market_gravity_weight": 50 }, "geometry": { "type": "Point", "coordinates": [ -84.613343567070757, 33.685158863418934 ] } },
{ "type": "Feature", "properties": { "id": "13_11", "growth_scenario": "moderate", "market_gravity_weight": 50 }, "geometry": { "type": "Point", "coordinates": [ -84.328216604478001, 34.167039111847451 ] } },
{ "type": "Feature", "properties": { "id": "13_12", "growth_scenario": "moderate", "market_gravity_weight": 50 }, "geometry": { "type": "Point", "coordinates": [ -84.893005101987583, 32.506051838802463 ] } },
{ "type": "Feature", "properties": { "id": "13_13", "growth_scenario": "moderate", "market_gravity_weight": 50 }, "geometry": { "type": "Point", "coordinates": [ -84.020469188334516, 34.054628380181533 ] } },
{ "type": "Feature", "properties": { "id": "13_2", "growth_scenario": "moderate", "market_gravity_weight": 50 }, "geometry": { "type": "Point", "coordinates": [ -84.153363640509966, 33.927858188895556 ] } },
{ "type": "Feature", "properties": { "id": "13_3", "growth_scenario": "moderate", "market_gravity_weight": 50 }, "geometry": { "type": "Point", "coordinates": [ -84.552944780804097, 33.761921188066736 ] } },
{ "type": "Feature", "properties": { "id": "13_4", "growth_scenario": "moderate", "market_gravity_weight": 50 }, "geometry": { "type": "Point", "coordinates": [ -84.512765836379742, 34.083156676805039 ] } },
{ "type": "Feature", "properties": { "id": "13_5", "growth_scenario": "moderate", "market_gravity_weight": 50 }, "geometry": { "type": "Point", "coordinates": [ -84.356959532988611, 33.806790784598682 ] } },
{ "type": "Feature", "properties": { "id": "13_6", "growth_scenario": "moderate", "market_gravity_weight": 50 }, "geometry": { "type": "Point", "coordinates": [ -84.029214007096428, 33.909690458515165 ] } },
{ "type": "Feature", "properties": { "id": "13_7", "growth_scenario": "moderate", "market_gravity_weight": 50 }, "geometry": { "type": "Point", "coordinates": [ -84.549494121199487, 33.681871335968793 ] } },
{ "type": "Feature", "properties": { "id": "13_8", "growth_scenario": "moderate", "market_gravity_weight": 50 }, "geometry": { "type": "Point", "coordinates": [ -84.552091645910821, 33.681318974412591 ] } },
{ "type": "Feature", "properties": { "id": "13_9", "growth_scenario": "moderate", "market_gravity_weight": 50 }, "geometry": { "type": "Point", "coordinates": [ -84.005632651389618, 33.827758236814887 ] } },
{ "type": "Feature", "properties": { "id": "17_0", "growth_scenario": "moderate", "market_gravity_weight": 50 }, "geometry": { "type": "Point", "coordinates": [ -88.421959442974298, 41.690476118235182 ] } },
{ "type": "Feature", "properties": { "id": "17_1", "growth_scenario": "moderate", "market_gravity_weight": 50 }, "geometry": { "type": "Point", "coordinates": [ -87.974369288247644, 42.310476076534535 ] } },
{ "type": "Feature", "properties": { "id": "17_10", "growth_scenario": "moderate", "market_gravity_weight": 50 }, "geometry": { "type": "Point", "coordinates": [ -88.381304837435906, 42.154653043751509 ] } },
{ "type": "Feature", "properties": { "id": "17_11", "growth_scenario": "moderate", "market_gravity_weight": 50 }, "geometry": { "type": "Point", "coordinates": [ -88.384826457439232, 42.15486064698031 ] } },
{ "type": "Feature", "properties": { "id": "17_12", "growth_scenario": "moderate", "market_gravity_weight": 50 }, "geometry": { "type": "Point", "coordinates": [ -87.561679373537842, 41.687757057569883 ] } },
{ "type": "Feature", "properties": { "id": "17_13", "growth_scenario": "moderate", "market_gravity_weight": 50 }, "geometry": { "type": "Point", "coordinates": [ -88.054450372834594, 42.378418882721867 ] } },
{ "type": "Feature", "properties": { "id": "17_14", "growth_scenario": "moderate", "market_gravity_weight": 50 }, "geometry": { "type": "Point", "coordinates": [ -88.05407340630893, 42.380639544248417 ] } },
{ "type": "Feature", "properties": { "id": "17_15", "growth_scenario": "moderate", "market_gravity_weight": 50 }, "geometry": { "type": "Point", "coordinates": [ -88.419026746283507, 42.195442628740246 ] } },
{ "type": "Feature", "properties": { "id": "17_2", "growth_scenario": "moderate", "market_gravity_weight": 50 }, "geometry": { "type": "Point", "coordinates": [ -87.973338653341315, 42.314091911377297 ] } },
{ "type": "Feature", "properties": { "id": "17_3", "growth_scenario": "moderate", "market_gravity_weight": 50 }, "geometry": { "type": "Point", "coordinates": [ -88.265747170838935, 41.820863838804691 ] } },
{ "type": "Feature", "properties": { "id": "17_4", "growth_scenario": "moderate", "market_gravity_weight": 50 }, "geometry": { "type": "Point", "coordinates": [ -87.883886736027335, 42.305641768869478 ] } },
{ "type": "Feature", "properties": { "id": "17_5", "growth_scenario": "moderate", "market_gravity_weight": 50 }, "geometry": { "type": "Point", "coordinates": [ -88.265216695093812, 41.817962376942795 ] } },
{ "type": "Feature", "properties": { "id": "17_6", "growth_scenario": "moderate", "market_gravity_weight": 50 }, "geometry": { "type": "Point", "coordinates": [ -88.48004660807122, 41.68429844076779 ] } },
{ "type": "Feature", "properties": { "id": "17_7", "growth_scenario": "moderate", "market_gravity_weight": 50 }, "geometry": { "type": "Point", "coordinates": [ -88.481327899075708, 41.687062800277282 ] } },
{ "type": "Feature", "properties": { "id": "17_8", "growth_scenario": "moderate", "market_gravity_weight": 50 }, "geometry": { "type": "Point", "coordinates": [ -88.485308901815898, 41.687295810837384 ] } },
{ "type": "Feature", "properties": { "id": "17_9", "growth_scenario": "moderate", "market_gravity_weight": 50 }, "geometry": { "type": "Point", "coordinates": [ -88.48363097076404, 41.683701487148589 ] } },
{ "type": "Feature", "properties": { "id": "19_0", "growth_scenario": "moderate", "market_gravity_weight": 50 }, "geometry": { "type": "Point", "coordinates": [ -93.611522932049851, 41.888080353226762 ] } },
{ "type": "Feature", "properties": { "id": "19_1", "growth_scenario": "moderate", "market_gravity_weight": 50 }, "geometry": { "type": "Point", "coordinates": [ -93.613378784174571, 41.890618243601736 ] } },
{ "type": "Feature", "properties": { "id": "19_10", "growth_scenario": "moderate", "market_gravity_weight": 50 }, "geometry": { "type": "Point", "coordinates": [ -93.56164802517273, 41.549585000503868 ] } },
{ "type": "Feature", "properties": { "id": "19_11", "growth_scenario": "moderate", "market_gravity_weight": 50 }, "geometry": { "type": "Point", "coordinates": [ -93.771777375245392, 41.693375973874808 ] } },
{ "type": "Feature", "properties": { "id": "19_12", "growth_scenario": "moderate", "market_gravity_weight": 50 }, "geometry": { "type": "Point", "coordinates": [ -93.563427106705475, 41.75271349212359 ] } },
{ "type": "Feature", "properties": { "id": "19_13", "growth_scenario": "moderate", "market_gravity_weight": 50 }, "geometry": { "type": "Point", "coordinates": [ -93.563703433032799, 41.755221920956714 ] } },
{ "type": "Feature", "properties": { "id": "19_2", "growth_scenario": "moderate", "market_gravity_weight": 50 }, "geometry": { "type": "Point", "coordinates": [ -93.522106241521669, 41.557408863066122 ] } },
{ "type": "Feature", "properties": { "id": "19_3", "growth_scenario": "moderate", "market_gravity_weight": 50 }, "geometry": { "type": "Point", "coordinates": [ -93.525418725612255, 41.552556698327791 ] } },
{ "type": "Feature", "properties": { "id": "19_4", "growth_scenario": "moderate", "market_gravity_weight": 50 }, "geometry": { "type": "Point", "coordinates": [ -93.521247347341216, 41.554353286422725 ] } },
{ "type": "Feature", "properties": { "id": "19_5", "growth_scenario": "moderate", "market_gravity_weight": 50 }, "geometry": { "type": "Point", "coordinates": [ -93.498885974610786, 41.676828956989858 ] } },
{ "type": "Feature", "properties": { "id": "19_6", "growth_scenario": "moderate", "market_gravity_weight": 50 }, "geometry": { "type": "Point", "coordinates": [ -93.494916786518075, 41.676125966370236 ] } },
{ "type": "Feature", "properties": { "id": "19_7", "growth_scenario": "moderate", "market_gravity_weight": 50 }, "geometry": { "type": "Point", "coordinates": [ -93.71396331479211, 41.524590380930661 ] } },
{ "type": "Feature", "properties": { "id": "19_8", "growth_scenario": "moderate", "market_gravity_weight": 50 }, "geometry": { "type": "Point", "coordinates": [ -93.793204289836808, 41.554844865332029 ] } },
{ "type": "Feature", "properties": { "id": "19_9", "growth_scenario": "moderate", "market_gravity_weight": 50 }, "geometry": { "type": "Point", "coordinates": [ -93.628592854012098, 41.502664191017061 ] } },
{ "type": "Feature", "properties": { "id": "21_0", "growth_scenario": "moderate", "market_gravity_weight": 50 }, "geometry": { "type": "Point", "coordinates": [ -87.148400276247799, 36.820478212800857 ] } },
{ "type": "Feature", "properties": { "id": "21_1", "growth_scenario": "moderate", "market_gravity_weight": 50 }, "geometry": { "type": "Point", "coordinates": [ -87.153284027189372, 36.821465443047728 ] } },
{ "type": "Feature", "properties": { "id": "21_2", "growth_scenario": "moderate", "market_gravity_weight": 50 }, "geometry": { "type": "Point", "coordinates": [ -87.15499958786296, 36.8232949616173 ] } },
{ "type": "Feature", "properties": { "id": "25_0", "growth_scenario": "moderate", "market_gravity_weight": 50 }, "geometry": { "type": "Point", "coordinates": [ -71.039770607158175, 42.504304034588088 ] } },
{ "type": "Feature", "properties": { "id": "25_1", "growth_scenario": "moderate", "market_gravity_weight": 50 }, "geometry": { "type": "Point", "coordinates": [ -71.307801095889971, 42.687538043185 ] } },
{ "type": "Feature", "properties": { "id": "26_0", "growth_scenario": "moderate", "market_gravity_weight": 50 }, "geometry": { "type": "Point", "coordinates": [ -85.576167487991086, 42.890335843192318 ] } },
{ "type": "Feature", "properties": { "id": "27_0", "growth_scenario": "moderate", "market_gravity_weight": 50 }, "geometry": { "type": "Point", "coordinates": [ -93.435124495913243, 44.785907841563741 ] } },
{ "type": "Feature", "properties": { "id": "29_0", "growth_scenario": "moderate", "market_gravity_weight": 50 }, "geometry": { "type": "Point", "coordinates": [ -94.581870040679306, 39.328082955851009 ] } },
{ "type": "Feature", "properties": { "id": "29_1", "growth_scenario": "moderate", "market_gravity_weight": 50 }, "geometry": { "type": "Point", "coordinates": [ -94.586538613893083, 39.328849856697744 ] } },
{ "type": "Feature", "properties": { "id": "30_0", "growth_scenario": "moderate", "market_gravity_weight": 50 }, "geometry": { "type": "Point", "coordinates": [ -114.089727097654034, 46.895103186268095 ] } },
{ "type": "Feature", "properties": { "id": "31_0", "growth_scenario": "moderate", "market_gravity_weight": 50 }, "geometry": { "type": "Point", "coordinates": [ -96.093219889681365, 41.124144920431576 ] } },
{ "type": "Feature", "properties": { "id": "31_1", "growth_scenario": "moderate", "market_gravity_weight": 50 }, "geometry": { "type": "Point", "coordinates": [ -96.141249122694504, 41.128477331258992 ] } },
{ "type": "Feature", "properties": { "id": "31_2", "growth_scenario": "moderate", "market_gravity_weight": 50 }, "geometry": { "type": "Point", "coordinates": [ -96.044240561983614, 41.126761438446749 ] } },
{ "type": "Feature", "properties": { "id": "31_3", "growth_scenario": "moderate", "market_gravity_weight": 50 }, "geometry": { "type": "Point", "coordinates": [ -96.088057238808602, 41.123791320076847 ] } },
{ "type": "Feature", "properties": { "id": "31_4", "growth_scenario": "moderate", "market_gravity_weight": 50 }, "geometry": { "type": "Point", "coordinates": [ -96.140988157086952, 41.17822788652191 ] } },
{ "type": "Feature", "properties": { "id": "31_5", "growth_scenario": "moderate", "market_gravity_weight": 50 }, "geometry": { "type": "Point", "coordinates": [ -96.088110665611481, 41.166663712061357 ] } },
{ "type": "Feature", "properties": { "id": "31_6", "growth_scenario": "moderate", "market_gravity_weight": 50 }, "geometry": { "type": "Point", "coordinates": [ -96.084149035120362, 41.168720725876831 ] } },
{ "type": "Feature", "properties": { "id": "31_7", "growth_scenario": "moderate", "market_gravity_weight": 50 }, "geometry": { "type": "Point", "coordinates": [ -96.133341041116395, 41.073200344907853 ] } },
{ "type": "Feature", "properties": { "id": "32_0", "growth_scenario": "moderate", "market_gravity_weight": 50 }, "geometry": { "type": "Point", "coordinates": [ -115.27624826089513, 36.11732842888857 ] } },
{ "type": "Feature", "properties": { "id": "32_1", "growth_scenario": "moderate", "market_gravity_weight": 50 }, "geometry": { "type": "Point", "coordinates": [ -115.241100084515764, 36.008040113250992 ] } },
{ "type": "Feature", "properties": { "id": "32_2", "growth_scenario": "moderate", "market_gravity_weight": 50 }, "geometry": { "type": "Point", "coordinates": [ -115.175749253697902, 36.0014039069248 ] } },
{ "type": "Feature", "properties": { "id": "32_3", "growth_scenario": "moderate", "market_gravity_weight": 50 }, "geometry": { "type": "Point", "coordinates": [ -115.018304803091283, 36.109989595933058 ] } },
{ "type": "Feature", "properties": { "id": "32_4", "growth_scenario": "moderate", "market_gravity_weight": 50 }, "geometry": { "type": "Point", "coordinates": [ -115.274219455029595, 36.119666276448974 ] } },
{ "type": "Feature", "properties": { "id": "32_5", "growth_scenario": "moderate", "market_gravity_weight": 50 }, "geometry": { "type": "Point", "coordinates": [ -115.156463881423349, 36.212890499034287 ] } },
{ "type": "Feature", "properties": { "id": "32_6", "growth_scenario": "moderate", "market_gravity_weight": 50 }, "geometry": { "type": "Point", "coordinates": [ -115.212041448410389, 36.321867561380635 ] } },
{ "type": "Feature", "properties": { "id": "34_0", "growth_scenario": "moderate", "market_gravity_weight": 50 }, "geometry": { "type": "Point", "coordinates": [ -74.354258125648784, 40.607892890368809 ] } },
{ "type": "Feature", "properties": { "id": "34_1", "growth_scenario": "moderate", "market_gravity_weight": 50 }, "geometry": { "type": "Point", "coordinates": [ -74.462667535938635, 40.680908479240834 ] } },
{ "type": "Feature", "properties": { "id": "34_2", "growth_scenario": "moderate", "market_gravity_weight": 50 }, "geometry": { "type": "Point", "coordinates": [ -74.323979808092929, 40.460024995536308 ] } },
{ "type": "Feature", "properties": { "id": "34_3", "growth_scenario": "moderate", "market_gravity_weight": 50 }, "geometry": { "type": "Point", "coordinates": [ -74.347999462866539, 40.450644886423525 ] } },
{ "type": "Feature", "properties": { "id": "34_4", "growth_scenario": "moderate", "market_gravity_weight": 50 }, "geometry": { "type": "Point", "coordinates": [ -74.344319317262261, 40.449912632273374 ] } },
{ "type": "Feature", "properties": { "id": "34_5", "growth_scenario": "moderate", "market_gravity_weight": 50 }, "geometry": { "type": "Point", "coordinates": [ -74.348387182833704, 40.4474133670412 ] } },
{ "type": "Feature", "properties": { "id": "34_6", "growth_scenario": "moderate", "market_gravity_weight": 50 }, "geometry": { "type": "Point", "coordinates": [ -74.312978340998825, 40.441519524277375 ] } },
{ "type": "Feature", "properties": { "id": "34_7", "growth_scenario": "moderate", "market_gravity_weight": 50 }, "geometry": { "type": "Point", "coordinates": [ -74.509380724636529, 40.852324839466903 ] } },
{ "type": "Feature", "properties": { "id": "34_8", "growth_scenario": "moderate", "market_gravity_weight": 50 }, "geometry": { "type": "Point", "coordinates": [ -74.246891632148845, 40.397987669768774 ] } },
{ "type": "Feature", "properties": { "id": "36_0", "growth_scenario": "moderate", "market_gravity_weight": 50 }, "geometry": { "type": "Point", "coordinates": [ -73.960829278272143, 41.089770859692528 ] } },
{ "type": "Feature", "properties": { "id": "36_1", "growth_scenario": "moderate", "market_gravity_weight": 50 }, "geometry": { "type": "Point", "coordinates": [ -74.024082617564318, 41.151706260913876 ] } },
{ "type": "Feature", "properties": { "id": "36_2", "growth_scenario": "moderate", "market_gravity_weight": 50 }, "geometry": { "type": "Point", "coordinates": [ -74.029085506764517, 41.075873856370876 ] } },
{ "type": "Feature", "properties": { "id": "36_3", "growth_scenario": "moderate", "market_gravity_weight": 50 }, "geometry": { "type": "Point", "coordinates": [ -74.119448712816833, 41.120387392222085 ] } },
{ "type": "Feature", "properties": { "id": "36_4", "growth_scenario": "moderate", "market_gravity_weight": 50 }, "geometry": { "type": "Point", "coordinates": [ -73.969357508516268, 41.088149506072952 ] } },
{ "type": "Feature", "properties": { "id": "36_5", "growth_scenario": "moderate", "market_gravity_weight": 50 }, "geometry": { "type": "Point", "coordinates": [ -73.957614610482807, 41.089022205103483 ] } },
{ "type": "Feature", "properties": { "id": "36_6", "growth_scenario": "moderate", "market_gravity_weight": 50 }, "geometry": { "type": "Point", "coordinates": [ -74.164219159664015, 41.136808862331037 ] } },
{ "type": "Feature", "properties": { "id": "36_7", "growth_scenario": "moderate", "market_gravity_weight": 50 }, "geometry": { "type": "Point", "coordinates": [ -74.198810313086497, 41.158598135199469 ] } },
{ "type": "Feature", "properties": { "id": "36_8", "growth_scenario": "moderate", "market_gravity_weight": 50 }, "geometry": { "type": "Point", "coordinates": [ -74.105842154638452, 41.109573675981324 ] } },
{ "type": "Feature", "properties": { "id": "37_0", "growth_scenario": "moderate", "market_gravity_weight": 50 }, "geometry": { "type": "Point", "coordinates": [ -78.300639371750023, 35.807463436792119 ] } },
{ "type": "Feature", "properties": { "id": "37_1", "growth_scenario": "moderate", "market_gravity_weight": 50 }, "geometry": { "type": "Point", "coordinates": [ -78.297072696593759, 35.807652851473769 ] } },
{ "type": "Feature", "properties": { "id": "37_2", "growth_scenario": "moderate", "market_gravity_weight": 50 }, "geometry": { "type": "Point", "coordinates": [ -78.30542239255584, 35.805003364164662 ] } },
{ "type": "Feature", "properties": { "id": "37_3", "growth_scenario": "moderate", "market_gravity_weight": 50 }, "geometry": { "type": "Point", "coordinates": [ -78.298632763841283, 35.804888848188156 ] } },
{ "type": "Feature", "properties": { "id": "37_4", "growth_scenario": "moderate", "market_gravity_weight": 50 }, "geometry": { "type": "Point", "coordinates": [ -78.303449086796078, 35.803251840423556 ] } },
{ "type": "Feature", "properties": { "id": "37_5", "growth_scenario": "moderate", "market_gravity_weight": 50 }, "geometry": { "type": "Point", "coordinates": [ -78.307462281154628, 35.802129834237739 ] } },
{ "type": "Feature", "properties": { "id": "38_0", "growth_scenario": "moderate", "market_gravity_weight": 50 }, "geometry": { "type": "Point", "coordinates": [ -96.88481480930065, 46.777310370497396 ] } },
{ "type": "Feature", "properties": { "id": "38_1", "growth_scenario": "moderate", "market_gravity_weight": 50 }, "geometry": { "type": "Point", "coordinates": [ -97.05031351081287, 46.873420748423911 ] } },
{ "type": "Feature", "properties": { "id": "38_2", "growth_scenario": "moderate", "market_gravity_weight": 50 }, "geometry": { "type": "Point", "coordinates": [ -97.04720460450514, 46.875070528516702 ] } },
{ "type": "Feature", "properties": { "id": "38_3", "growth_scenario": "moderate", "market_gravity_weight": 50 }, "geometry": { "type": "Point", "coordinates": [ -96.876097868418839, 46.98477935007088 ] } },
{ "type": "Feature", "properties": { "id": "38_4", "growth_scenario": "moderate", "market_gravity_weight": 50 }, "geometry": { "type": "Point", "coordinates": [ -96.905182779213789, 46.778712790478878 ] } },
{ "type": "Feature", "properties": { "id": "38_5", "growth_scenario": "moderate", "market_gravity_weight": 50 }, "geometry": { "type": "Point", "coordinates": [ -97.05711432031363, 46.873910618331109 ] } },
{ "type": "Feature", "properties": { "id": "38_6", "growth_scenario": "moderate", "market_gravity_weight": 50 }, "geometry": { "type": "Point", "coordinates": [ -96.887179574006765, 46.77855940816589 ] } },
{ "type": "Feature", "properties": { "id": "38_7", "growth_scenario": "moderate", "market_gravity_weight": 50 }, "geometry": { "type": "Point", "coordinates": [ -96.89917799906739, 46.778391027023552 ] } },
{ "type": "Feature", "properties": { "id": "39_0", "growth_scenario": "moderate", "market_gravity_weight": 50 }, "geometry": { "type": "Point", "coordinates": [ -82.78030345668131, 39.878746732676433 ] } },
{ "type": "Feature", "properties": { "id": "39_1", "growth_scenario": "moderate", "market_gravity_weight": 50 }, "geometry": { "type": "Point", "coordinates": [ -82.802304083340758, 39.802228924603362 ] } },
{ "type": "Feature", "properties": { "id": "39_2", "growth_scenario": "moderate", "market_gravity_weight": 50 }, "geometry": { "type": "Point", "coordinates": [ -82.992675509632036, 39.856461115937911 ] } },
{ "type": "Feature", "properties": { "id": "39_3", "growth_scenario": "moderate", "market_gravity_weight": 50 }, "geometry": { "type": "Point", "coordinates": [ -82.782628463302842, 39.88034467020961 ] } },
{ "type": "Feature", "properties": { "id": "39_4", "growth_scenario": "moderate", "market_gravity_weight": 50 }, "geometry": { "type": "Point", "coordinates": [ -82.730829922269564, 39.904588402517071 ] } },
{ "type": "Feature", "properties": { "id": "40_0", "growth_scenario": "moderate", "market_gravity_weight": 50 }, "geometry": { "type": "Point", "coordinates": [ -95.910200812322799, 36.260762798360531 ] } },
{ "type": "Feature", "properties": { "id": "40_1", "growth_scenario": "moderate", "market_gravity_weight": 50 }, "geometry": { "type": "Point", "coordinates": [ -95.910208559370972, 36.25424511602094 ] } },
{ "type": "Feature", "properties": { "id": "41_0", "growth_scenario": "moderate", "market_gravity_weight": 50 }, "geometry": { "type": "Point", "coordinates": [ -120.875460179758619, 44.291320149491234 ] } },
{ "type": "Feature", "properties": { "id": "41_1", "growth_scenario": "moderate", "market_gravity_weight": 50 }, "geometry": { "type": "Point", "coordinates": [ -122.937500768001257, 45.562346721865687 ] } },
{ "type": "Feature", "properties": { "id": "41_10", "growth_scenario": "moderate", "market_gravity_weight": 50 }, "geometry": { "type": "Point", "coordinates": [ -120.869642350628723, 44.282401044861629 ] } },
{ "type": "Feature", "properties": { "id": "41_11", "growth_scenario": "moderate", "market_gravity_weight": 50 }, "geometry": { "type": "Point", "coordinates": [ -120.883723181003631, 44.290110915102261 ] } },
{ "type": "Feature", "properties": { "id": "41_12", "growth_scenario": "moderate", "market_gravity_weight": 50 }, "geometry": { "type": "Point", "coordinates": [ -122.948259331390133, 45.559019259727719 ] } },
{ "type": "Feature", "properties": { "id": "41_13", "growth_scenario": "moderate", "market_gravity_weight": 50 }, "geometry": { "type": "Point", "coordinates": [ -122.902193236391966, 45.569849687906746 ] } },
{ "type": "Feature", "properties": { "id": "41_2", "growth_scenario": "moderate", "market_gravity_weight": 50 }, "geometry": { "type": "Point", "coordinates": [ -122.942203958323518, 45.560821541324451 ] } },
{ "type": "Feature", "properties": { "id": "41_3", "growth_scenario": "moderate", "market_gravity_weight": 50 }, "geometry": { "type": "Point", "coordinates": [ -122.940394519815072, 45.563535250670519 ] } },
{ "type": "Feature", "properties": { "id": "41_4", "growth_scenario": "moderate", "market_gravity_weight": 50 }, "geometry": { "type": "Point", "coordinates": [ -120.871072782450071, 44.291416164323238 ] } },
{ "type": "Feature", "properties": { "id": "41_5", "growth_scenario": "moderate", "market_gravity_weight": 50 }, "geometry": { "type": "Point", "coordinates": [ -120.879194144187267, 44.282896079597691 ] } },
{ "type": "Feature", "properties": { "id": "41_6", "growth_scenario": "moderate", "market_gravity_weight": 50 }, "geometry": { "type": "Point", "coordinates": [ -120.873552353691707, 44.282767832845515 ] } },
{ "type": "Feature", "properties": { "id": "41_7", "growth_scenario": "moderate", "market_gravity_weight": 50 }, "geometry": { "type": "Point", "coordinates": [ -122.945410400600707, 45.56147728285503 ] } },
{ "type": "Feature", "properties": { "id": "41_8", "growth_scenario": "moderate", "market_gravity_weight": 50 }, "geometry": { "type": "Point", "coordinates": [ -122.944148533159108, 45.552643769982069 ] } },
{ "type": "Feature", "properties": { "id": "41_9", "growth_scenario": "moderate", "market_gravity_weight": 50 }, "geometry": { "type": "Point", "coordinates": [ -122.944446287924436, 45.564299189489795 ] } },
{ "type": "Feature", "properties": { "id": "42_0", "growth_scenario": "moderate", "market_gravity_weight": 50 }, "geometry": { "type": "Point", "coordinates": [ -77.704529417614864, 39.777045634132648 ] } },
{ "type": "Feature", "properties": { "id": "42_1", "growth_scenario": "moderate", "market_gravity_weight": 50 }, "geometry": { "type": "Point", "coordinates": [ -77.687631919155493, 39.861290879402361 ] } },
{ "type": "Feature", "properties": { "id": "42_2", "growth_scenario": "moderate", "market_gravity_weight": 50 }, "geometry": { "type": "Point", "coordinates": [ -77.686129804103061, 39.865251707527307 ] } },
{ "type": "Feature", "properties": { "id": "42_3", "growth_scenario": "moderate", "market_gravity_weight": 50 }, "geometry": { "type": "Point", "coordinates": [ -77.699867110827853, 39.86837015977688 ] } },
{ "type": "Feature", "properties": { "id": "42_4", "growth_scenario": "moderate", "market_gravity_weight": 50 }, "geometry": { "type": "Point", "coordinates": [ -77.703456166333225, 39.868899562709217 ] } },
{ "type": "Feature", "properties": { "id": "42_5", "growth_scenario": "moderate", "market_gravity_weight": 50 }, "geometry": { "type": "Point", "coordinates": [ -77.679681634680549, 39.911673195518595 ] } },
{ "type": "Feature", "properties": { "id": "42_6", "growth_scenario": "moderate", "market_gravity_weight": 50 }, "geometry": { "type": "Point", "coordinates": [ -77.603793137467306, 39.936733931700864 ] } },
{ "type": "Feature", "properties": { "id": "42_7", "growth_scenario": "moderate", "market_gravity_weight": 50 }, "geometry": { "type": "Point", "coordinates": [ -77.607016917378502, 39.937757243813799 ] } },
{ "type": "Feature", "properties": { "id": "42_8", "growth_scenario": "moderate", "market_gravity_weight": 50 }, "geometry": { "type": "Point", "coordinates": [ -77.603552485253431, 39.939517556802741 ] } },
{ "type": "Feature", "properties": { "id": "42_9", "growth_scenario": "moderate", "market_gravity_weight": 50 }, "geometry": { "type": "Point", "coordinates": [ -77.637841093699507, 39.98042329087842 ] } },
{ "type": "Feature", "properties": { "id": "45_0", "growth_scenario": "moderate", "market_gravity_weight": 50 }, "geometry": { "type": "Point", "coordinates": [ -81.916848072372844, 33.637042114776968 ] } },
{ "type": "Feature", "properties": { "id": "45_1", "growth_scenario": "moderate", "market_gravity_weight": 50 }, "geometry": { "type": "Point", "coordinates": [ -81.918352851374351, 33.632973216542389 ] } },
{ "type": "Feature", "properties": { "id": "45_2", "growth_scenario": "moderate", "market_gravity_weight": 50 }, "geometry": { "type": "Point", "coordinates": [ -81.833160773344474, 33.616206074759205 ] } },
{ "type": "Feature", "properties": { "id": "45_3", "growth_scenario": "moderate", "market_gravity_weight": 50 }, "geometry": { "type": "Point", "coordinates": [ -81.913274480007544, 33.638593411674535 ] } },
{ "type": "Feature", "properties": { "id": "47_0", "growth_scenario": "moderate", "market_gravity_weight": 50 }, "geometry": { "type": "Point", "coordinates": [ -87.269506384756284, 36.625237007282472 ] } },
{ "type": "Feature", "properties": { "id": "47_1", "growth_scenario": "moderate", "market_gravity_weight": 50 }, "geometry": { "type": "Point", "coordinates": [ -87.265284062588108, 36.594361164447079 ] } },
{ "type": "Feature", "properties": { "id": "47_2", "growth_scenario": "moderate", "market_gravity_weight": 50 }, "geometry": { "type": "Point", "coordinates": [ -87.269474006327087, 36.61967687105421 ] } },
{ "type": "Feature", "properties": { "id": "48_0", "growth_scenario": "moderate", "market_gravity_weight": 50 }, "geometry": { "type": "Point", "coordinates": [ -96.958747459774358, 32.983528714201711 ] } },
{ "type": "Feature", "properties": { "id": "48_1", "growth_scenario": "moderate", "market_gravity_weight": 50 }, "geometry": { "type": "Point", "coordinates": [ -96.957534016106791, 32.981119399394082 ] } },
{ "type": "Feature", "properties": { "id": "48_10", "growth_scenario": "moderate", "market_gravity_weight": 50 }, "geometry": { "type": "Point", "coordinates": [ -96.972908855168996, 32.95320929828474 ] } },
{ "type": "Feature", "properties": { "id": "48_11", "growth_scenario": "moderate", "market_gravity_weight": 50 }, "geometry": { "type": "Point", "coordinates": [ -96.955182581491712, 33.009276403235255 ] } },
{ "type": "Feature", "properties": { "id": "48_12", "growth_scenario": "moderate", "market_gravity_weight": 50 }, "geometry": { "type": "Point", "coordinates": [ -98.714737987990759, 29.423320942565777 ] } },
{ "type": "Feature", "properties": { "id": "48_13", "growth_scenario": "moderate", "market_gravity_weight": 50 }, "geometry": { "type": "Point", "coordinates": [ -96.957149123629563, 33.011589727009067 ] } },
{ "type": "Feature", "properties": { "id": "48_14", "growth_scenario": "moderate", "market_gravity_weight": 50 }, "geometry": { "type": "Point", "coordinates": [ -96.966008735354023, 32.952192531502369 ] } },
{ "type": "Feature", "properties": { "id": "48_15", "growth_scenario": "moderate", "market_gravity_weight": 50 }, "geometry": { "type": "Point", "coordinates": [ -98.737732862136525, 29.417326795681543 ] } },
{ "type": "Feature", "properties": { "id": "48_16", "growth_scenario": "moderate", "market_gravity_weight": 50 }, "geometry": { "type": "Point", "coordinates": [ -96.973940832406967, 32.949615878074994 ] } },
{ "type": "Feature", "properties": { "id": "48_17", "growth_scenario": "moderate", "market_gravity_weight": 50 }, "geometry": { "type": "Point", "coordinates": [ -97.020811499726349, 32.995804995921837 ] } },
{ "type": "Feature", "properties": { "id": "48_18", "growth_scenario": "moderate", "market_gravity_weight": 50 }, "geometry": { "type": "Point", "coordinates": [ -96.971133223277931, 32.948833263783214 ] } },
{ "type": "Feature", "properties": { "id": "48_19", "growth_scenario": "moderate", "market_gravity_weight": 50 }, "geometry": { "type": "Point", "coordinates": [ -96.978453562900157, 32.949039579973203 ] } },
{ "type": "Feature", "properties": { "id": "48_2", "growth_scenario": "moderate", "market_gravity_weight": 50 }, "geometry": { "type": "Point", "coordinates": [ -98.720735556924893, 29.430211710265684 ] } },
{ "type": "Feature", "properties": { "id": "48_20", "growth_scenario": "moderate", "market_gravity_weight": 50 }, "geometry": { "type": "Point", "coordinates": [ -96.981567393403424, 32.948475143614154 ] } },
{ "type": "Feature", "properties": { "id": "48_21", "growth_scenario": "moderate", "market_gravity_weight": 50 }, "geometry": { "type": "Point", "coordinates": [ -97.020858920849761, 32.999478564229179 ] } },
{ "type": "Feature", "properties": { "id": "48_22", "growth_scenario": "moderate", "market_gravity_weight": 50 }, "geometry": { "type": "Point", "coordinates": [ -97.021429683470302, 33.001982516740192 ] } },
{ "type": "Feature", "properties": { "id": "48_23", "growth_scenario": "moderate", "market_gravity_weight": 50 }, "geometry": { "type": "Point", "coordinates": [ -97.709571097310629, 30.194978425518435 ] } },
{ "type": "Feature", "properties": { "id": "48_24", "growth_scenario": "moderate", "market_gravity_weight": 50 }, "geometry": { "type": "Point", "coordinates": [ -97.024714197322552, 32.997831064771596 ] } },
{ "type": "Feature", "properties": { "id": "48_25", "growth_scenario": "moderate", "market_gravity_weight": 50 }, "geometry": { "type": "Point", "coordinates": [ -96.989280052662338, 32.945630439988172 ] } },
{ "type": "Feature", "properties": { "id": "48_26", "growth_scenario": "moderate", "market_gravity_weight": 50 }, "geometry": { "type": "Point", "coordinates": [ -96.969482948183668, 32.94588996910246 ] } },
{ "type": "Feature", "properties": { "id": "48_27", "growth_scenario": "moderate", "market_gravity_weight": 50 }, "geometry": { "type": "Point", "coordinates": [ -96.981204588646278, 32.94525208258024 ] } },
{ "type": "Feature", "properties": { "id": "48_28", "growth_scenario": "moderate", "market_gravity_weight": 50 }, "geometry": { "type": "Point", "coordinates": [ -97.024435295834081, 33.001238722197677 ] } },
{ "type": "Feature", "properties": { "id": "48_29", "growth_scenario": "moderate", "market_gravity_weight": 50 }, "geometry": { "type": "Point", "coordinates": [ -98.707725740781797, 29.423225381182856 ] } },
{ "type": "Feature", "properties": { "id": "48_3", "growth_scenario": "moderate", "market_gravity_weight": 50 }, "geometry": { "type": "Point", "coordinates": [ -96.95621625171259, 32.978979771763797 ] } },
{ "type": "Feature", "properties": { "id": "48_30", "growth_scenario": "moderate", "market_gravity_weight": 50 }, "geometry": { "type": "Point", "coordinates": [ -96.961275220564374, 33.023203892947777 ] } },
{ "type": "Feature", "properties": { "id": "48_31", "growth_scenario": "moderate", "market_gravity_weight": 50 }, "geometry": { "type": "Point", "coordinates": [ -96.967338468305911, 33.025751267152309 ] } },
{ "type": "Feature", "properties": { "id": "48_32", "growth_scenario": "moderate", "market_gravity_weight": 50 }, "geometry": { "type": "Point", "coordinates": [ -96.969218365969837, 32.941859476924563 ] } },
{ "type": "Feature", "properties": { "id": "48_33", "growth_scenario": "moderate", "market_gravity_weight": 50 }, "geometry": { "type": "Point", "coordinates": [ -96.963780826027502, 33.025512520747625 ] } },
{ "type": "Feature", "properties": { "id": "48_34", "growth_scenario": "moderate", "market_gravity_weight": 50 }, "geometry": { "type": "Point", "coordinates": [ -96.957617604292309, 33.023593034170851 ] } },
{ "type": "Feature", "properties": { "id": "48_35", "growth_scenario": "moderate", "market_gravity_weight": 50 }, "geometry": { "type": "Point", "coordinates": [ -96.991387125591871, 32.942027486818958 ] } },
{ "type": "Feature", "properties": { "id": "48_36", "growth_scenario": "moderate", "market_gravity_weight": 50 }, "geometry": { "type": "Point", "coordinates": [ -96.960231911895022, 33.025990431516838 ] } },
{ "type": "Feature", "properties": { "id": "48_37", "growth_scenario": "moderate", "market_gravity_weight": 50 }, "geometry": { "type": "Point", "coordinates": [ -96.954386448194697, 33.023620074348727 ] } },
{ "type": "Feature", "properties": { "id": "48_38", "growth_scenario": "moderate", "market_gravity_weight": 50 }, "geometry": { "type": "Point", "coordinates": [ -98.707296438500066, 29.419535016259633 ] } },
{ "type": "Feature", "properties": { "id": "48_39", "growth_scenario": "moderate", "market_gravity_weight": 50 }, "geometry": { "type": "Point", "coordinates": [ -96.956574161559303, 33.026379537687781 ] } },
{ "type": "Feature", "properties": { "id": "48_4", "growth_scenario": "moderate", "market_gravity_weight": 50 }, "geometry": { "type": "Point", "coordinates": [ -96.955430854092398, 32.985259120800642 ] } },
{ "type": "Feature", "properties": { "id": "48_40", "growth_scenario": "moderate", "market_gravity_weight": 50 }, "geometry": { "type": "Point", "coordinates": [ -96.950504748825466, 33.023294016359962 ] } },
{ "type": "Feature", "properties": { "id": "48_41", "growth_scenario": "moderate", "market_gravity_weight": 50 }, "geometry": { "type": "Point", "coordinates": [ -96.976169959076799, 32.93839477049255 ] } },
{ "type": "Feature", "properties": { "id": "48_42", "growth_scenario": "moderate", "market_gravity_weight": 50 }, "geometry": { "type": "Point", "coordinates": [ -96.958649968583003, 33.028781469180778 ] } },
{ "type": "Feature", "properties": { "id": "48_43", "growth_scenario": "moderate", "market_gravity_weight": 50 }, "geometry": { "type": "Point", "coordinates": [ -97.703144008547852, 30.211113890592209 ] } },
{ "type": "Feature", "properties": { "id": "48_44", "growth_scenario": "moderate", "market_gravity_weight": 50 }, "geometry": { "type": "Point", "coordinates": [ -96.952473661865795, 33.025786563504923 ] } },
{ "type": "Feature", "properties": { "id": "48_45", "growth_scenario": "moderate", "market_gravity_weight": 50 }, "geometry": { "type": "Point", "coordinates": [ -96.969598242873332, 32.937733867325449 ] } },
{ "type": "Feature", "properties": { "id": "48_46", "growth_scenario": "moderate", "market_gravity_weight": 50 }, "geometry": { "type": "Point", "coordinates": [ -96.946847075398381, 33.023682812690737 ] } },
{ "type": "Feature", "properties": { "id": "48_47", "growth_scenario": "moderate", "market_gravity_weight": 50 }, "geometry": { "type": "Point", "coordinates": [ -96.954444862697358, 33.028458258659349 ] } },
{ "type": "Feature", "properties": { "id": "48_48", "growth_scenario": "moderate", "market_gravity_weight": 50 }, "geometry": { "type": "Point", "coordinates": [ -96.949247793808311, 33.026261438376153 ] } },
{ "type": "Feature", "properties": { "id": "48_5", "growth_scenario": "moderate", "market_gravity_weight": 50 }, "geometry": { "type": "Point", "coordinates": [ -96.95546873757597, 32.988395167961194 ] } },
{ "type": "Feature", "properties": { "id": "48_6", "growth_scenario": "moderate", "market_gravity_weight": 50 }, "geometry": { "type": "Point", "coordinates": [ -96.955079224022114, 32.991803605001948 ] } },
{ "type": "Feature", "properties": { "id": "48_7", "growth_scenario": "moderate", "market_gravity_weight": 50 }, "geometry": { "type": "Point", "coordinates": [ -98.721235549697852, 29.426588406728197 ] } },
{ "type": "Feature", "properties": { "id": "48_8", "growth_scenario": "moderate", "market_gravity_weight": 50 }, "geometry": { "type": "Point", "coordinates": [ -98.718654767965674, 29.426472570436619 ] } },
{ "type": "Feature", "properties": { "id": "48_9", "growth_scenario": "moderate", "market_gravity_weight": 50 }, "geometry": { "type": "Point", "coordinates": [ -98.719384393725505, 29.423565651384298 ] } },
{ "type": "Feature", "properties": { "id": "49_0", "growth_scenario": "moderate", "market_gravity_weight": 50 }, "geometry": { "type": "Point", "coordinates": [ -111.901200096587431, 40.495035130597664 ] } },
{ "type": "Feature", "properties": { "id": "49_1", "growth_scenario": "moderate", "market_gravity_weight": 50 }, "geometry": { "type": "Point", "coordinates": [ -111.913996454789299, 40.425962132189312 ] } },
{ "type": "Feature", "properties": { "id": "49_2", "growth_scenario": "moderate", "market_gravity_weight": 50 }, "geometry": { "type": "Point", "coordinates": [ -111.952342468144835, 40.469800703066312 ] } },
{ "type": "Feature", "properties": { "id": "49_3", "growth_scenario": "moderate", "market_gravity_weight": 50 }, "geometry": { "type": "Point", "coordinates": [ -112.054026553159233, 40.534981418229712 ] } },
{ "type": "Feature", "properties": { "id": "49_4", "growth_scenario": "moderate", "market_gravity_weight": 50 }, "geometry": { "type": "Point", "coordinates": [ -111.792314540543387, 40.350741202708107 ] } },
{ "type": "Feature", "properties": { "id": "51_0", "growth_scenario": "moderate", "market_gravity_weight": 50 }, "geometry": { "type": "Point", "coordinates": [ -78.378871147101364, 36.678409304300885 ] } },
{ "type": "Feature", "properties": { "id": "51_1", "growth_scenario": "moderate", "market_gravity_weight": 50 }, "geometry": { "type": "Point", "coordinates": [ -77.466356678466425, 39.003919752973943 ] } },
{ "type": "Feature", "properties": { "id": "51_10", "growth_scenario": "moderate", "market_gravity_weight": 50 }, "geometry": { "type": "Point", "coordinates": [ -78.371786772810211, 36.681627352002778 ] } },
{ "type": "Feature", "properties": { "id": "51_11", "growth_scenario": "moderate", "market_gravity_weight": 50 }, "geometry": { "type": "Point", "coordinates": [ -78.354799679668858, 36.686372653017912 ] } },
{ "type": "Feature", "properties": { "id": "51_12", "growth_scenario": "moderate", "market_gravity_weight": 50 }, "geometry": { "type": "Point", "coordinates": [ -78.373368142018705, 36.685131312169403 ] } },
{ "type": "Feature", "properties": { "id": "51_13", "growth_scenario": "moderate", "market_gravity_weight": 50 }, "geometry": { "type": "Point", "coordinates": [ -77.467162694088756, 38.99849404150531 ] } },
{ "type": "Feature", "properties": { "id": "51_14", "growth_scenario": "moderate", "market_gravity_weight": 50 }, "geometry": { "type": "Point", "coordinates": [ -78.34790871961755, 36.68780180104627 ] } },
{ "type": "Feature", "properties": { "id": "51_15", "growth_scenario": "moderate", "market_gravity_weight": 50 }, "geometry": { "type": "Point", "coordinates": [ -78.346230870644902, 36.685191245707934 ] } },
{ "type": "Feature", "properties": { "id": "51_16", "growth_scenario": "moderate", "market_gravity_weight": 50 }, "geometry": { "type": "Point", "coordinates": [ -77.775247429828283, 38.314054472365925 ] } },
{ "type": "Feature", "properties": { "id": "51_17", "growth_scenario": "moderate", "market_gravity_weight": 50 }, "geometry": { "type": "Point", "coordinates": [ -77.782300498069063, 38.30938687074083 ] } },
{ "type": "Feature", "properties": { "id": "51_18", "growth_scenario": "moderate", "market_gravity_weight": 50 }, "geometry": { "type": "Point", "coordinates": [ -77.221995346444913, 38.859070150327192 ] } },
{ "type": "Feature", "properties": { "id": "51_19", "growth_scenario": "moderate", "market_gravity_weight": 50 }, "geometry": { "type": "Point", "coordinates": [ -79.916569728117992, 37.247977504732049 ] } },
{ "type": "Feature", "properties": { "id": "51_2", "growth_scenario": "moderate", "market_gravity_weight": 50 }, "geometry": { "type": "Point", "coordinates": [ -77.463231172420279, 39.005902616196494 ] } },
{ "type": "Feature", "properties": { "id": "51_20", "growth_scenario": "moderate", "market_gravity_weight": 50 }, "geometry": { "type": "Point", "coordinates": [ -77.263896865735674, 38.697729259870883 ] } },
{ "type": "Feature", "properties": { "id": "51_21", "growth_scenario": "moderate", "market_gravity_weight": 50 }, "geometry": { "type": "Point", "coordinates": [ -78.356930924777402, 36.683691884314108 ] } },
{ "type": "Feature", "properties": { "id": "51_22", "growth_scenario": "moderate", "market_gravity_weight": 50 }, "geometry": { "type": "Point", "coordinates": [ -77.466880373254725, 38.995904917998786 ] } },
{ "type": "Feature", "properties": { "id": "51_23", "growth_scenario": "moderate", "market_gravity_weight": 50 }, "geometry": { "type": "Point", "coordinates": [ -77.464514588063778, 38.999548693966638 ] } },
{ "type": "Feature", "properties": { "id": "51_24", "growth_scenario": "moderate", "market_gravity_weight": 50 }, "geometry": { "type": "Point", "coordinates": [ -77.415772888840081, 38.985436447366155 ] } },
{ "type": "Feature", "properties": { "id": "51_25", "growth_scenario": "moderate", "market_gravity_weight": 50 }, "geometry": { "type": "Point", "coordinates": [ -78.255911758887109, 39.054325411387332 ] } },
{ "type": "Feature", "properties": { "id": "51_26", "growth_scenario": "moderate", "market_gravity_weight": 50 }, "geometry": { "type": "Point", "coordinates": [ -78.349217569503566, 36.678913883516671 ] } },
{ "type": "Feature", "properties": { "id": "51_27", "growth_scenario": "moderate", "market_gravity_weight": 50 }, "geometry": { "type": "Point", "coordinates": [ -80.039827026461211, 37.196361083321982 ] } },
{ "type": "Feature", "properties": { "id": "51_28", "growth_scenario": "moderate", "market_gravity_weight": 50 }, "geometry": { "type": "Point", "coordinates": [ -78.859295808136636, 38.468762195358373 ] } },
{ "type": "Feature", "properties": { "id": "51_29", "growth_scenario": "moderate", "market_gravity_weight": 50 }, "geometry": { "type": "Point", "coordinates": [ -77.526278541988674, 39.070707654358941 ] } },
{ "type": "Feature", "properties": { "id": "51_3", "growth_scenario": "moderate", "market_gravity_weight": 50 }, "geometry": { "type": "Point", "coordinates": [ -77.785785115092366, 38.315180544906376 ] } },
{ "type": "Feature", "properties": { "id": "51_30", "growth_scenario": "moderate", "market_gravity_weight": 50 }, "geometry": { "type": "Point", "coordinates": [ -77.78608281670175, 38.318678661641201 ] } },
{ "type": "Feature", "properties": { "id": "51_31", "growth_scenario": "moderate", "market_gravity_weight": 50 }, "geometry": { "type": "Point", "coordinates": [ -77.789097571717619, 38.316040683018436 ] } },
{ "type": "Feature", "properties": { "id": "51_32", "growth_scenario": "moderate", "market_gravity_weight": 50 }, "geometry": { "type": "Point", "coordinates": [ -77.789589740991616, 38.312206604188681 ] } },
{ "type": "Feature", "properties": { "id": "51_33", "growth_scenario": "moderate", "market_gravity_weight": 50 }, "geometry": { "type": "Point", "coordinates": [ -77.288614962434153, 38.695062652152274 ] } },
{ "type": "Feature", "properties": { "id": "51_34", "growth_scenario": "moderate", "market_gravity_weight": 50 }, "geometry": { "type": "Point", "coordinates": [ -77.271800244638314, 38.709223018988283 ] } },
{ "type": "Feature", "properties": { "id": "51_35", "growth_scenario": "moderate", "market_gravity_weight": 50 }, "geometry": { "type": "Point", "coordinates": [ -77.19949580233893, 38.749515474361793 ] } },
{ "type": "Feature", "properties": { "id": "51_36", "growth_scenario": "moderate", "market_gravity_weight": 50 }, "geometry": { "type": "Point", "coordinates": [ -78.369983234707405, 36.67954349644792 ] } },
{ "type": "Feature", "properties": { "id": "51_37", "growth_scenario": "moderate", "market_gravity_weight": 50 }, "geometry": { "type": "Point", "coordinates": [ -79.920046478258897, 37.339062700665501 ] } },
{ "type": "Feature", "properties": { "id": "51_38", "growth_scenario": "moderate", "market_gravity_weight": 50 }, "geometry": { "type": "Point", "coordinates": [ -79.915567266086171, 37.339459159962544 ] } },
{ "type": "Feature", "properties": { "id": "51_39", "growth_scenario": "moderate", "market_gravity_weight": 50 }, "geometry": { "type": "Point", "coordinates": [ -78.355235800674564, 36.688889563285983 ] } },
{ "type": "Feature", "properties": { "id": "51_4", "growth_scenario": "moderate", "market_gravity_weight": 50 }, "geometry": { "type": "Point", "coordinates": [ -77.262757881348492, 38.694824977607745 ] } },
{ "type": "Feature", "properties": { "id": "51_40", "growth_scenario": "moderate", "market_gravity_weight": 50 }, "geometry": { "type": "Point", "coordinates": [ -78.889351589351648, 38.457024167271953 ] } },
{ "type": "Feature", "properties": { "id": "51_41", "growth_scenario": "moderate", "market_gravity_weight": 50 }, "geometry": { "type": "Point", "coordinates": [ -77.477205262280307, 38.994100939712752 ] } },
{ "type": "Feature", "properties": { "id": "51_42", "growth_scenario": "moderate", "market_gravity_weight": 50 }, "geometry": { "type": "Point", "coordinates": [ -78.35185552309666, 36.691021627493228 ] } },
{ "type": "Feature", "properties": { "id": "51_43", "growth_scenario": "moderate", "market_gravity_weight": 50 }, "geometry": { "type": "Point", "coordinates": [ -78.356834681397956, 39.001960825487146 ] } },
{ "type": "Feature", "properties": { "id": "51_44", "growth_scenario": "moderate", "market_gravity_weight": 50 }, "geometry": { "type": "Point", "coordinates": [ -78.878630180152769, 38.409813717379123 ] } },
{ "type": "Feature", "properties": { "id": "51_45", "growth_scenario": "moderate", "market_gravity_weight": 50 }, "geometry": { "type": "Point", "coordinates": [ -77.442011418740918, 39.019971873479754 ] } },
{ "type": "Feature", "properties": { "id": "51_46", "growth_scenario": "moderate", "market_gravity_weight": 50 }, "geometry": { "type": "Point", "coordinates": [ -78.348080857737841, 36.690461215503632 ] } },
{ "type": "Feature", "properties": { "id": "51_47", "growth_scenario": "moderate", "market_gravity_weight": 50 }, "geometry": { "type": "Point", "coordinates": [ -77.531112587512652, 39.08380232706331 ] } },
{ "type": "Feature", "properties": { "id": "51_48", "growth_scenario": "moderate", "market_gravity_weight": 50 }, "geometry": { "type": "Point", "coordinates": [ -78.372653014153798, 36.687659002853806 ] } },
{ "type": "Feature", "properties": { "id": "51_49", "growth_scenario": "moderate", "market_gravity_weight": 50 }, "geometry": { "type": "Point", "coordinates": [ -78.345150682573305, 36.6810345933525 ] } },
{ "type": "Feature", "properties": { "id": "51_5", "growth_scenario": "moderate", "market_gravity_weight": 50 }, "geometry": { "type": "Point", "coordinates": [ -78.355016742147086, 36.681591330222076 ] } },
{ "type": "Feature", "properties": { "id": "51_50", "growth_scenario": "moderate", "market_gravity_weight": 50 }, "geometry": { "type": "Point", "coordinates": [ -77.78571249101455, 38.308444450380172 ] } },
{ "type": "Feature", "properties": { "id": "51_51", "growth_scenario": "moderate", "market_gravity_weight": 50 }, "geometry": { "type": "Point", "coordinates": [ -77.37850373805064, 37.670142232973049 ] } },
{ "type": "Feature", "properties": { "id": "51_52", "growth_scenario": "moderate", "market_gravity_weight": 50 }, "geometry": { "type": "Point", "coordinates": [ -80.041107614582046, 37.204315505478405 ] } },
{ "type": "Feature", "properties": { "id": "51_53", "growth_scenario": "moderate", "market_gravity_weight": 50 }, "geometry": { "type": "Point", "coordinates": [ -79.867080431929523, 37.264151763046215 ] } },
{ "type": "Feature", "properties": { "id": "51_54", "growth_scenario": "moderate", "market_gravity_weight": 50 }, "geometry": { "type": "Point", "coordinates": [ -79.861073195138985, 37.264159235036715 ] } },
{ "type": "Feature", "properties": { "id": "51_55", "growth_scenario": "moderate", "market_gravity_weight": 50 }, "geometry": { "type": "Point", "coordinates": [ -77.265695674641051, 38.699461107342856 ] } },
{ "type": "Feature", "properties": { "id": "51_56", "growth_scenario": "moderate", "market_gravity_weight": 50 }, "geometry": { "type": "Point", "coordinates": [ -77.265874578738376, 38.690117715341167 ] } },
{ "type": "Feature", "properties": { "id": "51_57", "growth_scenario": "moderate", "market_gravity_weight": 50 }, "geometry": { "type": "Point", "coordinates": [ -78.84062935033397, 38.44328196631173 ] } },
{ "type": "Feature", "properties": { "id": "51_58", "growth_scenario": "moderate", "market_gravity_weight": 50 }, "geometry": { "type": "Point", "coordinates": [ -78.367707068286549, 36.681385545151848 ] } },
{ "type": "Feature", "properties": { "id": "51_59", "growth_scenario": "moderate", "market_gravity_weight": 50 }, "geometry": { "type": "Point", "coordinates": [ -78.356738764084923, 36.678214080100588 ] } },
{ "type": "Feature", "properties": { "id": "51_6", "growth_scenario": "moderate", "market_gravity_weight": 50 }, "geometry": { "type": "Point", "coordinates": [ -77.463632233169719, 39.002507368449052 ] } },
{ "type": "Feature", "properties": { "id": "51_60", "growth_scenario": "moderate", "market_gravity_weight": 50 }, "geometry": { "type": "Point", "coordinates": [ -78.887677530221822, 38.449171804663678 ] } },
{ "type": "Feature", "properties": { "id": "51_61", "growth_scenario": "moderate", "market_gravity_weight": 50 }, "geometry": { "type": "Point", "coordinates": [ -79.913714643262139, 37.342651297088238 ] } },
{ "type": "Feature", "properties": { "id": "51_62", "growth_scenario": "moderate", "market_gravity_weight": 50 }, "geometry": { "type": "Point", "coordinates": [ -77.310684270996376, 37.184770602180826 ] } },
{ "type": "Feature", "properties": { "id": "51_63", "growth_scenario": "moderate", "market_gravity_weight": 50 }, "geometry": { "type": "Point", "coordinates": [ -77.320891974308793, 37.179268855081261 ] } },
{ "type": "Feature", "properties": { "id": "51_64", "growth_scenario": "moderate", "market_gravity_weight": 50 }, "geometry": { "type": "Point", "coordinates": [ -77.315159563556833, 37.177644877891858 ] } },
{ "type": "Feature", "properties": { "id": "51_65", "growth_scenario": "moderate", "market_gravity_weight": 50 }, "geometry": { "type": "Point", "coordinates": [ -77.474687058123166, 38.99281089024997 ] } },
{ "type": "Feature", "properties": { "id": "51_66", "growth_scenario": "moderate", "market_gravity_weight": 50 }, "geometry": { "type": "Point", "coordinates": [ -77.470387756370584, 38.991979032320614 ] } },
{ "type": "Feature", "properties": { "id": "51_67", "growth_scenario": "moderate", "market_gravity_weight": 50 }, "geometry": { "type": "Point", "coordinates": [ -78.93183179566941, 38.409934587190918 ] } },
{ "type": "Feature", "properties": { "id": "51_68", "growth_scenario": "moderate", "market_gravity_weight": 50 }, "geometry": { "type": "Point", "coordinates": [ -78.853428471505822, 38.468209135133243 ] } },
{ "type": "Feature", "properties": { "id": "51_69", "growth_scenario": "moderate", "market_gravity_weight": 50 }, "geometry": { "type": "Point", "coordinates": [ -77.462165209553831, 39.031206066664168 ] } },
{ "type": "Feature", "properties": { "id": "51_7", "growth_scenario": "moderate", "market_gravity_weight": 50 }, "geometry": { "type": "Point", "coordinates": [ -78.351079724840943, 36.688000154043714 ] } },
{ "type": "Feature", "properties": { "id": "51_70", "growth_scenario": "moderate", "market_gravity_weight": 50 }, "geometry": { "type": "Point", "coordinates": [ -78.253026557200528, 39.049186849164819 ] } },
{ "type": "Feature", "properties": { "id": "51_71", "growth_scenario": "moderate", "market_gravity_weight": 50 }, "geometry": { "type": "Point", "coordinates": [ -78.36081487826344, 39.003622358196068 ] } },
{ "type": "Feature", "properties": { "id": "51_72", "growth_scenario": "moderate", "market_gravity_weight": 50 }, "geometry": { "type": "Point", "coordinates": [ -78.250084898740326, 39.051485607205869 ] } },
{ "type": "Feature", "properties": { "id": "51_73", "growth_scenario": "moderate", "market_gravity_weight": 50 }, "geometry": { "type": "Point", "coordinates": [ -77.520732719986412, 39.080239078573307 ] } },
{ "type": "Feature", "properties": { "id": "51_74", "growth_scenario": "moderate", "market_gravity_weight": 50 }, "geometry": { "type": "Point", "coordinates": [ -77.527223699261427, 39.084126309377808 ] } },
{ "type": "Feature", "properties": { "id": "51_75", "growth_scenario": "moderate", "market_gravity_weight": 50 }, "geometry": { "type": "Point", "coordinates": [ -78.884760566789041, 38.381837898890318 ] } },
{ "type": "Feature", "properties": { "id": "51_8", "growth_scenario": "moderate", "market_gravity_weight": 50 }, "geometry": { "type": "Point", "coordinates": [ -78.34931903183525, 36.684287488962944 ] } },
{ "type": "Feature", "properties": { "id": "51_9", "growth_scenario": "moderate", "market_gravity_weight": 50 }, "geometry": { "type": "Point", "coordinates": [ -77.786740959229903, 38.312779191898969 ] } },
{ "type": "Feature", "properties": { "id": "53_0", "growth_scenario": "moderate", "market_gravity_weight": 50 }, "geometry": { "type": "Point", "coordinates": [ -119.903325116436861, 47.24847486251339 ] } },
{ "type": "Feature", "properties": { "id": "53_1", "growth_scenario": "moderate", "market_gravity_weight": 50 }, "geometry": { "type": "Point", "coordinates": [ -119.898929979146118, 47.24869202519853 ] } },
{ "type": "Feature", "properties": { "id": "53_10", "growth_scenario": "moderate", "market_gravity_weight": 50 }, "geometry": { "type": "Point", "coordinates": [ -119.911268889128436, 47.242867195810064 ] } },
{ "type": "Feature", "properties": { "id": "53_2", "growth_scenario": "moderate", "market_gravity_weight": 50 }, "geometry": { "type": "Point", "coordinates": [ -119.90488539717515, 47.245023926926393 ] } },
{ "type": "Feature", "properties": { "id": "53_3", "growth_scenario": "moderate", "market_gravity_weight": 50 }, "geometry": { "type": "Point", "coordinates": [ -119.899788938039947, 47.245178476417038 ] } },
{ "type": "Feature", "properties": { "id": "53_4", "growth_scenario": "moderate", "market_gravity_weight": 50 }, "geometry": { "type": "Point", "coordinates": [ -119.908963978517008, 47.245049306841238 ] } },
{ "type": "Feature", "properties": { "id": "53_5", "growth_scenario": "moderate", "market_gravity_weight": 50 }, "geometry": { "type": "Point", "coordinates": [ -119.89425812310138, 47.24998513220703 ] } },
{ "type": "Feature", "properties": { "id": "53_6", "growth_scenario": "moderate", "market_gravity_weight": 50 }, "geometry": { "type": "Point", "coordinates": [ -119.902090620024779, 47.242623632865659 ] } },
{ "type": "Feature", "properties": { "id": "53_7", "growth_scenario": "moderate", "market_gravity_weight": 50 }, "geometry": { "type": "Point", "coordinates": [ -119.906325413570883, 47.242341292533858 ] } },
{ "type": "Feature", "properties": { "id": "53_8", "growth_scenario": "moderate", "market_gravity_weight": 50 }, "geometry": { "type": "Point", "coordinates": [ -119.893801790029727, 47.245490342626489 ] } },
{ "type": "Feature", "properties": { "id": "53_9", "growth_scenario": "moderate", "market_gravity_weight": 50 }, "geometry": { "type": "Point", "coordinates": [ -119.891601205806865, 47.248680759752084 ] } },
{ "type": "Feature", "properties": { "id": "56_0", "growth_scenario": "moderate", "market_gravity_weight": 50 }, "geometry": { "type": "Point", "coordinates": [ -104.818244807740683, 41.761566476620565 ] } },
{ "type": "Feature", "properties": { "id": "56_1", "growth_scenario": "moderate", "market_gravity_weight": 50 }, "geometry": { "type": "Point", "coordinates": [ -104.835057688910425, 41.10251738288185 ] } },
{ "type": "Feature", "properties": { "id": "56_2", "growth_scenario": "moderate", "market_gravity_weight": 50 }, "geometry": { "type": "Point", "coordinates": [ -104.832913790390961, 41.108496728884909 ] } },
{ "type": "Feature", "properties": { "id": "56_3", "growth_scenario": "moderate", "market_gravity_weight": 50 }, "geometry": { "type": "Point", "coordinates": [ -105.560020567077302, 41.333180841077215 ] } }
]
}
