{
"type": "FeatureCollection",
"name": "moderate_growth_75_market_gravity_epsg4326_centroids",
"crs": { "type": "name", "properties": { "name": "urn:ogc:def:crs:OGC:1.3:CRS84" } },
"features": [
{ "type": "Feature", "properties": { "id": "1_0", "growth_scenario": "moderate", "market_gravity_weight": 75 }, "geometry": { "type": "Point", "coordinates": [ -86.626063192751985, 34.836800523816258 ] } },
{ "type": "Feature", "properties": { "id": "1_1", "growth_scenario": "moderate", "market_gravity_weight": 75 }, "geometry": { "type": "Point", "coordinates": [ -86.912807264182902, 33.400479549212022 ] } },
{ "type": "Feature", "properties": { "id": "1_2", "growth_scenario": "moderate", "market_gravity_weight": 75 }, "geometry": { "type": "Point", "coordinates": [ -86.637299903992812, 34.8473131456876 ] } },
{ "type": "Feature", "properties": { "id": "4_0", "growth_scenario": "moderate", "market_gravity_weight": 75 }, "geometry": { "type": "Point", "coordinates": [ -111.707943496201096, 33.478703904142215 ] } },
{ "type": "Feature", "properties": { "id": "4_1", "growth_scenario": "moderate", "market_gravity_weight": 75 }, "geometry": { "type": "Point", "coordinates": [ -111.799503071621089, 33.383776817120889 ] } },
{ "type": "Feature", "properties": { "id": "4_10", "growth_scenario": "moderate", "market_gravity_weight": 75 }, "geometry": { "type": "Point", "coordinates": [ -111.710153144083392, 33.484753724633585 ] } },
{ "type": "Feature", "properties": { "id": "4_11", "growth_scenario": "moderate", "market_gravity_weight": 75 }, "geometry": { "type": "Point", "coordinates": [ -111.703954081057788, 33.479072309947959 ] } },
{ "type": "Feature", "properties": { "id": "4_12", "growth_scenario": "moderate", "market_gravity_weight": 75 }, "geometry": { "type": "Point", "coordinates": [ -111.905050062904678, 33.439634095977496 ] } },
{ "type": "Feature", "properties": { "id": "4_13", "growth_scenario": "moderate", "market_gravity_weight": 75 }, "geometry": { "type": "Point", "coordinates": [ -111.912143680648981, 33.288416370783693 ] } },
{ "type": "Feature", "properties": { "id": "4_2", "growth_scenario": "moderate", "market_gravity_weight": 75 }, "geometry": { "type": "Point", "coordinates": [ -111.778890117146929, 33.47053330270586 ] } },
{ "type": "Feature", "properties": { "id": "4_3", "growth_scenario": "moderate", "market_gravity_weight": 75 }, "geometry": { "type": "Point", "coordinates": [ -111.673691107004871, 33.425324250905994 ] } },
{ "type": "Feature", "properties": { "id": "4_4", "growth_scenario": "moderate", "market_gravity_weight": 75 }, "geometry": { "type": "Point", "coordinates": [ -111.912201848662534, 33.431641762691719 ] } },
{ "type": "Feature", "properties": { "id": "4_5", "growth_scenario": "moderate", "market_gravity_weight": 75 }, "geometry": { "type": "Point", "coordinates": [ -111.907592959463059, 33.438643080422906 ] } },
{ "type": "Feature", "properties": { "id": "4_6", "growth_scenario": "moderate", "market_gravity_weight": 75 }, "geometry": { "type": "Point", "coordinates": [ -111.669811377547475, 33.424587398486764 ] } },
{ "type": "Feature", "properties": { "id": "4_7", "growth_scenario": "moderate", "market_gravity_weight": 75 }, "geometry": { "type": "Point", "coordinates": [ -111.909802298559896, 33.289834342430254 ] } },
{ "type": "Feature", "properties": { "id": "4_8", "growth_scenario": "moderate", "market_gravity_weight": 75 }, "geometry": { "type": "Point", "coordinates": [ -111.670291012514596, 33.427517097257081 ] } },
{ "type": "Feature", "properties": { "id": "4_9", "growth_scenario": "moderate", "market_gravity_weight": 75 }, "geometry": { "type": "Point", "coordinates": [ -111.666013613760839, 33.443356332131508 ] } },
{ "type": "Feature", "properties": { "id": "6_0", "growth_scenario": "moderate", "market_gravity_weight": 75 }, "geometry": { "type": "Point", "coordinates": [ -121.490179401187405, 38.65794914874634 ] } },
{ "type": "Feature", "properties": { "id": "6_1", "growth_scenario": "moderate", "market_gravity_weight": 75 }, "geometry": { "type": "Point", "coordinates": [ -121.486569288562492, 38.658619684050805 ] } },
{ "type": "Feature", "properties": { "id": "6_10", "growth_scenario": "moderate", "market_gravity_weight": 75 }, "geometry": { "type": "Point", "coordinates": [ -121.928468245376564, 37.434466281294164 ] } },
{ "type": "Feature", "properties": { "id": "6_11", "growth_scenario": "moderate", "market_gravity_weight": 75 }, "geometry": { "type": "Point", "coordinates": [ -121.486724684098021, 38.663768210907442 ] } },
{ "type": "Feature", "properties": { "id": "6_12", "growth_scenario": "moderate", "market_gravity_weight": 75 }, "geometry": { "type": "Point", "coordinates": [ -121.928397166336438, 37.437910223619198 ] } },
{ "type": "Feature", "properties": { "id": "6_13", "growth_scenario": "moderate", "market_gravity_weight": 75 }, "geometry": { "type": "Point", "coordinates": [ -121.92946017883547, 37.44055003643691 ] } },
{ "type": "Feature", "properties": { "id": "6_14", "growth_scenario": "moderate", "market_gravity_weight": 75 }, "geometry": { "type": "Point", "coordinates": [ -121.489008995050341, 38.665783604029514 ] } },
{ "type": "Feature", "properties": { "id": "6_15", "growth_scenario": "moderate", "market_gravity_weight": 75 }, "geometry": { "type": "Point", "coordinates": [ -121.926647091922561, 37.441628887420315 ] } },
{ "type": "Feature", "properties": { "id": "6_16", "growth_scenario": "moderate", "market_gravity_weight": 75 }, "geometry": { "type": "Point", "coordinates": [ -121.47257090994151, 38.659171801882593 ] } },
{ "type": "Feature", "properties": { "id": "6_17", "growth_scenario": "moderate", "market_gravity_weight": 75 }, "geometry": { "type": "Point", "coordinates": [ -121.925345531818834, 37.443952144774393 ] } },
{ "type": "Feature", "properties": { "id": "6_18", "growth_scenario": "moderate", "market_gravity_weight": 75 }, "geometry": { "type": "Point", "coordinates": [ -122.268341079376754, 38.260732874609928 ] } },
{ "type": "Feature", "properties": { "id": "6_19", "growth_scenario": "moderate", "market_gravity_weight": 75 }, "geometry": { "type": "Point", "coordinates": [ -121.925880690235445, 37.44809733255213 ] } },
{ "type": "Feature", "properties": { "id": "6_2", "growth_scenario": "moderate", "market_gravity_weight": 75 }, "geometry": { "type": "Point", "coordinates": [ -121.936010667595724, 37.424753864368711 ] } },
{ "type": "Feature", "properties": { "id": "6_20", "growth_scenario": "moderate", "market_gravity_weight": 75 }, "geometry": { "type": "Point", "coordinates": [ -121.47442304558102, 38.663684186431816 ] } },
{ "type": "Feature", "properties": { "id": "6_3", "growth_scenario": "moderate", "market_gravity_weight": 75 }, "geometry": { "type": "Point", "coordinates": [ -121.490673910392957, 38.660342804987536 ] } },
{ "type": "Feature", "properties": { "id": "6_4", "growth_scenario": "moderate", "market_gravity_weight": 75 }, "geometry": { "type": "Point", "coordinates": [ -121.929199497043001, 37.426244872490493 ] } },
{ "type": "Feature", "properties": { "id": "6_5", "growth_scenario": "moderate", "market_gravity_weight": 75 }, "geometry": { "type": "Point", "coordinates": [ -121.936036668660776, 37.427806001016052 ] } },
{ "type": "Feature", "properties": { "id": "6_6", "growth_scenario": "moderate", "market_gravity_weight": 75 }, "geometry": { "type": "Point", "coordinates": [ -121.930899403028405, 37.429671855727513 ] } },
{ "type": "Feature", "properties": { "id": "6_7", "growth_scenario": "moderate", "market_gravity_weight": 75 }, "geometry": { "type": "Point", "coordinates": [ -121.482224433586723, 38.637702409015198 ] } },
{ "type": "Feature", "properties": { "id": "6_8", "growth_scenario": "moderate", "market_gravity_weight": 75 }, "geometry": { "type": "Point", "coordinates": [ -121.4884085820199, 38.661746878756183 ] } },
{ "type": "Feature", "properties": { "id": "6_9", "growth_scenario": "moderate", "market_gravity_weight": 75 }, "geometry": { "type": "Point", "coordinates": [ -121.491699640319581, 38.663549434257192 ] } },
{ "type": "Feature", "properties": { "id": "8_0", "growth_scenario": "moderate", "market_gravity_weight": 75 }, "geometry": { "type": "Point", "coordinates": [ -104.782841603852589, 38.986174679237067 ] } },
{ "type": "Feature", "properties": { "id": "8_1", "growth_scenario": "moderate", "market_gravity_weight": 75 }, "geometry": { "type": "Point", "coordinates": [ -105.014480248780572, 39.988749242268064 ] } },
{ "type": "Feature", "properties": { "id": "8_2", "growth_scenario": "moderate", "market_gravity_weight": 75 }, "geometry": { "type": "Point", "coordinates": [ -104.783071973135179, 38.990011233734585 ] } },
{ "type": "Feature", "properties": { "id": "12_0", "growth_scenario": "moderate", "market_gravity_weight": 75 }, "geometry": { "type": "Point", "coordinates": [ -80.308063534106012, 25.964919423376269 ] } },
{ "type": "Feature", "properties": { "id": "12_1", "growth_scenario": "moderate", "market_gravity_weight": 75 }, "geometry": { "type": "Point", "coordinates": [ -80.305509810659885, 25.966836368637892 ] } },
{ "type": "Feature", "properties": { "id": "12_2", "growth_scenario": "moderate", "market_gravity_weight": 75 }, "geometry": { "type": "Point", "coordinates": [ -80.305851380722814, 25.963287078561557 ] } },
{ "type": "Feature", "properties": { "id": "13_0", "growth_scenario": "moderate", "market_gravity_weight": 75 }, "geometry": { "type": "Point", "coordinates": [ -83.7092470027074, 33.608767896357193 ] } },
{ "type": "Feature", "properties": { "id": "13_1", "growth_scenario": "moderate", "market_gravity_weight": 75 }, "geometry": { "type": "Point", "coordinates": [ -84.438681903080393, 33.911061074211645 ] } },
{ "type": "Feature", "properties": { "id": "13_10", "growth_scenario": "moderate", "market_gravity_weight": 75 }, "geometry": { "type": "Point", "coordinates": [ -83.706157911739766, 33.605457169311343 ] } },
{ "type": "Feature", "properties": { "id": "13_11", "growth_scenario": "moderate", "market_gravity_weight": 75 }, "geometry": { "type": "Point", "coordinates": [ -84.572501134866386, 33.905492170262619 ] } },
{ "type": "Feature", "properties": { "id": "13_12", "growth_scenario": "moderate", "market_gravity_weight": 75 }, "geometry": { "type": "Point", "coordinates": [ -84.486935547786629, 33.815013426826248 ] } },
{ "type": "Feature", "properties": { "id": "13_13", "growth_scenario": "moderate", "market_gravity_weight": 75 }, "geometry": { "type": "Point", "coordinates": [ -84.512765836379742, 34.083156676805039 ] } },
{ "type": "Feature", "properties": { "id": "13_2", "growth_scenario": "moderate", "market_gravity_weight": 75 }, "geometry": { "type": "Point", "coordinates": [ -84.886946857045572, 32.503920656906963 ] } },
{ "type": "Feature", "properties": { "id": "13_3", "growth_scenario": "moderate", "market_gravity_weight": 75 }, "geometry": { "type": "Point", "coordinates": [ -84.356959532988611, 33.806790784598682 ] } },
{ "type": "Feature", "properties": { "id": "13_4", "growth_scenario": "moderate", "market_gravity_weight": 75 }, "geometry": { "type": "Point", "coordinates": [ -83.704462295282823, 33.612046142909293 ] } },
{ "type": "Feature", "properties": { "id": "13_5", "growth_scenario": "moderate", "market_gravity_weight": 75 }, "geometry": { "type": "Point", "coordinates": [ -83.708752793910804, 33.612596861429203 ] } },
{ "type": "Feature", "properties": { "id": "13_6", "growth_scenario": "moderate", "market_gravity_weight": 75 }, "geometry": { "type": "Point", "coordinates": [ -84.451355813994837, 33.828756157541008 ] } },
{ "type": "Feature", "properties": { "id": "13_7", "growth_scenario": "moderate", "market_gravity_weight": 75 }, "geometry": { "type": "Point", "coordinates": [ -84.415979528165423, 34.018403450972983 ] } },
{ "type": "Feature", "properties": { "id": "13_8", "growth_scenario": "moderate", "market_gravity_weight": 75 }, "geometry": { "type": "Point", "coordinates": [ -84.153363640509966, 33.927858188895556 ] } },
{ "type": "Feature", "properties": { "id": "13_9", "growth_scenario": "moderate", "market_gravity_weight": 75 }, "geometry": { "type": "Point", "coordinates": [ -84.552944780804097, 33.761921188066736 ] } },
{ "type": "Feature", "properties": { "id": "17_0", "growth_scenario": "moderate", "market_gravity_weight": 75 }, "geometry": { "type": "Point", "coordinates": [ -88.234695767549809, 41.987600398489931 ] } },
{ "type": "Feature", "properties": { "id": "17_1", "growth_scenario": "moderate", "market_gravity_weight": 75 }, "geometry": { "type": "Point", "coordinates": [ -88.239869327210243, 41.980557129362225 ] } },
{ "type": "Feature", "properties": { "id": "17_10", "growth_scenario": "moderate", "market_gravity_weight": 75 }, "geometry": { "type": "Point", "coordinates": [ -87.883886736027335, 42.305641768869478 ] } },
{ "type": "Feature", "properties": { "id": "17_11", "growth_scenario": "moderate", "market_gravity_weight": 75 }, "geometry": { "type": "Point", "coordinates": [ -88.381304837435906, 42.154653043751509 ] } },
{ "type": "Feature", "properties": { "id": "17_12", "growth_scenario": "moderate", "market_gravity_weight": 75 }, "geometry": { "type": "Point", "coordinates": [ -88.384826457439232, 42.15486064698031 ] } },
{ "type": "Feature", "properties": { "id": "17_13", "growth_scenario": "moderate", "market_gravity_weight": 75 }, "geometry": { "type": "Point", "coordinates": [ -88.265671488007712, 41.856729614508978 ] } },
{ "type": "Feature", "properties": { "id": "17_14", "growth_scenario": "moderate", "market_gravity_weight": 75 }, "geometry": { "type": "Point", "coordinates": [ -88.423637411956534, 42.116061856732458 ] } },
{ "type": "Feature", "properties": { "id": "17_15", "growth_scenario": "moderate", "market_gravity_weight": 75 }, "geometry": { "type": "Point", "coordinates": [ -88.330327293124853, 41.981755550569297 ] } },
{ "type": "Feature", "properties": { "id": "17_2", "growth_scenario": "moderate", "market_gravity_weight": 75 }, "geometry": { "type": "Point", "coordinates": [ -88.242478895958342, 41.983404971047037 ] } },
{ "type": "Feature", "properties": { "id": "17_3", "growth_scenario": "moderate", "market_gravity_weight": 75 }, "geometry": { "type": "Point", "coordinates": [ -88.265747170838935, 41.820863838804691 ] } },
{ "type": "Feature", "properties": { "id": "17_4", "growth_scenario": "moderate", "market_gravity_weight": 75 }, "geometry": { "type": "Point", "coordinates": [ -88.265216695093812, 41.817962376942795 ] } },
{ "type": "Feature", "properties": { "id": "17_5", "growth_scenario": "moderate", "market_gravity_weight": 75 }, "geometry": { "type": "Point", "coordinates": [ -88.216806383225077, 41.823382151362864 ] } },
{ "type": "Feature", "properties": { "id": "17_6", "growth_scenario": "moderate", "market_gravity_weight": 75 }, "geometry": { "type": "Point", "coordinates": [ -87.85180403654671, 41.775118347567464 ] } },
{ "type": "Feature", "properties": { "id": "17_7", "growth_scenario": "moderate", "market_gravity_weight": 75 }, "geometry": { "type": "Point", "coordinates": [ -87.974369288247644, 42.310476076534535 ] } },
{ "type": "Feature", "properties": { "id": "17_8", "growth_scenario": "moderate", "market_gravity_weight": 75 }, "geometry": { "type": "Point", "coordinates": [ -87.83846646915832, 41.77373385592054 ] } },
{ "type": "Feature", "properties": { "id": "17_9", "growth_scenario": "moderate", "market_gravity_weight": 75 }, "geometry": { "type": "Point", "coordinates": [ -87.973338653341315, 42.314091911377297 ] } },
{ "type": "Feature", "properties": { "id": "19_0", "growth_scenario": "moderate", "market_gravity_weight": 75 }, "geometry": { "type": "Point", "coordinates": [ -93.522106241521669, 41.557408863066122 ] } },
{ "type": "Feature", "properties": { "id": "19_1", "growth_scenario": "moderate", "market_gravity_weight": 75 }, "geometry": { "type": "Point", "coordinates": [ -93.525418725612255, 41.552556698327791 ] } },
{ "type": "Feature", "properties": { "id": "19_10", "growth_scenario": "moderate", "market_gravity_weight": 75 }, "geometry": { "type": "Point", "coordinates": [ -93.527534183817153, 41.550809801309903 ] } },
{ "type": "Feature", "properties": { "id": "19_11", "growth_scenario": "moderate", "market_gravity_weight": 75 }, "geometry": { "type": "Point", "coordinates": [ -93.793204289836808, 41.554844865332029 ] } },
{ "type": "Feature", "properties": { "id": "19_12", "growth_scenario": "moderate", "market_gravity_weight": 75 }, "geometry": { "type": "Point", "coordinates": [ -93.623890143601869, 41.502487843005497 ] } },
{ "type": "Feature", "properties": { "id": "19_13", "growth_scenario": "moderate", "market_gravity_weight": 75 }, "geometry": { "type": "Point", "coordinates": [ -93.521036388608138, 41.539780000916892 ] } },
{ "type": "Feature", "properties": { "id": "19_2", "growth_scenario": "moderate", "market_gravity_weight": 75 }, "geometry": { "type": "Point", "coordinates": [ -93.521247347341216, 41.554353286422725 ] } },
{ "type": "Feature", "properties": { "id": "19_3", "growth_scenario": "moderate", "market_gravity_weight": 75 }, "geometry": { "type": "Point", "coordinates": [ -93.56164802517273, 41.549585000503868 ] } },
{ "type": "Feature", "properties": { "id": "19_4", "growth_scenario": "moderate", "market_gravity_weight": 75 }, "geometry": { "type": "Point", "coordinates": [ -93.498885974610786, 41.676828956989858 ] } },
{ "type": "Feature", "properties": { "id": "19_5", "growth_scenario": "moderate", "market_gravity_weight": 75 }, "geometry": { "type": "Point", "coordinates": [ -93.494916786518075, 41.676125966370236 ] } },
{ "type": "Feature", "properties": { "id": "19_6", "growth_scenario": "moderate", "market_gravity_weight": 75 }, "geometry": { "type": "Point", "coordinates": [ -93.71396331479211, 41.524590380930661 ] } },
{ "type": "Feature", "properties": { "id": "19_7", "growth_scenario": "moderate", "market_gravity_weight": 75 }, "geometry": { "type": "Point", "coordinates": [ -93.527500534023773, 41.538027630002553 ] } },
{ "type": "Feature", "properties": { "id": "19_8", "growth_scenario": "moderate", "market_gravity_weight": 75 }, "geometry": { "type": "Point", "coordinates": [ -93.628592854012098, 41.502664191017061 ] } },
{ "type": "Feature", "properties": { "id": "19_9", "growth_scenario": "moderate", "market_gravity_weight": 75 }, "geometry": { "type": "Point", "coordinates": [ -93.519726877495799, 41.559776272921681 ] } },
{ "type": "Feature", "properties": { "id": "21_0", "growth_scenario": "moderate", "market_gravity_weight": 75 }, "geometry": { "type": "Point", "coordinates": [ -87.148400276247799, 36.820478212800857 ] } },
{ "type": "Feature", "properties": { "id": "21_1", "growth_scenario": "moderate", "market_gravity_weight": 75 }, "geometry": { "type": "Point", "coordinates": [ -87.433010114854724, 36.644386607184089 ] } },
{ "type": "Feature", "properties": { "id": "21_2", "growth_scenario": "moderate", "market_gravity_weight": 75 }, "geometry": { "type": "Point", "coordinates": [ -87.436031634767261, 36.653654739352369 ] } },
{ "type": "Feature", "properties": { "id": "25_0", "growth_scenario": "moderate", "market_gravity_weight": 75 }, "geometry": { "type": "Point", "coordinates": [ -71.039770607158175, 42.504304034588088 ] } },
{ "type": "Feature", "properties": { "id": "25_1", "growth_scenario": "moderate", "market_gravity_weight": 75 }, "geometry": { "type": "Point", "coordinates": [ -71.037206116017288, 42.504726577565563 ] } },
{ "type": "Feature", "properties": { "id": "26_0", "growth_scenario": "moderate", "market_gravity_weight": 75 }, "geometry": { "type": "Point", "coordinates": [ -85.576167487991086, 42.890335843192318 ] } },
{ "type": "Feature", "properties": { "id": "27_0", "growth_scenario": "moderate", "market_gravity_weight": 75 }, "geometry": { "type": "Point", "coordinates": [ -93.459181168616539, 44.903640102508206 ] } },
{ "type": "Feature", "properties": { "id": "29_0", "growth_scenario": "moderate", "market_gravity_weight": 75 }, "geometry": { "type": "Point", "coordinates": [ -94.587866327491398, 39.326812468946052 ] } },
{ "type": "Feature", "properties": { "id": "29_1", "growth_scenario": "moderate", "market_gravity_weight": 75 }, "geometry": { "type": "Point", "coordinates": [ -94.592116071311565, 39.319007760958691 ] } },
{ "type": "Feature", "properties": { "id": "30_0", "growth_scenario": "moderate", "market_gravity_weight": 75 }, "geometry": { "type": "Point", "coordinates": [ -114.089727097654034, 46.895103186268095 ] } },
{ "type": "Feature", "properties": { "id": "31_0", "growth_scenario": "moderate", "market_gravity_weight": 75 }, "geometry": { "type": "Point", "coordinates": [ -96.093219889681365, 41.124144920431576 ] } },
{ "type": "Feature", "properties": { "id": "31_1", "growth_scenario": "moderate", "market_gravity_weight": 75 }, "geometry": { "type": "Point", "coordinates": [ -96.088057238808602, 41.123791320076847 ] } },
{ "type": "Feature", "properties": { "id": "31_2", "growth_scenario": "moderate", "market_gravity_weight": 75 }, "geometry": { "type": "Point", "coordinates": [ -96.096700521981091, 41.123517121525097 ] } },
{ "type": "Feature", "properties": { "id": "31_3", "growth_scenario": "moderate", "market_gravity_weight": 75 }, "geometry": { "type": "Point", "coordinates": [ -96.092495725998177, 41.121198024898725 ] } },
{ "type": "Feature", "properties": { "id": "31_4", "growth_scenario": "moderate", "market_gravity_weight": 75 }, "geometry": { "type": "Point", "coordinates": [ -96.141249122694504, 41.128477331258992 ] } },
{ "type": "Feature", "properties": { "id": "31_5", "growth_scenario": "moderate", "market_gravity_weight": 75 }, "geometry": { "type": "Point", "coordinates": [ -96.044240561983614, 41.126761438446749 ] } },
{ "type": "Feature", "properties": { "id": "31_6", "growth_scenario": "moderate", "market_gravity_weight": 75 }, "geometry": { "type": "Point", "coordinates": [ -96.088110665611481, 41.166663712061357 ] } },
{ "type": "Feature", "properties": { "id": "31_7", "growth_scenario": "moderate", "market_gravity_weight": 75 }, "geometry": { "type": "Point", "coordinates": [ -96.084149035120362, 41.168720725876831 ] } },
{ "type": "Feature", "properties": { "id": "32_0", "growth_scenario": "moderate", "market_gravity_weight": 75 }, "geometry": { "type": "Point", "coordinates": [ -115.27624826089513, 36.11732842888857 ] } },
{ "type": "Feature", "properties": { "id": "32_1", "growth_scenario": "moderate", "market_gravity_weight": 75 }, "geometry": { "type": "Point", "coordinates": [ -115.237975032452084, 36.079837312428616 ] } },
{ "type": "Feature", "properties": { "id": "32_2", "growth_scenario": "moderate", "market_gravity_weight": 75 }, "geometry": { "type": "Point", "coordinates": [ -115.241100084515764, 36.008040113250992 ] } },
{ "type": "Feature", "properties": { "id": "32_3", "growth_scenario": "moderate", "market_gravity_weight": 75 }, "geometry": { "type": "Point", "coordinates": [ -115.175749253697902, 36.0014039069248 ] } },
{ "type": "Feature", "properties": { "id": "32_4", "growth_scenario": "moderate", "market_gravity_weight": 75 }, "geometry": { "type": "Point", "coordinates": [ -115.274219455029595, 36.119666276448974 ] } },
{ "type": "Feature", "properties": { "id": "32_5", "growth_scenario": "moderate", "market_gravity_weight": 75 }, "geometry": { "type": "Point", "coordinates": [ -115.018304803091283, 36.109989595933058 ] } },
{ "type": "Feature", "properties": { "id": "32_6", "growth_scenario": "moderate", "market_gravity_weight": 75 }, "geometry": { "type": "Point", "coordinates": [ -115.289751627532638, 36.030057444560654 ] } },
{ "type": "Feature", "properties": { "id": "34_0", "growth_scenario": "moderate", "market_gravity_weight": 75 }, "geometry": { "type": "Point", "coordinates": [ -74.354258125648784, 40.607892890368809 ] } },
{ "type": "Feature", "properties": { "id": "34_1", "growth_scenario": "moderate", "market_gravity_weight": 75 }, "geometry": { "type": "Point", "coordinates": [ -74.353128705036141, 40.604030877113253 ] } },
{ "type": "Feature", "properties": { "id": "34_2", "growth_scenario": "moderate", "market_gravity_weight": 75 }, "geometry": { "type": "Point", "coordinates": [ -74.462667535938635, 40.680908479240834 ] } },
{ "type": "Feature", "properties": { "id": "34_3", "growth_scenario": "moderate", "market_gravity_weight": 75 }, "geometry": { "type": "Point", "coordinates": [ -74.334482218759462, 40.629478380002041 ] } },
{ "type": "Feature", "properties": { "id": "34_4", "growth_scenario": "moderate", "market_gravity_weight": 75 }, "geometry": { "type": "Point", "coordinates": [ -74.458375434223356, 40.681725396327771 ] } },
{ "type": "Feature", "properties": { "id": "34_5", "growth_scenario": "moderate", "market_gravity_weight": 75 }, "geometry": { "type": "Point", "coordinates": [ -74.459840560395392, 40.674189876046881 ] } },
{ "type": "Feature", "properties": { "id": "34_6", "growth_scenario": "moderate", "market_gravity_weight": 75 }, "geometry": { "type": "Point", "coordinates": [ -74.387461975860347, 40.629507429346305 ] } },
{ "type": "Feature", "properties": { "id": "34_7", "growth_scenario": "moderate", "market_gravity_weight": 75 }, "geometry": { "type": "Point", "coordinates": [ -74.323979808092929, 40.460024995536308 ] } },
{ "type": "Feature", "properties": { "id": "34_8", "growth_scenario": "moderate", "market_gravity_weight": 75 }, "geometry": { "type": "Point", "coordinates": [ -74.462540387310924, 40.672181923202295 ] } },
{ "type": "Feature", "properties": { "id": "36_0", "growth_scenario": "moderate", "market_gravity_weight": 75 }, "geometry": { "type": "Point", "coordinates": [ -74.197157035158824, 40.583898614292679 ] } },
{ "type": "Feature", "properties": { "id": "36_1", "growth_scenario": "moderate", "market_gravity_weight": 75 }, "geometry": { "type": "Point", "coordinates": [ -74.029085506764517, 41.075873856370876 ] } },
{ "type": "Feature", "properties": { "id": "36_2", "growth_scenario": "moderate", "market_gravity_weight": 75 }, "geometry": { "type": "Point", "coordinates": [ -73.750419588320057, 40.636003513356336 ] } },
{ "type": "Feature", "properties": { "id": "36_3", "growth_scenario": "moderate", "market_gravity_weight": 75 }, "geometry": { "type": "Point", "coordinates": [ -73.751578394492853, 40.638137968555213 ] } },
{ "type": "Feature", "properties": { "id": "36_4", "growth_scenario": "moderate", "market_gravity_weight": 75 }, "geometry": { "type": "Point", "coordinates": [ -74.119448712816833, 41.120387392222085 ] } },
{ "type": "Feature", "properties": { "id": "36_5", "growth_scenario": "moderate", "market_gravity_weight": 75 }, "geometry": { "type": "Point", "coordinates": [ -73.960829278272143, 41.089770859692528 ] } },
{ "type": "Feature", "properties": { "id": "36_6", "growth_scenario": "moderate", "market_gravity_weight": 75 }, "geometry": { "type": "Point", "coordinates": [ -74.028981937681422, 41.07970935628277 ] } },
{ "type": "Feature", "properties": { "id": "36_7", "growth_scenario": "moderate", "market_gravity_weight": 75 }, "geometry": { "type": "Point", "coordinates": [ -74.164219159664015, 41.136808862331037 ] } },
{ "type": "Feature", "properties": { "id": "36_8", "growth_scenario": "moderate", "market_gravity_weight": 75 }, "geometry": { "type": "Point", "coordinates": [ -74.105842154638452, 41.109573675981324 ] } },
{ "type": "Feature", "properties": { "id": "37_0", "growth_scenario": "moderate", "market_gravity_weight": 75 }, "geometry": { "type": "Point", "coordinates": [ -78.300639371750023, 35.807463436792119 ] } },
{ "type": "Feature", "properties": { "id": "37_1", "growth_scenario": "moderate", "market_gravity_weight": 75 }, "geometry": { "type": "Point", "coordinates": [ -78.30542239255584, 35.805003364164662 ] } },
{ "type": "Feature", "properties": { "id": "37_2", "growth_scenario": "moderate", "market_gravity_weight": 75 }, "geometry": { "type": "Point", "coordinates": [ -78.297072696593759, 35.807652851473769 ] } },
{ "type": "Feature", "properties": { "id": "37_3", "growth_scenario": "moderate", "market_gravity_weight": 75 }, "geometry": { "type": "Point", "coordinates": [ -78.306982101865842, 35.802239245486533 ] } },
{ "type": "Feature", "properties": { "id": "37_4", "growth_scenario": "moderate", "market_gravity_weight": 75 }, "geometry": { "type": "Point", "coordinates": [ -78.290908723567767, 35.811631222565239 ] } },
{ "type": "Feature", "properties": { "id": "37_5", "growth_scenario": "moderate", "market_gravity_weight": 75 }, "geometry": { "type": "Point", "coordinates": [ -78.303229660779309, 35.803218769499956 ] } },
{ "type": "Feature", "properties": { "id": "38_0", "growth_scenario": "moderate", "market_gravity_weight": 75 }, "geometry": { "type": "Point", "coordinates": [ -96.88481480930065, 46.777310370497396 ] } },
{ "type": "Feature", "properties": { "id": "38_1", "growth_scenario": "moderate", "market_gravity_weight": 75 }, "geometry": { "type": "Point", "coordinates": [ -96.8793963049703, 46.889165018107136 ] } },
{ "type": "Feature", "properties": { "id": "38_2", "growth_scenario": "moderate", "market_gravity_weight": 75 }, "geometry": { "type": "Point", "coordinates": [ -96.872621881743484, 46.910348219725108 ] } },
{ "type": "Feature", "properties": { "id": "38_3", "growth_scenario": "moderate", "market_gravity_weight": 75 }, "geometry": { "type": "Point", "coordinates": [ -96.905182779213789, 46.778712790478878 ] } },
{ "type": "Feature", "properties": { "id": "38_4", "growth_scenario": "moderate", "market_gravity_weight": 75 }, "geometry": { "type": "Point", "coordinates": [ -96.887179574006765, 46.77855940816589 ] } },
{ "type": "Feature", "properties": { "id": "38_5", "growth_scenario": "moderate", "market_gravity_weight": 75 }, "geometry": { "type": "Point", "coordinates": [ -96.878225982821462, 46.909138051650778 ] } },
{ "type": "Feature", "properties": { "id": "38_6", "growth_scenario": "moderate", "market_gravity_weight": 75 }, "geometry": { "type": "Point", "coordinates": [ -96.876097868418839, 46.98477935007088 ] } },
{ "type": "Feature", "properties": { "id": "38_7", "growth_scenario": "moderate", "market_gravity_weight": 75 }, "geometry": { "type": "Point", "coordinates": [ -96.874939736580828, 46.888109393573281 ] } },
{ "type": "Feature", "properties": { "id": "39_0", "growth_scenario": "moderate", "market_gravity_weight": 75 }, "geometry": { "type": "Point", "coordinates": [ -82.992675509632036, 39.856461115937911 ] } },
{ "type": "Feature", "properties": { "id": "39_1", "growth_scenario": "moderate", "market_gravity_weight": 75 }, "geometry": { "type": "Point", "coordinates": [ -82.78030345668131, 39.878746732676433 ] } },
{ "type": "Feature", "properties": { "id": "39_2", "growth_scenario": "moderate", "market_gravity_weight": 75 }, "geometry": { "type": "Point", "coordinates": [ -82.903864179641701, 39.869426295831445 ] } },
{ "type": "Feature", "properties": { "id": "39_3", "growth_scenario": "moderate", "market_gravity_weight": 75 }, "geometry": { "type": "Point", "coordinates": [ -82.802304083340758, 39.802228924603362 ] } },
{ "type": "Feature", "properties": { "id": "39_4", "growth_scenario": "moderate", "market_gravity_weight": 75 }, "geometry": { "type": "Point", "coordinates": [ -82.782628463302842, 39.88034467020961 ] } },
{ "type": "Feature", "properties": { "id": "40_0", "growth_scenario": "moderate", "market_gravity_weight": 75 }, "geometry": { "type": "Point", "coordinates": [ -95.910535760668211, 36.262459429470951 ] } },
{ "type": "Feature", "properties": { "id": "40_1", "growth_scenario": "moderate", "market_gravity_weight": 75 }, "geometry": { "type": "Point", "coordinates": [ -95.908852982934221, 36.260761778372917 ] } },
{ "type": "Feature", "properties": { "id": "41_0", "growth_scenario": "moderate", "market_gravity_weight": 75 }, "geometry": { "type": "Point", "coordinates": [ -120.875460179758619, 44.291320149491234 ] } },
{ "type": "Feature", "properties": { "id": "41_1", "growth_scenario": "moderate", "market_gravity_weight": 75 }, "geometry": { "type": "Point", "coordinates": [ -120.871072782450071, 44.291416164323238 ] } },
{ "type": "Feature", "properties": { "id": "41_10", "growth_scenario": "moderate", "market_gravity_weight": 75 }, "geometry": { "type": "Point", "coordinates": [ -122.939260706584051, 45.567235409033856 ] } },
{ "type": "Feature", "properties": { "id": "41_11", "growth_scenario": "moderate", "market_gravity_weight": 75 }, "geometry": { "type": "Point", "coordinates": [ -120.86592040098094, 44.288778822767576 ] } },
{ "type": "Feature", "properties": { "id": "41_12", "growth_scenario": "moderate", "market_gravity_weight": 75 }, "geometry": { "type": "Point", "coordinates": [ -122.928936188598342, 45.570004410295105 ] } },
{ "type": "Feature", "properties": { "id": "41_13", "growth_scenario": "moderate", "market_gravity_weight": 75 }, "geometry": { "type": "Point", "coordinates": [ -122.94516854814681, 45.564432508906528 ] } },
{ "type": "Feature", "properties": { "id": "41_2", "growth_scenario": "moderate", "market_gravity_weight": 75 }, "geometry": { "type": "Point", "coordinates": [ -122.937500768001257, 45.562346721865687 ] } },
{ "type": "Feature", "properties": { "id": "41_3", "growth_scenario": "moderate", "market_gravity_weight": 75 }, "geometry": { "type": "Point", "coordinates": [ -122.94150207556109, 45.561058968192562 ] } },
{ "type": "Feature", "properties": { "id": "41_4", "growth_scenario": "moderate", "market_gravity_weight": 75 }, "geometry": { "type": "Point", "coordinates": [ -120.883723181003631, 44.290110915102261 ] } },
{ "type": "Feature", "properties": { "id": "41_5", "growth_scenario": "moderate", "market_gravity_weight": 75 }, "geometry": { "type": "Point", "coordinates": [ -122.940414847132189, 45.563906014437421 ] } },
{ "type": "Feature", "properties": { "id": "41_6", "growth_scenario": "moderate", "market_gravity_weight": 75 }, "geometry": { "type": "Point", "coordinates": [ -122.931175998733337, 45.568327629707035 ] } },
{ "type": "Feature", "properties": { "id": "41_7", "growth_scenario": "moderate", "market_gravity_weight": 75 }, "geometry": { "type": "Point", "coordinates": [ -122.944148533159108, 45.552643769982069 ] } },
{ "type": "Feature", "properties": { "id": "41_8", "growth_scenario": "moderate", "market_gravity_weight": 75 }, "geometry": { "type": "Point", "coordinates": [ -122.944974776278087, 45.562035139356446 ] } },
{ "type": "Feature", "properties": { "id": "41_9", "growth_scenario": "moderate", "market_gravity_weight": 75 }, "geometry": { "type": "Point", "coordinates": [ -122.947086069734766, 45.559728181454346 ] } },
{ "type": "Feature", "properties": { "id": "42_0", "growth_scenario": "moderate", "market_gravity_weight": 75 }, "geometry": { "type": "Point", "coordinates": [ -77.704529417614864, 39.777045634132648 ] } },
{ "type": "Feature", "properties": { "id": "42_1", "growth_scenario": "moderate", "market_gravity_weight": 75 }, "geometry": { "type": "Point", "coordinates": [ -77.687631919155493, 39.861290879402361 ] } },
{ "type": "Feature", "properties": { "id": "42_2", "growth_scenario": "moderate", "market_gravity_weight": 75 }, "geometry": { "type": "Point", "coordinates": [ -77.686129804103061, 39.865251707527307 ] } },
{ "type": "Feature", "properties": { "id": "42_3", "growth_scenario": "moderate", "market_gravity_weight": 75 }, "geometry": { "type": "Point", "coordinates": [ -77.699867110827853, 39.86837015977688 ] } },
{ "type": "Feature", "properties": { "id": "42_4", "growth_scenario": "moderate", "market_gravity_weight": 75 }, "geometry": { "type": "Point", "coordinates": [ -77.703456166333225, 39.868899562709217 ] } },
{ "type": "Feature", "properties": { "id": "42_5", "growth_scenario": "moderate", "market_gravity_weight": 75 }, "geometry": { "type": "Point", "coordinates": [ -77.679681634680549, 39.911673195518595 ] } },
{ "type": "Feature", "properties": { "id": "42_6", "growth_scenario": "moderate", "market_gravity_weight": 75 }, "geometry": { "type": "Point", "coordinates": [ -77.603793137467306, 39.936733931700864 ] } },
{ "type": "Feature", "properties": { "id": "42_7", "growth_scenario": "moderate", "market_gravity_weight": 75 }, "geometry": { "type": "Point", "coordinates": [ -77.607016917378502, 39.937757243813799 ] } },
{ "type": "Feature", "properties": { "id": "42_8", "growth_scenario": "moderate", "market_gravity_weight": 75 }, "geometry": { "type": "Point", "coordinates": [ -77.603552485253431, 39.939517556802741 ] } },
{ "type": "Feature", "properties": { "id": "42_9", "growth_scenario": "moderate", "market_gravity_weight": 75 }, "geometry": { "type": "Point", "coordinates": [ -77.637841093699507, 39.98042329087842 ] } },
{ "type": "Feature", "properties": { "id": "45_0", "growth_scenario": "moderate", "market_gravity_weight": 75 }, "geometry": { "type": "Point", "coordinates": [ -80.044432895895241, 33.068717768211947 ] } },
{ "type": "Feature", "properties": { "id": "45_1", "growth_scenario": "moderate", "market_gravity_weight": 75 }, "geometry": { "type": "Point", "coordinates": [ -80.04167915101867, 33.070965034065637 ] } },
{ "type": "Feature", "properties": { "id": "45_2", "growth_scenario": "moderate", "market_gravity_weight": 75 }, "geometry": { "type": "Point", "coordinates": [ -80.036054899469292, 33.067991326694539 ] } },
{ "type": "Feature", "properties": { "id": "45_3", "growth_scenario": "moderate", "market_gravity_weight": 75 }, "geometry": { "type": "Point", "coordinates": [ -80.037354893374555, 33.071264291929339 ] } },
{ "type": "Feature", "properties": { "id": "47_0", "growth_scenario": "moderate", "market_gravity_weight": 75 }, "geometry": { "type": "Point", "coordinates": [ -87.269506384756284, 36.625237007282472 ] } },
{ "type": "Feature", "properties": { "id": "47_1", "growth_scenario": "moderate", "market_gravity_weight": 75 }, "geometry": { "type": "Point", "coordinates": [ -87.269474006327087, 36.61967687105421 ] } },
{ "type": "Feature", "properties": { "id": "47_2", "growth_scenario": "moderate", "market_gravity_weight": 75 }, "geometry": { "type": "Point", "coordinates": [ -87.269297791824982, 36.628000690987562 ] } },
{ "type": "Feature", "properties": { "id": "48_0", "growth_scenario": "moderate", "market_gravity_weight": 75 }, "geometry": { "type": "Point", "coordinates": [ -96.958747459774358, 32.983528714201711 ] } },
{ "type": "Feature", "properties": { "id": "48_1", "growth_scenario": "moderate", "market_gravity_weight": 75 }, "geometry": { "type": "Point", "coordinates": [ -96.957534016106791, 32.981119399394082 ] } },
{ "type": "Feature", "properties": { "id": "48_10", "growth_scenario": "moderate", "market_gravity_weight": 75 }, "geometry": { "type": "Point", "coordinates": [ -96.972908855168996, 32.95320929828474 ] } },
{ "type": "Feature", "properties": { "id": "48_11", "growth_scenario": "moderate", "market_gravity_weight": 75 }, "geometry": { "type": "Point", "coordinates": [ -96.955182581491712, 33.009276403235255 ] } },
{ "type": "Feature", "properties": { "id": "48_12", "growth_scenario": "moderate", "market_gravity_weight": 75 }, "geometry": { "type": "Point", "coordinates": [ -98.714737987990759, 29.423320942565777 ] } },
{ "type": "Feature", "properties": { "id": "48_13", "growth_scenario": "moderate", "market_gravity_weight": 75 }, "geometry": { "type": "Point", "coordinates": [ -96.957149123629563, 33.011589727009067 ] } },
{ "type": "Feature", "properties": { "id": "48_14", "growth_scenario": "moderate", "market_gravity_weight": 75 }, "geometry": { "type": "Point", "coordinates": [ -98.737732862136525, 29.417326795681543 ] } },
{ "type": "Feature", "properties": { "id": "48_15", "growth_scenario": "moderate", "market_gravity_weight": 75 }, "geometry": { "type": "Point", "coordinates": [ -96.966008735354023, 32.952192531502369 ] } },
{ "type": "Feature", "properties": { "id": "48_16", "growth_scenario": "moderate", "market_gravity_weight": 75 }, "geometry": { "type": "Point", "coordinates": [ -97.020811499726349, 32.995804995921837 ] } },
{ "type": "Feature", "properties": { "id": "48_17", "growth_scenario": "moderate", "market_gravity_weight": 75 }, "geometry": { "type": "Point", "coordinates": [ -96.973940832406967, 32.949615878074994 ] } },
{ "type": "Feature", "properties": { "id": "48_18", "growth_scenario": "moderate", "market_gravity_weight": 75 }, "geometry": { "type": "Point", "coordinates": [ -96.971133223277931, 32.948833263783214 ] } },
{ "type": "Feature", "properties": { "id": "48_19", "growth_scenario": "moderate", "market_gravity_weight": 75 }, "geometry": { "type": "Point", "coordinates": [ -96.979854626608173, 32.949206790036001 ] } },
{ "type": "Feature", "properties": { "id": "48_2", "growth_scenario": "moderate", "market_gravity_weight": 75 }, "geometry": { "type": "Point", "coordinates": [ -98.720735556924893, 29.430211710265684 ] } },
{ "type": "Feature", "properties": { "id": "48_20", "growth_scenario": "moderate", "market_gravity_weight": 75 }, "geometry": { "type": "Point", "coordinates": [ -96.981445343921465, 32.94731118531994 ] } },
{ "type": "Feature", "properties": { "id": "48_21", "growth_scenario": "moderate", "market_gravity_weight": 75 }, "geometry": { "type": "Point", "coordinates": [ -97.020858920849761, 32.999478564229179 ] } },
{ "type": "Feature", "properties": { "id": "48_22", "growth_scenario": "moderate", "market_gravity_weight": 75 }, "geometry": { "type": "Point", "coordinates": [ -96.97671531809074, 32.947710232407545 ] } },
{ "type": "Feature", "properties": { "id": "48_23", "growth_scenario": "moderate", "market_gravity_weight": 75 }, "geometry": { "type": "Point", "coordinates": [ -97.021429683470302, 33.001982516740192 ] } },
{ "type": "Feature", "properties": { "id": "48_24", "growth_scenario": "moderate", "market_gravity_weight": 75 }, "geometry": { "type": "Point", "coordinates": [ -97.709571097310629, 30.194978425518435 ] } },
{ "type": "Feature", "properties": { "id": "48_25", "growth_scenario": "moderate", "market_gravity_weight": 75 }, "geometry": { "type": "Point", "coordinates": [ -97.024714197322552, 32.997831064771596 ] } },
{ "type": "Feature", "properties": { "id": "48_26", "growth_scenario": "moderate", "market_gravity_weight": 75 }, "geometry": { "type": "Point", "coordinates": [ -96.989280052662338, 32.945630439988172 ] } },
{ "type": "Feature", "properties": { "id": "48_27", "growth_scenario": "moderate", "market_gravity_weight": 75 }, "geometry": { "type": "Point", "coordinates": [ -96.969482948183668, 32.94588996910246 ] } },
{ "type": "Feature", "properties": { "id": "48_28", "growth_scenario": "moderate", "market_gravity_weight": 75 }, "geometry": { "type": "Point", "coordinates": [ -97.024435295834081, 33.001238722197677 ] } },
{ "type": "Feature", "properties": { "id": "48_29", "growth_scenario": "moderate", "market_gravity_weight": 75 }, "geometry": { "type": "Point", "coordinates": [ -98.707725740781797, 29.423225381182856 ] } },
{ "type": "Feature", "properties": { "id": "48_3", "growth_scenario": "moderate", "market_gravity_weight": 75 }, "geometry": { "type": "Point", "coordinates": [ -96.95621625171259, 32.978979771763797 ] } },
{ "type": "Feature", "properties": { "id": "48_30", "growth_scenario": "moderate", "market_gravity_weight": 75 }, "geometry": { "type": "Point", "coordinates": [ -96.982808547333562, 32.944431731320385 ] } },
{ "type": "Feature", "properties": { "id": "48_31", "growth_scenario": "moderate", "market_gravity_weight": 75 }, "geometry": { "type": "Point", "coordinates": [ -96.961275220564374, 33.023203892947777 ] } },
{ "type": "Feature", "properties": { "id": "48_32", "growth_scenario": "moderate", "market_gravity_weight": 75 }, "geometry": { "type": "Point", "coordinates": [ -96.967338468305911, 33.025751267152309 ] } },
{ "type": "Feature", "properties": { "id": "48_33", "growth_scenario": "moderate", "market_gravity_weight": 75 }, "geometry": { "type": "Point", "coordinates": [ -96.969218365969837, 32.941859476924563 ] } },
{ "type": "Feature", "properties": { "id": "48_34", "growth_scenario": "moderate", "market_gravity_weight": 75 }, "geometry": { "type": "Point", "coordinates": [ -96.963780826027502, 33.025512520747625 ] } },
{ "type": "Feature", "properties": { "id": "48_35", "growth_scenario": "moderate", "market_gravity_weight": 75 }, "geometry": { "type": "Point", "coordinates": [ -96.957617604292309, 33.023593034170851 ] } },
{ "type": "Feature", "properties": { "id": "48_36", "growth_scenario": "moderate", "market_gravity_weight": 75 }, "geometry": { "type": "Point", "coordinates": [ -96.991387125591871, 32.942027486818958 ] } },
{ "type": "Feature", "properties": { "id": "48_37", "growth_scenario": "moderate", "market_gravity_weight": 75 }, "geometry": { "type": "Point", "coordinates": [ -96.960231911895022, 33.025990431516838 ] } },
{ "type": "Feature", "properties": { "id": "48_38", "growth_scenario": "moderate", "market_gravity_weight": 75 }, "geometry": { "type": "Point", "coordinates": [ -96.954386448194697, 33.023620074348727 ] } },
{ "type": "Feature", "properties": { "id": "48_39", "growth_scenario": "moderate", "market_gravity_weight": 75 }, "geometry": { "type": "Point", "coordinates": [ -98.707296438500066, 29.419535016259633 ] } },
{ "type": "Feature", "properties": { "id": "48_4", "growth_scenario": "moderate", "market_gravity_weight": 75 }, "geometry": { "type": "Point", "coordinates": [ -96.955430854092398, 32.985259120800642 ] } },
{ "type": "Feature", "properties": { "id": "48_40", "growth_scenario": "moderate", "market_gravity_weight": 75 }, "geometry": { "type": "Point", "coordinates": [ -96.950504748825466, 33.023294016359962 ] } },
{ "type": "Feature", "properties": { "id": "48_41", "growth_scenario": "moderate", "market_gravity_weight": 75 }, "geometry": { "type": "Point", "coordinates": [ -96.976169959076799, 32.93839477049255 ] } },
{ "type": "Feature", "properties": { "id": "48_42", "growth_scenario": "moderate", "market_gravity_weight": 75 }, "geometry": { "type": "Point", "coordinates": [ -96.956574161559303, 33.026379537687781 ] } },
{ "type": "Feature", "properties": { "id": "48_43", "growth_scenario": "moderate", "market_gravity_weight": 75 }, "geometry": { "type": "Point", "coordinates": [ -96.958649968583003, 33.028781469180778 ] } },
{ "type": "Feature", "properties": { "id": "48_44", "growth_scenario": "moderate", "market_gravity_weight": 75 }, "geometry": { "type": "Point", "coordinates": [ -96.952473661865795, 33.025786563504923 ] } },
{ "type": "Feature", "properties": { "id": "48_45", "growth_scenario": "moderate", "market_gravity_weight": 75 }, "geometry": { "type": "Point", "coordinates": [ -97.703144008547852, 30.211113890592209 ] } },
{ "type": "Feature", "properties": { "id": "48_46", "growth_scenario": "moderate", "market_gravity_weight": 75 }, "geometry": { "type": "Point", "coordinates": [ -96.969598242873332, 32.937733867325449 ] } },
{ "type": "Feature", "properties": { "id": "48_47", "growth_scenario": "moderate", "market_gravity_weight": 75 }, "geometry": { "type": "Point", "coordinates": [ -96.946847075398381, 33.023682812690737 ] } },
{ "type": "Feature", "properties": { "id": "48_48", "growth_scenario": "moderate", "market_gravity_weight": 75 }, "geometry": { "type": "Point", "coordinates": [ -96.949247793808311, 33.026261438376153 ] } },
{ "type": "Feature", "properties": { "id": "48_5", "growth_scenario": "moderate", "market_gravity_weight": 75 }, "geometry": { "type": "Point", "coordinates": [ -96.95546873757597, 32.988395167961194 ] } },
{ "type": "Feature", "properties": { "id": "48_6", "growth_scenario": "moderate", "market_gravity_weight": 75 }, "geometry": { "type": "Point", "coordinates": [ -96.955079224022114, 32.991803605001948 ] } },
{ "type": "Feature", "properties": { "id": "48_7", "growth_scenario": "moderate", "market_gravity_weight": 75 }, "geometry": { "type": "Point", "coordinates": [ -98.721235549697852, 29.426588406728197 ] } },
{ "type": "Feature", "properties": { "id": "48_8", "growth_scenario": "moderate", "market_gravity_weight": 75 }, "geometry": { "type": "Point", "coordinates": [ -98.718654767965674, 29.426472570436619 ] } },
{ "type": "Feature", "properties": { "id": "48_9", "growth_scenario": "moderate", "market_gravity_weight": 75 }, "geometry": { "type": "Point", "coordinates": [ -98.719384393725505, 29.423565651384298 ] } },
{ "type": "Feature", "properties": { "id": "49_0", "growth_scenario": "moderate", "market_gravity_weight": 75 }, "geometry": { "type": "Point", "coordinates": [ -111.905374634604314, 40.358703996324913 ] } },
{ "type": "Feature", "properties": { "id": "49_1", "growth_scenario": "moderate", "market_gravity_weight": 75 }, "geometry": { "type": "Point", "coordinates": [ -111.958707093060696, 40.371929056570956 ] } },
{ "type": "Feature", "properties": { "id": "49_2", "growth_scenario": "moderate", "market_gravity_weight": 75 }, "geometry": { "type": "Point", "coordinates": [ -111.869989678809446, 40.372244643180764 ] } },
{ "type": "Feature", "properties": { "id": "49_3", "growth_scenario": "moderate", "market_gravity_weight": 75 }, "geometry": { "type": "Point", "coordinates": [ -111.913996454789299, 40.425962132189312 ] } },
{ "type": "Feature", "properties": { "id": "49_4", "growth_scenario": "moderate", "market_gravity_weight": 75 }, "geometry": { "type": "Point", "coordinates": [ -111.958991084976262, 40.374790169062535 ] } },
{ "type": "Feature", "properties": { "id": "51_0", "growth_scenario": "moderate", "market_gravity_weight": 75 }, "geometry": { "type": "Point", "coordinates": [ -77.466356678466425, 39.003919752973943 ] } },
{ "type": "Feature", "properties": { "id": "51_1", "growth_scenario": "moderate", "market_gravity_weight": 75 }, "geometry": { "type": "Point", "coordinates": [ -77.463231172420279, 39.005902616196494 ] } },
{ "type": "Feature", "properties": { "id": "51_10", "growth_scenario": "moderate", "market_gravity_weight": 75 }, "geometry": { "type": "Point", "coordinates": [ -77.415772888840081, 38.985436447366155 ] } },
{ "type": "Feature", "properties": { "id": "51_11", "growth_scenario": "moderate", "market_gravity_weight": 75 }, "geometry": { "type": "Point", "coordinates": [ -77.786740959229903, 38.312779191898969 ] } },
{ "type": "Feature", "properties": { "id": "51_12", "growth_scenario": "moderate", "market_gravity_weight": 75 }, "geometry": { "type": "Point", "coordinates": [ -77.221995346444913, 38.859070150327192 ] } },
{ "type": "Feature", "properties": { "id": "51_13", "growth_scenario": "moderate", "market_gravity_weight": 75 }, "geometry": { "type": "Point", "coordinates": [ -78.371786772810211, 36.681627352002778 ] } },
{ "type": "Feature", "properties": { "id": "51_14", "growth_scenario": "moderate", "market_gravity_weight": 75 }, "geometry": { "type": "Point", "coordinates": [ -77.526278541988674, 39.070707654358941 ] } },
{ "type": "Feature", "properties": { "id": "51_15", "growth_scenario": "moderate", "market_gravity_weight": 75 }, "geometry": { "type": "Point", "coordinates": [ -77.263896865735674, 38.697729259870883 ] } },
{ "type": "Feature", "properties": { "id": "51_16", "growth_scenario": "moderate", "market_gravity_weight": 75 }, "geometry": { "type": "Point", "coordinates": [ -77.477205262280307, 38.994100939712752 ] } },
{ "type": "Feature", "properties": { "id": "51_17", "growth_scenario": "moderate", "market_gravity_weight": 75 }, "geometry": { "type": "Point", "coordinates": [ -77.775247429828283, 38.314054472365925 ] } },
{ "type": "Feature", "properties": { "id": "51_18", "growth_scenario": "moderate", "market_gravity_weight": 75 }, "geometry": { "type": "Point", "coordinates": [ -77.782300498069063, 38.30938687074083 ] } },
{ "type": "Feature", "properties": { "id": "51_19", "growth_scenario": "moderate", "market_gravity_weight": 75 }, "geometry": { "type": "Point", "coordinates": [ -77.442011418740918, 39.019971873479754 ] } },
{ "type": "Feature", "properties": { "id": "51_2", "growth_scenario": "moderate", "market_gravity_weight": 75 }, "geometry": { "type": "Point", "coordinates": [ -77.463632233169719, 39.002507368449052 ] } },
{ "type": "Feature", "properties": { "id": "51_20", "growth_scenario": "moderate", "market_gravity_weight": 75 }, "geometry": { "type": "Point", "coordinates": [ -77.288614962434153, 38.695062652152274 ] } },
{ "type": "Feature", "properties": { "id": "51_21", "growth_scenario": "moderate", "market_gravity_weight": 75 }, "geometry": { "type": "Point", "coordinates": [ -77.271800244638314, 38.709223018988283 ] } },
{ "type": "Feature", "properties": { "id": "51_22", "growth_scenario": "moderate", "market_gravity_weight": 75 }, "geometry": { "type": "Point", "coordinates": [ -77.19949580233893, 38.749515474361793 ] } },
{ "type": "Feature", "properties": { "id": "51_23", "growth_scenario": "moderate", "market_gravity_weight": 75 }, "geometry": { "type": "Point", "coordinates": [ -77.531112587512652, 39.08380232706331 ] } },
{ "type": "Feature", "properties": { "id": "51_24", "growth_scenario": "moderate", "market_gravity_weight": 75 }, "geometry": { "type": "Point", "coordinates": [ -77.474687058123166, 38.99281089024997 ] } },
{ "type": "Feature", "properties": { "id": "51_25", "growth_scenario": "moderate", "market_gravity_weight": 75 }, "geometry": { "type": "Point", "coordinates": [ -77.470387756370584, 38.991979032320614 ] } },
{ "type": "Feature", "properties": { "id": "51_26", "growth_scenario": "moderate", "market_gravity_weight": 75 }, "geometry": { "type": "Point", "coordinates": [ -77.78608281670175, 38.318678661641201 ] } },
{ "type": "Feature", "properties": { "id": "51_27", "growth_scenario": "moderate", "market_gravity_weight": 75 }, "geometry": { "type": "Point", "coordinates": [ -77.789097571717619, 38.316040683018436 ] } },
{ "type": "Feature", "properties": { "id": "51_28", "growth_scenario": "moderate", "market_gravity_weight": 75 }, "geometry": { "type": "Point", "coordinates": [ -77.789589740991616, 38.312206604188681 ] } },
{ "type": "Feature", "properties": { "id": "51_29", "growth_scenario": "moderate", "market_gravity_weight": 75 }, "geometry": { "type": "Point", "coordinates": [ -77.462165209553831, 39.031206066664168 ] } },
{ "type": "Feature", "properties": { "id": "51_3", "growth_scenario": "moderate", "market_gravity_weight": 75 }, "geometry": { "type": "Point", "coordinates": [ -77.262757881348492, 38.694824977607745 ] } },
{ "type": "Feature", "properties": { "id": "51_30", "growth_scenario": "moderate", "market_gravity_weight": 75 }, "geometry": { "type": "Point", "coordinates": [ -77.520732719986412, 39.080239078573307 ] } },
{ "type": "Feature", "properties": { "id": "51_31", "growth_scenario": "moderate", "market_gravity_weight": 75 }, "geometry": { "type": "Point", "coordinates": [ -77.265695674641051, 38.699461107342856 ] } },
{ "type": "Feature", "properties": { "id": "51_32", "growth_scenario": "moderate", "market_gravity_weight": 75 }, "geometry": { "type": "Point", "coordinates": [ -77.527223699261427, 39.084126309377808 ] } },
{ "type": "Feature", "properties": { "id": "51_33", "growth_scenario": "moderate", "market_gravity_weight": 75 }, "geometry": { "type": "Point", "coordinates": [ -77.265874578738376, 38.690117715341167 ] } },
{ "type": "Feature", "properties": { "id": "51_34", "growth_scenario": "moderate", "market_gravity_weight": 75 }, "geometry": { "type": "Point", "coordinates": [ -78.859295808136636, 38.468762195358373 ] } },
{ "type": "Feature", "properties": { "id": "51_35", "growth_scenario": "moderate", "market_gravity_weight": 75 }, "geometry": { "type": "Point", "coordinates": [ -78.372653014153798, 36.687659002853806 ] } },
{ "type": "Feature", "properties": { "id": "51_36", "growth_scenario": "moderate", "market_gravity_weight": 75 }, "geometry": { "type": "Point", "coordinates": [ -77.488987901921249, 38.99769994194331 ] } },
{ "type": "Feature", "properties": { "id": "51_37", "growth_scenario": "moderate", "market_gravity_weight": 75 }, "geometry": { "type": "Point", "coordinates": [ -77.49016165499782, 39.000059762066073 ] } },
{ "type": "Feature", "properties": { "id": "51_38", "growth_scenario": "moderate", "market_gravity_weight": 75 }, "geometry": { "type": "Point", "coordinates": [ -78.355016742147086, 36.681591330222076 ] } },
{ "type": "Feature", "properties": { "id": "51_39", "growth_scenario": "moderate", "market_gravity_weight": 75 }, "geometry": { "type": "Point", "coordinates": [ -77.462857589999302, 38.995842186952366 ] } },
{ "type": "Feature", "properties": { "id": "51_4", "growth_scenario": "moderate", "market_gravity_weight": 75 }, "geometry": { "type": "Point", "coordinates": [ -78.378871147101364, 36.678409304300885 ] } },
{ "type": "Feature", "properties": { "id": "51_40", "growth_scenario": "moderate", "market_gravity_weight": 75 }, "geometry": { "type": "Point", "coordinates": [ -77.454699184847485, 39.003975374224858 ] } },
{ "type": "Feature", "properties": { "id": "51_41", "growth_scenario": "moderate", "market_gravity_weight": 75 }, "geometry": { "type": "Point", "coordinates": [ -78.351079724840943, 36.688000154043714 ] } },
{ "type": "Feature", "properties": { "id": "51_42", "growth_scenario": "moderate", "market_gravity_weight": 75 }, "geometry": { "type": "Point", "coordinates": [ -77.78571249101455, 38.308444450380172 ] } },
{ "type": "Feature", "properties": { "id": "51_43", "growth_scenario": "moderate", "market_gravity_weight": 75 }, "geometry": { "type": "Point", "coordinates": [ -78.34931903183525, 36.684287488962944 ] } },
{ "type": "Feature", "properties": { "id": "51_44", "growth_scenario": "moderate", "market_gravity_weight": 75 }, "geometry": { "type": "Point", "coordinates": [ -77.434708813609689, 39.016501465581321 ] } },
{ "type": "Feature", "properties": { "id": "51_45", "growth_scenario": "moderate", "market_gravity_weight": 75 }, "geometry": { "type": "Point", "coordinates": [ -77.156599599505412, 38.950658694635173 ] } },
{ "type": "Feature", "properties": { "id": "51_46", "growth_scenario": "moderate", "market_gravity_weight": 75 }, "geometry": { "type": "Point", "coordinates": [ -78.369983234707405, 36.67954349644792 ] } },
{ "type": "Feature", "properties": { "id": "51_47", "growth_scenario": "moderate", "market_gravity_weight": 75 }, "geometry": { "type": "Point", "coordinates": [ -77.523916349752128, 39.069260740462724 ] } },
{ "type": "Feature", "properties": { "id": "51_48", "growth_scenario": "moderate", "market_gravity_weight": 75 }, "geometry": { "type": "Point", "coordinates": [ -78.354799679668858, 36.686372653017912 ] } },
{ "type": "Feature", "properties": { "id": "51_49", "growth_scenario": "moderate", "market_gravity_weight": 75 }, "geometry": { "type": "Point", "coordinates": [ -77.477972636243152, 38.991124893608827 ] } },
{ "type": "Feature", "properties": { "id": "51_5", "growth_scenario": "moderate", "market_gravity_weight": 75 }, "geometry": { "type": "Point", "coordinates": [ -77.467162694088756, 38.99849404150531 ] } },
{ "type": "Feature", "properties": { "id": "51_50", "growth_scenario": "moderate", "market_gravity_weight": 75 }, "geometry": { "type": "Point", "coordinates": [ -77.460323849987233, 38.996914042614414 ] } },
{ "type": "Feature", "properties": { "id": "51_51", "growth_scenario": "moderate", "market_gravity_weight": 75 }, "geometry": { "type": "Point", "coordinates": [ -77.789392036299674, 38.31908387999755 ] } },
{ "type": "Feature", "properties": { "id": "51_52", "growth_scenario": "moderate", "market_gravity_weight": 75 }, "geometry": { "type": "Point", "coordinates": [ -77.792122354981103, 38.314767365003824 ] } },
{ "type": "Feature", "properties": { "id": "51_53", "growth_scenario": "moderate", "market_gravity_weight": 75 }, "geometry": { "type": "Point", "coordinates": [ -77.792391091393597, 38.311354207913709 ] } },
{ "type": "Feature", "properties": { "id": "51_54", "growth_scenario": "moderate", "market_gravity_weight": 75 }, "geometry": { "type": "Point", "coordinates": [ -77.779022420881162, 38.306986648445097 ] } },
{ "type": "Feature", "properties": { "id": "51_55", "growth_scenario": "moderate", "market_gravity_weight": 75 }, "geometry": { "type": "Point", "coordinates": [ -77.789420427783966, 38.307728078655273 ] } },
{ "type": "Feature", "properties": { "id": "51_56", "growth_scenario": "moderate", "market_gravity_weight": 75 }, "geometry": { "type": "Point", "coordinates": [ -78.367707068286549, 36.681385545151848 ] } },
{ "type": "Feature", "properties": { "id": "51_57", "growth_scenario": "moderate", "market_gravity_weight": 75 }, "geometry": { "type": "Point", "coordinates": [ -78.853428471505822, 38.468209135133243 ] } },
{ "type": "Feature", "properties": { "id": "51_58", "growth_scenario": "moderate", "market_gravity_weight": 75 }, "geometry": { "type": "Point", "coordinates": [ -78.369475442086653, 36.685553055601346 ] } },
{ "type": "Feature", "properties": { "id": "51_59", "growth_scenario": "moderate", "market_gravity_weight": 75 }, "geometry": { "type": "Point", "coordinates": [ -78.34790871961755, 36.68780180104627 ] } },
{ "type": "Feature", "properties": { "id": "51_6", "growth_scenario": "moderate", "market_gravity_weight": 75 }, "geometry": { "type": "Point", "coordinates": [ -77.785785115092366, 38.315180544906376 ] } },
{ "type": "Feature", "properties": { "id": "51_60", "growth_scenario": "moderate", "market_gravity_weight": 75 }, "geometry": { "type": "Point", "coordinates": [ -77.284287728983955, 38.690760005247654 ] } },
{ "type": "Feature", "properties": { "id": "51_61", "growth_scenario": "moderate", "market_gravity_weight": 75 }, "geometry": { "type": "Point", "coordinates": [ -77.520824174733789, 39.068340362766534 ] } },
{ "type": "Feature", "properties": { "id": "51_62", "growth_scenario": "moderate", "market_gravity_weight": 75 }, "geometry": { "type": "Point", "coordinates": [ -77.270091243820062, 38.705321618056651 ] } },
{ "type": "Feature", "properties": { "id": "51_63", "growth_scenario": "moderate", "market_gravity_weight": 75 }, "geometry": { "type": "Point", "coordinates": [ -77.517756341274634, 39.073789051654018 ] } },
{ "type": "Feature", "properties": { "id": "51_64", "growth_scenario": "moderate", "market_gravity_weight": 75 }, "geometry": { "type": "Point", "coordinates": [ -78.356930924777402, 36.683691884314108 ] } },
{ "type": "Feature", "properties": { "id": "51_65", "growth_scenario": "moderate", "market_gravity_weight": 75 }, "geometry": { "type": "Point", "coordinates": [ -78.346230870644902, 36.685191245707934 ] } },
{ "type": "Feature", "properties": { "id": "51_66", "growth_scenario": "moderate", "market_gravity_weight": 75 }, "geometry": { "type": "Point", "coordinates": [ -77.271770394275237, 38.692478466000537 ] } },
{ "type": "Feature", "properties": { "id": "51_67", "growth_scenario": "moderate", "market_gravity_weight": 75 }, "geometry": { "type": "Point", "coordinates": [ -77.531900564362431, 39.086285178941644 ] } },
{ "type": "Feature", "properties": { "id": "51_68", "growth_scenario": "moderate", "market_gravity_weight": 75 }, "geometry": { "type": "Point", "coordinates": [ -77.516434001014829, 39.111237423180896 ] } },
{ "type": "Feature", "properties": { "id": "51_69", "growth_scenario": "moderate", "market_gravity_weight": 75 }, "geometry": { "type": "Point", "coordinates": [ -77.49347923211252, 39.001015422145628 ] } },
{ "type": "Feature", "properties": { "id": "51_7", "growth_scenario": "moderate", "market_gravity_weight": 75 }, "geometry": { "type": "Point", "coordinates": [ -78.373368142018705, 36.685131312169403 ] } },
{ "type": "Feature", "properties": { "id": "51_70", "growth_scenario": "moderate", "market_gravity_weight": 75 }, "geometry": { "type": "Point", "coordinates": [ -77.786103084125443, 38.321408131520499 ] } },
{ "type": "Feature", "properties": { "id": "51_71", "growth_scenario": "moderate", "market_gravity_weight": 75 }, "geometry": { "type": "Point", "coordinates": [ -77.792581101565617, 38.318562197673032 ] } },
{ "type": "Feature", "properties": { "id": "51_72", "growth_scenario": "moderate", "market_gravity_weight": 75 }, "geometry": { "type": "Point", "coordinates": [ -77.772558073557292, 38.31165151894502 ] } },
{ "type": "Feature", "properties": { "id": "51_73", "growth_scenario": "moderate", "market_gravity_weight": 75 }, "geometry": { "type": "Point", "coordinates": [ -77.77321831571436, 38.309024086672657 ] } },
{ "type": "Feature", "properties": { "id": "51_74", "growth_scenario": "moderate", "market_gravity_weight": 75 }, "geometry": { "type": "Point", "coordinates": [ -77.781937026437831, 38.306151491217335 ] } },
{ "type": "Feature", "properties": { "id": "51_75", "growth_scenario": "moderate", "market_gravity_weight": 75 }, "geometry": { "type": "Point", "coordinates": [ -77.468816593281758, 39.030301656512918 ] } },
{ "type": "Feature", "properties": { "id": "51_8", "growth_scenario": "moderate", "market_gravity_weight": 75 }, "geometry": { "type": "Point", "coordinates": [ -77.466880373254725, 38.995904917998786 ] } },
{ "type": "Feature", "properties": { "id": "51_9", "growth_scenario": "moderate", "market_gravity_weight": 75 }, "geometry": { "type": "Point", "coordinates": [ -77.464514588063778, 38.999548693966638 ] } },
{ "type": "Feature", "properties": { "id": "53_0", "growth_scenario": "moderate", "market_gravity_weight": 75 }, "geometry": { "type": "Point", "coordinates": [ -119.905044635580538, 47.248357422398676 ] } },
{ "type": "Feature", "properties": { "id": "53_1", "growth_scenario": "moderate", "market_gravity_weight": 75 }, "geometry": { "type": "Point", "coordinates": [ -119.899315230206426, 47.248997401298872 ] } },
{ "type": "Feature", "properties": { "id": "53_10", "growth_scenario": "moderate", "market_gravity_weight": 75 }, "geometry": { "type": "Point", "coordinates": [ -119.890514409049729, 47.248312654297031 ] } },
{ "type": "Feature", "properties": { "id": "53_2", "growth_scenario": "moderate", "market_gravity_weight": 75 }, "geometry": { "type": "Point", "coordinates": [ -119.908011522100566, 47.245404604150835 ] } },
{ "type": "Feature", "properties": { "id": "53_3", "growth_scenario": "moderate", "market_gravity_weight": 75 }, "geometry": { "type": "Point", "coordinates": [ -119.903958515183263, 47.244721015466496 ] } },
{ "type": "Feature", "properties": { "id": "53_4", "growth_scenario": "moderate", "market_gravity_weight": 75 }, "geometry": { "type": "Point", "coordinates": [ -119.895112661768806, 47.249367130704023 ] } },
{ "type": "Feature", "properties": { "id": "53_5", "growth_scenario": "moderate", "market_gravity_weight": 75 }, "geometry": { "type": "Point", "coordinates": [ -119.914653012118592, 47.243575572478555 ] } },
{ "type": "Feature", "properties": { "id": "53_6", "growth_scenario": "moderate", "market_gravity_weight": 75 }, "geometry": { "type": "Point", "coordinates": [ -119.910698160735649, 47.243154959902533 ] } },
{ "type": "Feature", "properties": { "id": "53_7", "growth_scenario": "moderate", "market_gravity_weight": 75 }, "geometry": { "type": "Point", "coordinates": [ -119.890884316395557, 47.250394921892244 ] } },
{ "type": "Feature", "properties": { "id": "53_8", "growth_scenario": "moderate", "market_gravity_weight": 75 }, "geometry": { "type": "Point", "coordinates": [ -119.899723557394623, 47.245003285437065 ] } },
{ "type": "Feature", "properties": { "id": "53_9", "growth_scenario": "moderate", "market_gravity_weight": 75 }, "geometry": { "type": "Point", "coordinates": [ -119.90607095798623, 47.242386315476701 ] } },
{ "type": "Feature", "properties": { "id": "56_0", "growth_scenario": "moderate", "market_gravity_weight": 75 }, "geometry": { "type": "Point", "coordinates": [ -104.835057688910425, 41.10251738288185 ] } },
{ "type": "Feature", "properties": { "id": "56_1", "growth_scenario": "moderate", "market_gravity_weight": 75 }, "geometry": { "type": "Point", "coordinates": [ -104.832913790390961, 41.108496728884909 ] } },
{ "type": "Feature", "properties": { "id": "56_2", "growth_scenario": "moderate", "market_gravity_weight": 75 }, "geometry": { "type": "Point", "coordinates": [ -104.83832500384149, 41.108390376252089 ] } },
{ "type": "Feature", "properties": { "id": "56_3", "growth_scenario": "moderate", "market_gravity_weight": 75 }, "geometry": { "type": "Point", "coordinates": [ -104.840033289949261, 41.105670429028088 ] } }
]
}
