{
"type": "FeatureCollection",
"name": "moderate_growth_0_market_gravity_epsg4326_centroids",
"crs": { "type": "name", "properties": { "name": "urn:ogc:def:crs:OGC:1.3:CRS84" } },
"features": [
{ "type": "Feature", "properties": { "id": "1_0", "growth_scenario": "moderate", "market_gravity_weight": 0 }, "geometry": { "type": "Point", "coordinates": [ -87.623891273767683, 34.18891629898576 ] } },
{ "type": "Feature", "properties": { "id": "1_1", "growth_scenario": "moderate", "market_gravity_weight": 0 }, "geometry": { "type": "Point", "coordinates": [ -87.174426447713955, 34.203868005636103 ] } },
{ "type": "Feature", "properties": { "id": "1_2", "growth_scenario": "moderate", "market_gravity_weight": 0 }, "geometry": { "type": "Point", "coordinates": [ -86.781889362752338, 34.061371607846013 ] } },
{ "type": "Feature", "properties": { "id": "4_0", "growth_scenario": "moderate", "market_gravity_weight": 0 }, "geometry": { "type": "Point", "coordinates": [ -113.174624425945154, 34.587428721623297 ] } },
{ "type": "Feature", "properties": { "id": "4_1", "growth_scenario": "moderate", "market_gravity_weight": 0 }, "geometry": { "type": "Point", "coordinates": [ -113.175811326045519, 34.585252518341491 ] } },
{ "type": "Feature", "properties": { "id": "4_10", "growth_scenario": "moderate", "market_gravity_weight": 0 }, "geometry": { "type": "Point", "coordinates": [ -114.758592428964505, 32.49934950853649 ] } },
{ "type": "Feature", "properties": { "id": "4_11", "growth_scenario": "moderate", "market_gravity_weight": 0 }, "geometry": { "type": "Point", "coordinates": [ -113.179354698307748, 34.563727987869385 ] } },
{ "type": "Feature", "properties": { "id": "4_12", "growth_scenario": "moderate", "market_gravity_weight": 0 }, "geometry": { "type": "Point", "coordinates": [ -114.749715706400977, 32.501019860113118 ] } },
{ "type": "Feature", "properties": { "id": "4_13", "growth_scenario": "moderate", "market_gravity_weight": 0 }, "geometry": { "type": "Point", "coordinates": [ -114.657552940320514, 32.728223646849152 ] } },
{ "type": "Feature", "properties": { "id": "4_2", "growth_scenario": "moderate", "market_gravity_weight": 0 }, "geometry": { "type": "Point", "coordinates": [ -113.175503892585823, 34.564482600700103 ] } },
{ "type": "Feature", "properties": { "id": "4_3", "growth_scenario": "moderate", "market_gravity_weight": 0 }, "geometry": { "type": "Point", "coordinates": [ -113.170793158684759, 34.589270820515743 ] } },
{ "type": "Feature", "properties": { "id": "4_4", "growth_scenario": "moderate", "market_gravity_weight": 0 }, "geometry": { "type": "Point", "coordinates": [ -113.172348173969738, 34.562861251570368 ] } },
{ "type": "Feature", "properties": { "id": "4_5", "growth_scenario": "moderate", "market_gravity_weight": 0 }, "geometry": { "type": "Point", "coordinates": [ -113.17214761144011, 34.568435873369225 ] } },
{ "type": "Feature", "properties": { "id": "4_6", "growth_scenario": "moderate", "market_gravity_weight": 0 }, "geometry": { "type": "Point", "coordinates": [ -113.179056370470221, 34.586769698173349 ] } },
{ "type": "Feature", "properties": { "id": "4_7", "growth_scenario": "moderate", "market_gravity_weight": 0 }, "geometry": { "type": "Point", "coordinates": [ -114.643430732018516, 32.64218400928408 ] } },
{ "type": "Feature", "properties": { "id": "4_8", "growth_scenario": "moderate", "market_gravity_weight": 0 }, "geometry": { "type": "Point", "coordinates": [ -114.638914616419314, 32.639735322137106 ] } },
{ "type": "Feature", "properties": { "id": "4_9", "growth_scenario": "moderate", "market_gravity_weight": 0 }, "geometry": { "type": "Point", "coordinates": [ -114.750953531266134, 32.503921758928747 ] } },
{ "type": "Feature", "properties": { "id": "6_0", "growth_scenario": "moderate", "market_gravity_weight": 0 }, "geometry": { "type": "Point", "coordinates": [ -121.872538006257869, 37.988895617540287 ] } },
{ "type": "Feature", "properties": { "id": "6_1", "growth_scenario": "moderate", "market_gravity_weight": 0 }, "geometry": { "type": "Point", "coordinates": [ -121.73623128309346, 38.682136038097184 ] } },
{ "type": "Feature", "properties": { "id": "6_10", "growth_scenario": "moderate", "market_gravity_weight": 0 }, "geometry": { "type": "Point", "coordinates": [ -121.973471702026671, 38.285255507334817 ] } },
{ "type": "Feature", "properties": { "id": "6_11", "growth_scenario": "moderate", "market_gravity_weight": 0 }, "geometry": { "type": "Point", "coordinates": [ -121.963677039705132, 38.402730927728349 ] } },
{ "type": "Feature", "properties": { "id": "6_12", "growth_scenario": "moderate", "market_gravity_weight": 0 }, "geometry": { "type": "Point", "coordinates": [ -121.950960541062045, 38.514899413721018 ] } },
{ "type": "Feature", "properties": { "id": "6_13", "growth_scenario": "moderate", "market_gravity_weight": 0 }, "geometry": { "type": "Point", "coordinates": [ -121.849472064076068, 38.414864034912497 ] } },
{ "type": "Feature", "properties": { "id": "6_14", "growth_scenario": "moderate", "market_gravity_weight": 0 }, "geometry": { "type": "Point", "coordinates": [ -121.85312843405066, 38.418337677179551 ] } },
{ "type": "Feature", "properties": { "id": "6_15", "growth_scenario": "moderate", "market_gravity_weight": 0 }, "geometry": { "type": "Point", "coordinates": [ -121.622101556139839, 39.096867698480438 ] } },
{ "type": "Feature", "properties": { "id": "6_16", "growth_scenario": "moderate", "market_gravity_weight": 0 }, "geometry": { "type": "Point", "coordinates": [ -121.687143495016016, 39.150044736664668 ] } },
{ "type": "Feature", "properties": { "id": "6_17", "growth_scenario": "moderate", "market_gravity_weight": 0 }, "geometry": { "type": "Point", "coordinates": [ -121.659782809986794, 39.168515980193838 ] } },
{ "type": "Feature", "properties": { "id": "6_18", "growth_scenario": "moderate", "market_gravity_weight": 0 }, "geometry": { "type": "Point", "coordinates": [ -121.686633795454895, 39.146634436094573 ] } },
{ "type": "Feature", "properties": { "id": "6_19", "growth_scenario": "moderate", "market_gravity_weight": 0 }, "geometry": { "type": "Point", "coordinates": [ -122.322735796614495, 41.306701971544065 ] } },
{ "type": "Feature", "properties": { "id": "6_2", "growth_scenario": "moderate", "market_gravity_weight": 0 }, "geometry": { "type": "Point", "coordinates": [ -121.992993578686779, 38.525000349623021 ] } },
{ "type": "Feature", "properties": { "id": "6_20", "growth_scenario": "moderate", "market_gravity_weight": 0 }, "geometry": { "type": "Point", "coordinates": [ -122.32173602829792, 41.301805075540827 ] } },
{ "type": "Feature", "properties": { "id": "6_3", "growth_scenario": "moderate", "market_gravity_weight": 0 }, "geometry": { "type": "Point", "coordinates": [ -121.735654146280041, 38.67920370988795 ] } },
{ "type": "Feature", "properties": { "id": "6_4", "growth_scenario": "moderate", "market_gravity_weight": 0 }, "geometry": { "type": "Point", "coordinates": [ -121.99440447462031, 38.52061826021805 ] } },
{ "type": "Feature", "properties": { "id": "6_5", "growth_scenario": "moderate", "market_gravity_weight": 0 }, "geometry": { "type": "Point", "coordinates": [ -121.558635893866153, 39.162270001384421 ] } },
{ "type": "Feature", "properties": { "id": "6_6", "growth_scenario": "moderate", "market_gravity_weight": 0 }, "geometry": { "type": "Point", "coordinates": [ -122.159826210898871, 38.217082554577786 ] } },
{ "type": "Feature", "properties": { "id": "6_7", "growth_scenario": "moderate", "market_gravity_weight": 0 }, "geometry": { "type": "Point", "coordinates": [ -122.211282803478753, 38.139250177490766 ] } },
{ "type": "Feature", "properties": { "id": "6_8", "growth_scenario": "moderate", "market_gravity_weight": 0 }, "geometry": { "type": "Point", "coordinates": [ -121.949484708089273, 38.519109183092269 ] } },
{ "type": "Feature", "properties": { "id": "6_9", "growth_scenario": "moderate", "market_gravity_weight": 0 }, "geometry": { "type": "Point", "coordinates": [ -122.110297037484457, 38.213990752753155 ] } },
{ "type": "Feature", "properties": { "id": "8_0", "growth_scenario": "moderate", "market_gravity_weight": 0 }, "geometry": { "type": "Point", "coordinates": [ -106.290621644170599, 40.723866927546723 ] } },
{ "type": "Feature", "properties": { "id": "8_1", "growth_scenario": "moderate", "market_gravity_weight": 0 }, "geometry": { "type": "Point", "coordinates": [ -106.2888518373518, 40.720777539458616 ] } },
{ "type": "Feature", "properties": { "id": "8_2", "growth_scenario": "moderate", "market_gravity_weight": 0 }, "geometry": { "type": "Point", "coordinates": [ -106.295915419689777, 40.721460468988077 ] } },
{ "type": "Feature", "properties": { "id": "12_0", "growth_scenario": "moderate", "market_gravity_weight": 0 }, "geometry": { "type": "Point", "coordinates": [ -81.836959713006308, 27.907655187076937 ] } },
{ "type": "Feature", "properties": { "id": "12_1", "growth_scenario": "moderate", "market_gravity_weight": 0 }, "geometry": { "type": "Point", "coordinates": [ -81.860176753695654, 27.905277281435303 ] } },
{ "type": "Feature", "properties": { "id": "12_2", "growth_scenario": "moderate", "market_gravity_weight": 0 }, "geometry": { "type": "Point", "coordinates": [ -81.824127347689426, 27.868280693257045 ] } },
{ "type": "Feature", "properties": { "id": "13_0", "growth_scenario": "moderate", "market_gravity_weight": 0 }, "geometry": { "type": "Point", "coordinates": [ -85.06097011586651, 31.619147281029196 ] } },
{ "type": "Feature", "properties": { "id": "13_1", "growth_scenario": "moderate", "market_gravity_weight": 0 }, "geometry": { "type": "Point", "coordinates": [ -85.270255424109521, 34.669055642443197 ] } },
{ "type": "Feature", "properties": { "id": "13_10", "growth_scenario": "moderate", "market_gravity_weight": 0 }, "geometry": { "type": "Point", "coordinates": [ -85.139765323736611, 34.892175623036984 ] } },
{ "type": "Feature", "properties": { "id": "13_11", "growth_scenario": "moderate", "market_gravity_weight": 0 }, "geometry": { "type": "Point", "coordinates": [ -83.844636221426526, 34.949303723703323 ] } },
{ "type": "Feature", "properties": { "id": "13_12", "growth_scenario": "moderate", "market_gravity_weight": 0 }, "geometry": { "type": "Point", "coordinates": [ -83.975553604467336, 34.886811458508078 ] } },
{ "type": "Feature", "properties": { "id": "13_13", "growth_scenario": "moderate", "market_gravity_weight": 0 }, "geometry": { "type": "Point", "coordinates": [ -83.403710158307575, 33.304909955096456 ] } },
{ "type": "Feature", "properties": { "id": "13_2", "growth_scenario": "moderate", "market_gravity_weight": 0 }, "geometry": { "type": "Point", "coordinates": [ -85.276865920114929, 34.881274178572738 ] } },
{ "type": "Feature", "properties": { "id": "13_3", "growth_scenario": "moderate", "market_gravity_weight": 0 }, "geometry": { "type": "Point", "coordinates": [ -85.274048304951847, 34.752993303998473 ] } },
{ "type": "Feature", "properties": { "id": "13_4", "growth_scenario": "moderate", "market_gravity_weight": 0 }, "geometry": { "type": "Point", "coordinates": [ -85.266949294600238, 34.669740699806596 ] } },
{ "type": "Feature", "properties": { "id": "13_5", "growth_scenario": "moderate", "market_gravity_weight": 0 }, "geometry": { "type": "Point", "coordinates": [ -85.301836163758324, 34.917927410791286 ] } },
{ "type": "Feature", "properties": { "id": "13_6", "growth_scenario": "moderate", "market_gravity_weight": 0 }, "geometry": { "type": "Point", "coordinates": [ -85.269721685243169, 34.703828476134561 ] } },
{ "type": "Feature", "properties": { "id": "13_7", "growth_scenario": "moderate", "market_gravity_weight": 0 }, "geometry": { "type": "Point", "coordinates": [ -85.177747648930833, 34.9361869310465 ] } },
{ "type": "Feature", "properties": { "id": "13_8", "growth_scenario": "moderate", "market_gravity_weight": 0 }, "geometry": { "type": "Point", "coordinates": [ -85.068594371856037, 34.902991056081845 ] } },
{ "type": "Feature", "properties": { "id": "13_9", "growth_scenario": "moderate", "market_gravity_weight": 0 }, "geometry": { "type": "Point", "coordinates": [ -85.099854846514702, 34.98230005191494 ] } },
{ "type": "Feature", "properties": { "id": "17_0", "growth_scenario": "moderate", "market_gravity_weight": 0 }, "geometry": { "type": "Point", "coordinates": [ -87.790740893807836, 38.403237630559566 ] } },
{ "type": "Feature", "properties": { "id": "17_1", "growth_scenario": "moderate", "market_gravity_weight": 0 }, "geometry": { "type": "Point", "coordinates": [ -88.876271386094942, 37.409786741777779 ] } },
{ "type": "Feature", "properties": { "id": "17_10", "growth_scenario": "moderate", "market_gravity_weight": 0 }, "geometry": { "type": "Point", "coordinates": [ -88.768371966322505, 37.189505394957457 ] } },
{ "type": "Feature", "properties": { "id": "17_11", "growth_scenario": "moderate", "market_gravity_weight": 0 }, "geometry": { "type": "Point", "coordinates": [ -89.99782538327112, 38.188706963265425 ] } },
{ "type": "Feature", "properties": { "id": "17_12", "growth_scenario": "moderate", "market_gravity_weight": 0 }, "geometry": { "type": "Point", "coordinates": [ -89.998061844433138, 38.219738930653016 ] } },
{ "type": "Feature", "properties": { "id": "17_13", "growth_scenario": "moderate", "market_gravity_weight": 0 }, "geometry": { "type": "Point", "coordinates": [ -89.991684999740329, 38.188942599095093 ] } },
{ "type": "Feature", "properties": { "id": "17_14", "growth_scenario": "moderate", "market_gravity_weight": 0 }, "geometry": { "type": "Point", "coordinates": [ -89.083183608573691, 37.966592300855865 ] } },
{ "type": "Feature", "properties": { "id": "17_15", "growth_scenario": "moderate", "market_gravity_weight": 0 }, "geometry": { "type": "Point", "coordinates": [ -88.898384263433798, 37.981846806339924 ] } },
{ "type": "Feature", "properties": { "id": "17_2", "growth_scenario": "moderate", "market_gravity_weight": 0 }, "geometry": { "type": "Point", "coordinates": [ -88.877860598411203, 37.438514747687798 ] } },
{ "type": "Feature", "properties": { "id": "17_3", "growth_scenario": "moderate", "market_gravity_weight": 0 }, "geometry": { "type": "Point", "coordinates": [ -88.880980854352032, 37.440577063660633 ] } },
{ "type": "Feature", "properties": { "id": "17_4", "growth_scenario": "moderate", "market_gravity_weight": 0 }, "geometry": { "type": "Point", "coordinates": [ -88.872717359207499, 37.408683025974149 ] } },
{ "type": "Feature", "properties": { "id": "17_5", "growth_scenario": "moderate", "market_gravity_weight": 0 }, "geometry": { "type": "Point", "coordinates": [ -89.233046003038041, 37.470297131868747 ] } },
{ "type": "Feature", "properties": { "id": "17_6", "growth_scenario": "moderate", "market_gravity_weight": 0 }, "geometry": { "type": "Point", "coordinates": [ -88.718001649402765, 37.177441316943231 ] } },
{ "type": "Feature", "properties": { "id": "17_7", "growth_scenario": "moderate", "market_gravity_weight": 0 }, "geometry": { "type": "Point", "coordinates": [ -88.721734025992617, 37.177755673661984 ] } },
{ "type": "Feature", "properties": { "id": "17_8", "growth_scenario": "moderate", "market_gravity_weight": 0 }, "geometry": { "type": "Point", "coordinates": [ -88.758148309886309, 37.175020830727057 ] } },
{ "type": "Feature", "properties": { "id": "17_9", "growth_scenario": "moderate", "market_gravity_weight": 0 }, "geometry": { "type": "Point", "coordinates": [ -88.760588679808762, 37.173377060229157 ] } },
{ "type": "Feature", "properties": { "id": "19_0", "growth_scenario": "moderate", "market_gravity_weight": 0 }, "geometry": { "type": "Point", "coordinates": [ -91.971016759546302, 41.033418398729232 ] } },
{ "type": "Feature", "properties": { "id": "19_1", "growth_scenario": "moderate", "market_gravity_weight": 0 }, "geometry": { "type": "Point", "coordinates": [ -91.971802337362078, 41.036482460014163 ] } },
{ "type": "Feature", "properties": { "id": "19_10", "growth_scenario": "moderate", "market_gravity_weight": 0 }, "geometry": { "type": "Point", "coordinates": [ -95.140171234738119, 43.175638407135018 ] } },
{ "type": "Feature", "properties": { "id": "19_11", "growth_scenario": "moderate", "market_gravity_weight": 0 }, "geometry": { "type": "Point", "coordinates": [ -95.14199665701463, 43.177978542231934 ] } },
{ "type": "Feature", "properties": { "id": "19_12", "growth_scenario": "moderate", "market_gravity_weight": 0 }, "geometry": { "type": "Point", "coordinates": [ -95.139102329279282, 43.122712275473063 ] } },
{ "type": "Feature", "properties": { "id": "19_13", "growth_scenario": "moderate", "market_gravity_weight": 0 }, "geometry": { "type": "Point", "coordinates": [ -91.966131283525286, 41.037018297627711 ] } },
{ "type": "Feature", "properties": { "id": "19_2", "growth_scenario": "moderate", "market_gravity_weight": 0 }, "geometry": { "type": "Point", "coordinates": [ -91.974605380964007, 41.033621132145718 ] } },
{ "type": "Feature", "properties": { "id": "19_3", "growth_scenario": "moderate", "market_gravity_weight": 0 }, "geometry": { "type": "Point", "coordinates": [ -93.611622907606062, 41.888708089656973 ] } },
{ "type": "Feature", "properties": { "id": "19_4", "growth_scenario": "moderate", "market_gravity_weight": 0 }, "geometry": { "type": "Point", "coordinates": [ -91.976950448016439, 41.03458903635812 ] } },
{ "type": "Feature", "properties": { "id": "19_5", "growth_scenario": "moderate", "market_gravity_weight": 0 }, "geometry": { "type": "Point", "coordinates": [ -91.971049416419916, 41.030737753208093 ] } },
{ "type": "Feature", "properties": { "id": "19_6", "growth_scenario": "moderate", "market_gravity_weight": 0 }, "geometry": { "type": "Point", "coordinates": [ -93.608737711983935, 43.078922367549076 ] } },
{ "type": "Feature", "properties": { "id": "19_7", "growth_scenario": "moderate", "market_gravity_weight": 0 }, "geometry": { "type": "Point", "coordinates": [ -92.434374741217781, 40.989303418275846 ] } },
{ "type": "Feature", "properties": { "id": "19_8", "growth_scenario": "moderate", "market_gravity_weight": 0 }, "geometry": { "type": "Point", "coordinates": [ -92.373020450972632, 41.002586470699022 ] } },
{ "type": "Feature", "properties": { "id": "19_9", "growth_scenario": "moderate", "market_gravity_weight": 0 }, "geometry": { "type": "Point", "coordinates": [ -92.435033448964703, 40.985747104286794 ] } },
{ "type": "Feature", "properties": { "id": "21_0", "growth_scenario": "moderate", "market_gravity_weight": 0 }, "geometry": { "type": "Point", "coordinates": [ -88.065809676790579, 37.081912103196458 ] } },
{ "type": "Feature", "properties": { "id": "21_1", "growth_scenario": "moderate", "market_gravity_weight": 0 }, "geometry": { "type": "Point", "coordinates": [ -87.148400276247799, 36.820478212800857 ] } },
{ "type": "Feature", "properties": { "id": "21_2", "growth_scenario": "moderate", "market_gravity_weight": 0 }, "geometry": { "type": "Point", "coordinates": [ -87.9260135799111, 37.764096264271615 ] } },
{ "type": "Feature", "properties": { "id": "25_0", "growth_scenario": "moderate", "market_gravity_weight": 0 }, "geometry": { "type": "Point", "coordinates": [ -72.737223982802533, 42.624060917968784 ] } },
{ "type": "Feature", "properties": { "id": "25_1", "growth_scenario": "moderate", "market_gravity_weight": 0 }, "geometry": { "type": "Point", "coordinates": [ -71.307801095889971, 42.687538043185 ] } },
{ "type": "Feature", "properties": { "id": "26_0", "growth_scenario": "moderate", "market_gravity_weight": 0 }, "geometry": { "type": "Point", "coordinates": [ -84.729351943686154, 45.030584425586916 ] } },
{ "type": "Feature", "properties": { "id": "27_0", "growth_scenario": "moderate", "market_gravity_weight": 0 }, "geometry": { "type": "Point", "coordinates": [ -94.293708499109371, 46.392256386843925 ] } },
{ "type": "Feature", "properties": { "id": "29_0", "growth_scenario": "moderate", "market_gravity_weight": 0 }, "geometry": { "type": "Point", "coordinates": [ -93.013597078169681, 37.114935367015825 ] } },
{ "type": "Feature", "properties": { "id": "29_1", "growth_scenario": "moderate", "market_gravity_weight": 0 }, "geometry": { "type": "Point", "coordinates": [ -93.103061749064267, 40.208961163533445 ] } },
{ "type": "Feature", "properties": { "id": "30_0", "growth_scenario": "moderate", "market_gravity_weight": 0 }, "geometry": { "type": "Point", "coordinates": [ -104.201460858377843, 46.986400625106263 ] } },
{ "type": "Feature", "properties": { "id": "31_0", "growth_scenario": "moderate", "market_gravity_weight": 0 }, "geometry": { "type": "Point", "coordinates": [ -96.135859615642545, 41.0728404408665 ] } },
{ "type": "Feature", "properties": { "id": "31_1", "growth_scenario": "moderate", "market_gravity_weight": 0 }, "geometry": { "type": "Point", "coordinates": [ -95.955181693523315, 41.091213972240794 ] } },
{ "type": "Feature", "properties": { "id": "31_2", "growth_scenario": "moderate", "market_gravity_weight": 0 }, "geometry": { "type": "Point", "coordinates": [ -96.14078525529068, 41.076407591736732 ] } },
{ "type": "Feature", "properties": { "id": "31_3", "growth_scenario": "moderate", "market_gravity_weight": 0 }, "geometry": { "type": "Point", "coordinates": [ -96.141249122694504, 41.128477331258992 ] } },
{ "type": "Feature", "properties": { "id": "31_4", "growth_scenario": "moderate", "market_gravity_weight": 0 }, "geometry": { "type": "Point", "coordinates": [ -96.044240561983614, 41.126761438446749 ] } },
{ "type": "Feature", "properties": { "id": "31_5", "growth_scenario": "moderate", "market_gravity_weight": 0 }, "geometry": { "type": "Point", "coordinates": [ -95.920730596057552, 41.102272144986934 ] } },
{ "type": "Feature", "properties": { "id": "31_6", "growth_scenario": "moderate", "market_gravity_weight": 0 }, "geometry": { "type": "Point", "coordinates": [ -95.975090623216957, 41.120514561057838 ] } },
{ "type": "Feature", "properties": { "id": "31_7", "growth_scenario": "moderate", "market_gravity_weight": 0 }, "geometry": { "type": "Point", "coordinates": [ -96.250725520357705, 41.123575603398535 ] } },
{ "type": "Feature", "properties": { "id": "32_0", "growth_scenario": "moderate", "market_gravity_weight": 0 }, "geometry": { "type": "Point", "coordinates": [ -114.048186670769653, 40.741266360406996 ] } },
{ "type": "Feature", "properties": { "id": "32_1", "growth_scenario": "moderate", "market_gravity_weight": 0 }, "geometry": { "type": "Point", "coordinates": [ -119.934880489214123, 39.505193410142731 ] } },
{ "type": "Feature", "properties": { "id": "32_2", "growth_scenario": "moderate", "market_gravity_weight": 0 }, "geometry": { "type": "Point", "coordinates": [ -119.93152583728282, 39.505665397619687 ] } },
{ "type": "Feature", "properties": { "id": "32_3", "growth_scenario": "moderate", "market_gravity_weight": 0 }, "geometry": { "type": "Point", "coordinates": [ -119.717914180994256, 39.457186308893725 ] } },
{ "type": "Feature", "properties": { "id": "32_4", "growth_scenario": "moderate", "market_gravity_weight": 0 }, "geometry": { "type": "Point", "coordinates": [ -119.736362089383562, 39.572493919919005 ] } },
{ "type": "Feature", "properties": { "id": "32_5", "growth_scenario": "moderate", "market_gravity_weight": 0 }, "geometry": { "type": "Point", "coordinates": [ -119.716395058343636, 39.682077583524112 ] } },
{ "type": "Feature", "properties": { "id": "32_6", "growth_scenario": "moderate", "market_gravity_weight": 0 }, "geometry": { "type": "Point", "coordinates": [ -119.713124527428803, 39.683906935705508 ] } },
{ "type": "Feature", "properties": { "id": "34_0", "growth_scenario": "moderate", "market_gravity_weight": 0 }, "geometry": { "type": "Point", "coordinates": [ -74.84443322527089, 40.51730608959334 ] } },
{ "type": "Feature", "properties": { "id": "34_1", "growth_scenario": "moderate", "market_gravity_weight": 0 }, "geometry": { "type": "Point", "coordinates": [ -75.048444397109392, 40.825530367025152 ] } },
{ "type": "Feature", "properties": { "id": "34_2", "growth_scenario": "moderate", "market_gravity_weight": 0 }, "geometry": { "type": "Point", "coordinates": [ -75.073308871628498, 40.834539642062559 ] } },
{ "type": "Feature", "properties": { "id": "34_3", "growth_scenario": "moderate", "market_gravity_weight": 0 }, "geometry": { "type": "Point", "coordinates": [ -75.051682620251569, 40.826987473112879 ] } },
{ "type": "Feature", "properties": { "id": "34_4", "growth_scenario": "moderate", "market_gravity_weight": 0 }, "geometry": { "type": "Point", "coordinates": [ -74.209542516738793, 40.087778960089985 ] } },
{ "type": "Feature", "properties": { "id": "34_5", "growth_scenario": "moderate", "market_gravity_weight": 0 }, "geometry": { "type": "Point", "coordinates": [ -74.313074806046501, 40.108984020734091 ] } },
{ "type": "Feature", "properties": { "id": "34_6", "growth_scenario": "moderate", "market_gravity_weight": 0 }, "geometry": { "type": "Point", "coordinates": [ -74.278006492192134, 40.034385133844708 ] } },
{ "type": "Feature", "properties": { "id": "34_7", "growth_scenario": "moderate", "market_gravity_weight": 0 }, "geometry": { "type": "Point", "coordinates": [ -74.314223241659292, 40.111567510788063 ] } },
{ "type": "Feature", "properties": { "id": "34_8", "growth_scenario": "moderate", "market_gravity_weight": 0 }, "geometry": { "type": "Point", "coordinates": [ -74.267385249189189, 40.153482196834346 ] } },
{ "type": "Feature", "properties": { "id": "36_0", "growth_scenario": "moderate", "market_gravity_weight": 0 }, "geometry": { "type": "Point", "coordinates": [ -76.126217985426621, 44.075831513078676 ] } },
{ "type": "Feature", "properties": { "id": "36_1", "growth_scenario": "moderate", "market_gravity_weight": 0 }, "geometry": { "type": "Point", "coordinates": [ -75.867530722271738, 43.987730189134879 ] } },
{ "type": "Feature", "properties": { "id": "36_2", "growth_scenario": "moderate", "market_gravity_weight": 0 }, "geometry": { "type": "Point", "coordinates": [ -75.939191448323726, 43.998847445758152 ] } },
{ "type": "Feature", "properties": { "id": "36_3", "growth_scenario": "moderate", "market_gravity_weight": 0 }, "geometry": { "type": "Point", "coordinates": [ -75.870991006064614, 43.987713223782166 ] } },
{ "type": "Feature", "properties": { "id": "36_4", "growth_scenario": "moderate", "market_gravity_weight": 0 }, "geometry": { "type": "Point", "coordinates": [ -75.886462909125811, 44.003120903693528 ] } },
{ "type": "Feature", "properties": { "id": "36_5", "growth_scenario": "moderate", "market_gravity_weight": 0 }, "geometry": { "type": "Point", "coordinates": [ -75.944574823482128, 43.997106221041292 ] } },
{ "type": "Feature", "properties": { "id": "36_6", "growth_scenario": "moderate", "market_gravity_weight": 0 }, "geometry": { "type": "Point", "coordinates": [ -75.950926725498789, 43.988268811579978 ] } },
{ "type": "Feature", "properties": { "id": "36_7", "growth_scenario": "moderate", "market_gravity_weight": 0 }, "geometry": { "type": "Point", "coordinates": [ -75.9629977640069, 43.99883277095703 ] } },
{ "type": "Feature", "properties": { "id": "36_8", "growth_scenario": "moderate", "market_gravity_weight": 0 }, "geometry": { "type": "Point", "coordinates": [ -75.886609562374986, 44.005619928379701 ] } },
{ "type": "Feature", "properties": { "id": "37_0", "growth_scenario": "moderate", "market_gravity_weight": 0 }, "geometry": { "type": "Point", "coordinates": [ -78.031786312452198, 34.81802672799904 ] } },
{ "type": "Feature", "properties": { "id": "37_1", "growth_scenario": "moderate", "market_gravity_weight": 0 }, "geometry": { "type": "Point", "coordinates": [ -78.118037824274211, 35.00262397571295 ] } },
{ "type": "Feature", "properties": { "id": "37_2", "growth_scenario": "moderate", "market_gravity_weight": 0 }, "geometry": { "type": "Point", "coordinates": [ -77.959798045711878, 34.768505328201719 ] } },
{ "type": "Feature", "properties": { "id": "37_3", "growth_scenario": "moderate", "market_gravity_weight": 0 }, "geometry": { "type": "Point", "coordinates": [ -78.11844970928945, 34.981761189016211 ] } },
{ "type": "Feature", "properties": { "id": "37_4", "growth_scenario": "moderate", "market_gravity_weight": 0 }, "geometry": { "type": "Point", "coordinates": [ -77.978660127031787, 34.721468445229405 ] } },
{ "type": "Feature", "properties": { "id": "37_5", "growth_scenario": "moderate", "market_gravity_weight": 0 }, "geometry": { "type": "Point", "coordinates": [ -78.114130775837381, 35.002022042347832 ] } },
{ "type": "Feature", "properties": { "id": "38_0", "growth_scenario": "moderate", "market_gravity_weight": 0 }, "geometry": { "type": "Point", "coordinates": [ -104.039837076545709, 47.879971640629932 ] } },
{ "type": "Feature", "properties": { "id": "38_1", "growth_scenario": "moderate", "market_gravity_weight": 0 }, "geometry": { "type": "Point", "coordinates": [ -103.215864640924849, 47.787449100545409 ] } },
{ "type": "Feature", "properties": { "id": "38_2", "growth_scenario": "moderate", "market_gravity_weight": 0 }, "geometry": { "type": "Point", "coordinates": [ -103.650763476288788, 47.831493269753828 ] } },
{ "type": "Feature", "properties": { "id": "38_3", "growth_scenario": "moderate", "market_gravity_weight": 0 }, "geometry": { "type": "Point", "coordinates": [ -101.842952162760227, 46.416511091536861 ] } },
{ "type": "Feature", "properties": { "id": "38_4", "growth_scenario": "moderate", "market_gravity_weight": 0 }, "geometry": { "type": "Point", "coordinates": [ -101.841507956198541, 46.413409817254262 ] } },
{ "type": "Feature", "properties": { "id": "38_5", "growth_scenario": "moderate", "market_gravity_weight": 0 }, "geometry": { "type": "Point", "coordinates": [ -100.890089320129817, 46.845335278486473 ] } },
{ "type": "Feature", "properties": { "id": "38_6", "growth_scenario": "moderate", "market_gravity_weight": 0 }, "geometry": { "type": "Point", "coordinates": [ -100.881531179572661, 46.798794474982117 ] } },
{ "type": "Feature", "properties": { "id": "38_7", "growth_scenario": "moderate", "market_gravity_weight": 0 }, "geometry": { "type": "Point", "coordinates": [ -100.875046723499295, 46.845237283070624 ] } },
{ "type": "Feature", "properties": { "id": "39_0", "growth_scenario": "moderate", "market_gravity_weight": 0 }, "geometry": { "type": "Point", "coordinates": [ -82.632373125381662, 38.501974749659936 ] } },
{ "type": "Feature", "properties": { "id": "39_1", "growth_scenario": "moderate", "market_gravity_weight": 0 }, "geometry": { "type": "Point", "coordinates": [ -82.150777227796695, 38.863773331943925 ] } },
{ "type": "Feature", "properties": { "id": "39_2", "growth_scenario": "moderate", "market_gravity_weight": 0 }, "geometry": { "type": "Point", "coordinates": [ -83.422007349811153, 38.958236955087379 ] } },
{ "type": "Feature", "properties": { "id": "39_3", "growth_scenario": "moderate", "market_gravity_weight": 0 }, "geometry": { "type": "Point", "coordinates": [ -83.39165038568224, 38.95171709460341 ] } },
{ "type": "Feature", "properties": { "id": "39_4", "growth_scenario": "moderate", "market_gravity_weight": 0 }, "geometry": { "type": "Point", "coordinates": [ -83.569718691741315, 38.945132297932346 ] } },
{ "type": "Feature", "properties": { "id": "40_0", "growth_scenario": "moderate", "market_gravity_weight": 0 }, "geometry": { "type": "Point", "coordinates": [ -101.478630901052611, 36.661793525563205 ] } },
{ "type": "Feature", "properties": { "id": "40_1", "growth_scenario": "moderate", "market_gravity_weight": 0 }, "geometry": { "type": "Point", "coordinates": [ -101.472280504615767, 36.709648478404148 ] } },
{ "type": "Feature", "properties": { "id": "41_0", "growth_scenario": "moderate", "market_gravity_weight": 0 }, "geometry": { "type": "Point", "coordinates": [ -122.741199583492048, 45.33423938707584 ] } },
{ "type": "Feature", "properties": { "id": "41_1", "growth_scenario": "moderate", "market_gravity_weight": 0 }, "geometry": { "type": "Point", "coordinates": [ -122.606809254428285, 45.144283900706625 ] } },
{ "type": "Feature", "properties": { "id": "41_10", "growth_scenario": "moderate", "market_gravity_weight": 0 }, "geometry": { "type": "Point", "coordinates": [ -122.584287211753661, 45.218824129239806 ] } },
{ "type": "Feature", "properties": { "id": "41_11", "growth_scenario": "moderate", "market_gravity_weight": 0 }, "geometry": { "type": "Point", "coordinates": [ -122.581642449455927, 45.191483943022334 ] } },
{ "type": "Feature", "properties": { "id": "41_12", "growth_scenario": "moderate", "market_gravity_weight": 0 }, "geometry": { "type": "Point", "coordinates": [ -122.612644982799438, 45.143005014672156 ] } },
{ "type": "Feature", "properties": { "id": "41_13", "growth_scenario": "moderate", "market_gravity_weight": 0 }, "geometry": { "type": "Point", "coordinates": [ -122.480534922009312, 45.456938915796755 ] } },
{ "type": "Feature", "properties": { "id": "41_2", "growth_scenario": "moderate", "market_gravity_weight": 0 }, "geometry": { "type": "Point", "coordinates": [ -122.482749049685651, 45.459113321967237 ] } },
{ "type": "Feature", "properties": { "id": "41_3", "growth_scenario": "moderate", "market_gravity_weight": 0 }, "geometry": { "type": "Point", "coordinates": [ -122.378282335469052, 45.43856193553345 ] } },
{ "type": "Feature", "properties": { "id": "41_4", "growth_scenario": "moderate", "market_gravity_weight": 0 }, "geometry": { "type": "Point", "coordinates": [ -122.611533806222482, 45.146130458649012 ] } },
{ "type": "Feature", "properties": { "id": "41_5", "growth_scenario": "moderate", "market_gravity_weight": 0 }, "geometry": { "type": "Point", "coordinates": [ -122.358711196229777, 45.354382596592586 ] } },
{ "type": "Feature", "properties": { "id": "41_6", "growth_scenario": "moderate", "market_gravity_weight": 0 }, "geometry": { "type": "Point", "coordinates": [ -122.584382149267554, 45.188122121802003 ] } },
{ "type": "Feature", "properties": { "id": "41_7", "growth_scenario": "moderate", "market_gravity_weight": 0 }, "geometry": { "type": "Point", "coordinates": [ -122.741504217298157, 45.319760157123739 ] } },
{ "type": "Feature", "properties": { "id": "41_8", "growth_scenario": "moderate", "market_gravity_weight": 0 }, "geometry": { "type": "Point", "coordinates": [ -122.280515591350024, 45.431754049117352 ] } },
{ "type": "Feature", "properties": { "id": "41_9", "growth_scenario": "moderate", "market_gravity_weight": 0 }, "geometry": { "type": "Point", "coordinates": [ -122.609722197061544, 45.148836919898194 ] } },
{ "type": "Feature", "properties": { "id": "42_0", "growth_scenario": "moderate", "market_gravity_weight": 0 }, "geometry": { "type": "Point", "coordinates": [ -80.220138814887605, 40.254381138822339 ] } },
{ "type": "Feature", "properties": { "id": "42_1", "growth_scenario": "moderate", "market_gravity_weight": 0 }, "geometry": { "type": "Point", "coordinates": [ -79.930605552527467, 39.858330171725683 ] } },
{ "type": "Feature", "properties": { "id": "42_2", "growth_scenario": "moderate", "market_gravity_weight": 0 }, "geometry": { "type": "Point", "coordinates": [ -79.927645296192679, 39.857132908112554 ] } },
{ "type": "Feature", "properties": { "id": "42_3", "growth_scenario": "moderate", "market_gravity_weight": 0 }, "geometry": { "type": "Point", "coordinates": [ -79.787431290149755, 40.558899509232027 ] } },
{ "type": "Feature", "properties": { "id": "42_4", "growth_scenario": "moderate", "market_gravity_weight": 0 }, "geometry": { "type": "Point", "coordinates": [ -80.306140106600296, 40.507825423603244 ] } },
{ "type": "Feature", "properties": { "id": "42_5", "growth_scenario": "moderate", "market_gravity_weight": 0 }, "geometry": { "type": "Point", "coordinates": [ -79.755179132155675, 40.62023360228654 ] } },
{ "type": "Feature", "properties": { "id": "42_6", "growth_scenario": "moderate", "market_gravity_weight": 0 }, "geometry": { "type": "Point", "coordinates": [ -80.274666600874951, 40.489857647242992 ] } },
{ "type": "Feature", "properties": { "id": "42_7", "growth_scenario": "moderate", "market_gravity_weight": 0 }, "geometry": { "type": "Point", "coordinates": [ -80.304535747937152, 40.505271696909034 ] } },
{ "type": "Feature", "properties": { "id": "42_8", "growth_scenario": "moderate", "market_gravity_weight": 0 }, "geometry": { "type": "Point", "coordinates": [ -79.787622128726625, 40.562276074096786 ] } },
{ "type": "Feature", "properties": { "id": "42_9", "growth_scenario": "moderate", "market_gravity_weight": 0 }, "geometry": { "type": "Point", "coordinates": [ -80.222790358541758, 40.254353552664782 ] } },
{ "type": "Feature", "properties": { "id": "45_0", "growth_scenario": "moderate", "market_gravity_weight": 0 }, "geometry": { "type": "Point", "coordinates": [ -82.687484792192933, 34.894311716971188 ] } },
{ "type": "Feature", "properties": { "id": "45_1", "growth_scenario": "moderate", "market_gravity_weight": 0 }, "geometry": { "type": "Point", "coordinates": [ -82.683931530450025, 34.896162500773563 ] } },
{ "type": "Feature", "properties": { "id": "45_2", "growth_scenario": "moderate", "market_gravity_weight": 0 }, "geometry": { "type": "Point", "coordinates": [ -82.632968648383439, 34.832005499156018 ] } },
{ "type": "Feature", "properties": { "id": "45_3", "growth_scenario": "moderate", "market_gravity_weight": 0 }, "geometry": { "type": "Point", "coordinates": [ -82.795849234732088, 34.716362514486576 ] } },
{ "type": "Feature", "properties": { "id": "47_0", "growth_scenario": "moderate", "market_gravity_weight": 0 }, "geometry": { "type": "Point", "coordinates": [ -82.445898272927764, 36.526857597202259 ] } },
{ "type": "Feature", "properties": { "id": "47_1", "growth_scenario": "moderate", "market_gravity_weight": 0 }, "geometry": { "type": "Point", "coordinates": [ -82.267991777109089, 36.559168826033712 ] } },
{ "type": "Feature", "properties": { "id": "47_2", "growth_scenario": "moderate", "market_gravity_weight": 0 }, "geometry": { "type": "Point", "coordinates": [ -82.516866105983496, 36.560155276053038 ] } },
{ "type": "Feature", "properties": { "id": "48_0", "growth_scenario": "moderate", "market_gravity_weight": 0 }, "geometry": { "type": "Point", "coordinates": [ -96.095831061778256, 30.370354444410154 ] } },
{ "type": "Feature", "properties": { "id": "48_1", "growth_scenario": "moderate", "market_gravity_weight": 0 }, "geometry": { "type": "Point", "coordinates": [ -94.928876523211727, 29.856583894449919 ] } },
{ "type": "Feature", "properties": { "id": "48_10", "growth_scenario": "moderate", "market_gravity_weight": 0 }, "geometry": { "type": "Point", "coordinates": [ -93.969730640550523, 29.925363751506083 ] } },
{ "type": "Feature", "properties": { "id": "48_11", "growth_scenario": "moderate", "market_gravity_weight": 0 }, "geometry": { "type": "Point", "coordinates": [ -94.226782869714469, 30.078548059269167 ] } },
{ "type": "Feature", "properties": { "id": "48_12", "growth_scenario": "moderate", "market_gravity_weight": 0 }, "geometry": { "type": "Point", "coordinates": [ -93.957404885685293, 29.941631070227551 ] } },
{ "type": "Feature", "properties": { "id": "48_13", "growth_scenario": "moderate", "market_gravity_weight": 0 }, "geometry": { "type": "Point", "coordinates": [ -94.135191776565691, 30.03620293128607 ] } },
{ "type": "Feature", "properties": { "id": "48_14", "growth_scenario": "moderate", "market_gravity_weight": 0 }, "geometry": { "type": "Point", "coordinates": [ -94.066543275387062, 30.050513068937359 ] } },
{ "type": "Feature", "properties": { "id": "48_15", "growth_scenario": "moderate", "market_gravity_weight": 0 }, "geometry": { "type": "Point", "coordinates": [ -94.23421453164238, 30.080740715575516 ] } },
{ "type": "Feature", "properties": { "id": "48_16", "growth_scenario": "moderate", "market_gravity_weight": 0 }, "geometry": { "type": "Point", "coordinates": [ -93.960192466084777, 29.942133853297754 ] } },
{ "type": "Feature", "properties": { "id": "48_17", "growth_scenario": "moderate", "market_gravity_weight": 0 }, "geometry": { "type": "Point", "coordinates": [ -93.892047735222647, 29.946610356484634 ] } },
{ "type": "Feature", "properties": { "id": "48_18", "growth_scenario": "moderate", "market_gravity_weight": 0 }, "geometry": { "type": "Point", "coordinates": [ -94.066128379659418, 30.054921683131386 ] } },
{ "type": "Feature", "properties": { "id": "48_19", "growth_scenario": "moderate", "market_gravity_weight": 0 }, "geometry": { "type": "Point", "coordinates": [ -94.054434506620723, 29.978375437171483 ] } },
{ "type": "Feature", "properties": { "id": "48_2", "growth_scenario": "moderate", "market_gravity_weight": 0 }, "geometry": { "type": "Point", "coordinates": [ -94.930519768936477, 29.849658542596959 ] } },
{ "type": "Feature", "properties": { "id": "48_20", "growth_scenario": "moderate", "market_gravity_weight": 0 }, "geometry": { "type": "Point", "coordinates": [ -94.04744373845557, 29.966893491539437 ] } },
{ "type": "Feature", "properties": { "id": "48_21", "growth_scenario": "moderate", "market_gravity_weight": 0 }, "geometry": { "type": "Point", "coordinates": [ -94.223560143052907, 30.078676063604178 ] } },
{ "type": "Feature", "properties": { "id": "48_22", "growth_scenario": "moderate", "market_gravity_weight": 0 }, "geometry": { "type": "Point", "coordinates": [ -94.158948986217226, 30.1578939601111 ] } },
{ "type": "Feature", "properties": { "id": "48_23", "growth_scenario": "moderate", "market_gravity_weight": 0 }, "geometry": { "type": "Point", "coordinates": [ -94.057130617181073, 29.982840028191987 ] } },
{ "type": "Feature", "properties": { "id": "48_24", "growth_scenario": "moderate", "market_gravity_weight": 0 }, "geometry": { "type": "Point", "coordinates": [ -96.085207545211546, 30.075748124036309 ] } },
{ "type": "Feature", "properties": { "id": "48_25", "growth_scenario": "moderate", "market_gravity_weight": 0 }, "geometry": { "type": "Point", "coordinates": [ -95.808051946136231, 30.158225561530401 ] } },
{ "type": "Feature", "properties": { "id": "48_26", "growth_scenario": "moderate", "market_gravity_weight": 0 }, "geometry": { "type": "Point", "coordinates": [ -95.812207975883226, 30.159133573198549 ] } },
{ "type": "Feature", "properties": { "id": "48_27", "growth_scenario": "moderate", "market_gravity_weight": 0 }, "geometry": { "type": "Point", "coordinates": [ -96.082298804517592, 30.07475926879026 ] } },
{ "type": "Feature", "properties": { "id": "48_28", "growth_scenario": "moderate", "market_gravity_weight": 0 }, "geometry": { "type": "Point", "coordinates": [ -95.98426561738016, 30.082897819189323 ] } },
{ "type": "Feature", "properties": { "id": "48_29", "growth_scenario": "moderate", "market_gravity_weight": 0 }, "geometry": { "type": "Point", "coordinates": [ -95.80804354726034, 30.161828801076137 ] } },
{ "type": "Feature", "properties": { "id": "48_3", "growth_scenario": "moderate", "market_gravity_weight": 0 }, "geometry": { "type": "Point", "coordinates": [ -94.926149278244523, 29.851238332187478 ] } },
{ "type": "Feature", "properties": { "id": "48_30", "growth_scenario": "moderate", "market_gravity_weight": 0 }, "geometry": { "type": "Point", "coordinates": [ -93.762022941515454, 30.148257877485527 ] } },
{ "type": "Feature", "properties": { "id": "48_31", "growth_scenario": "moderate", "market_gravity_weight": 0 }, "geometry": { "type": "Point", "coordinates": [ -93.798526229160998, 30.112862399165881 ] } },
{ "type": "Feature", "properties": { "id": "48_32", "growth_scenario": "moderate", "market_gravity_weight": 0 }, "geometry": { "type": "Point", "coordinates": [ -93.771481074582383, 30.075366847415644 ] } },
{ "type": "Feature", "properties": { "id": "48_33", "growth_scenario": "moderate", "market_gravity_weight": 0 }, "geometry": { "type": "Point", "coordinates": [ -93.765573020527086, 30.147699531372101 ] } },
{ "type": "Feature", "properties": { "id": "48_34", "growth_scenario": "moderate", "market_gravity_weight": 0 }, "geometry": { "type": "Point", "coordinates": [ -95.779396486601513, 29.912090984890764 ] } },
{ "type": "Feature", "properties": { "id": "48_35", "growth_scenario": "moderate", "market_gravity_weight": 0 }, "geometry": { "type": "Point", "coordinates": [ -95.45591909507921, 29.991710809621519 ] } },
{ "type": "Feature", "properties": { "id": "48_36", "growth_scenario": "moderate", "market_gravity_weight": 0 }, "geometry": { "type": "Point", "coordinates": [ -95.859851537742315, 30.017664682231519 ] } },
{ "type": "Feature", "properties": { "id": "48_37", "growth_scenario": "moderate", "market_gravity_weight": 0 }, "geometry": { "type": "Point", "coordinates": [ -95.04021371069507, 29.643197613760222 ] } },
{ "type": "Feature", "properties": { "id": "48_38", "growth_scenario": "moderate", "market_gravity_weight": 0 }, "geometry": { "type": "Point", "coordinates": [ -95.229564821062041, 29.756342341687507 ] } },
{ "type": "Feature", "properties": { "id": "48_39", "growth_scenario": "moderate", "market_gravity_weight": 0 }, "geometry": { "type": "Point", "coordinates": [ -95.056356674433403, 29.84973690738704 ] } },
{ "type": "Feature", "properties": { "id": "48_4", "growth_scenario": "moderate", "market_gravity_weight": 0 }, "geometry": { "type": "Point", "coordinates": [ -94.924750271877784, 29.85528126188591 ] } },
{ "type": "Feature", "properties": { "id": "48_40", "growth_scenario": "moderate", "market_gravity_weight": 0 }, "geometry": { "type": "Point", "coordinates": [ -95.114793514135641, 29.876548662255694 ] } },
{ "type": "Feature", "properties": { "id": "48_41", "growth_scenario": "moderate", "market_gravity_weight": 0 }, "geometry": { "type": "Point", "coordinates": [ -95.121772350393343, 29.814492667417408 ] } },
{ "type": "Feature", "properties": { "id": "48_42", "growth_scenario": "moderate", "market_gravity_weight": 0 }, "geometry": { "type": "Point", "coordinates": [ -95.151863848802691, 29.524786780329499 ] } },
{ "type": "Feature", "properties": { "id": "48_43", "growth_scenario": "moderate", "market_gravity_weight": 0 }, "geometry": { "type": "Point", "coordinates": [ -95.087026226570799, 29.632687085356064 ] } },
{ "type": "Feature", "properties": { "id": "48_44", "growth_scenario": "moderate", "market_gravity_weight": 0 }, "geometry": { "type": "Point", "coordinates": [ -95.041821929636285, 29.65601874297576 ] } },
{ "type": "Feature", "properties": { "id": "48_45", "growth_scenario": "moderate", "market_gravity_weight": 0 }, "geometry": { "type": "Point", "coordinates": [ -95.459760457053775, 29.991279263895805 ] } },
{ "type": "Feature", "properties": { "id": "48_46", "growth_scenario": "moderate", "market_gravity_weight": 0 }, "geometry": { "type": "Point", "coordinates": [ -95.320350301745904, 29.912994251796434 ] } },
{ "type": "Feature", "properties": { "id": "48_47", "growth_scenario": "moderate", "market_gravity_weight": 0 }, "geometry": { "type": "Point", "coordinates": [ -95.216064268881226, 29.816472940645035 ] } },
{ "type": "Feature", "properties": { "id": "48_48", "growth_scenario": "moderate", "market_gravity_weight": 0 }, "geometry": { "type": "Point", "coordinates": [ -95.071569761523136, 29.693883319822618 ] } },
{ "type": "Feature", "properties": { "id": "48_5", "growth_scenario": "moderate", "market_gravity_weight": 0 }, "geometry": { "type": "Point", "coordinates": [ -94.884575596324808, 29.846584450060679 ] } },
{ "type": "Feature", "properties": { "id": "48_6", "growth_scenario": "moderate", "market_gravity_weight": 0 }, "geometry": { "type": "Point", "coordinates": [ -94.055633924037252, 30.055186424194552 ] } },
{ "type": "Feature", "properties": { "id": "48_7", "growth_scenario": "moderate", "market_gravity_weight": 0 }, "geometry": { "type": "Point", "coordinates": [ -94.199788840490598, 30.158842340082781 ] } },
{ "type": "Feature", "properties": { "id": "48_8", "growth_scenario": "moderate", "market_gravity_weight": 0 }, "geometry": { "type": "Point", "coordinates": [ -94.103725470647589, 30.018538450767178 ] } },
{ "type": "Feature", "properties": { "id": "48_9", "growth_scenario": "moderate", "market_gravity_weight": 0 }, "geometry": { "type": "Point", "coordinates": [ -94.051115408122826, 29.965156210165443 ] } },
{ "type": "Feature", "properties": { "id": "49_0", "growth_scenario": "moderate", "market_gravity_weight": 0 }, "geometry": { "type": "Point", "coordinates": [ -109.466534692219241, 40.397447611411799 ] } },
{ "type": "Feature", "properties": { "id": "49_1", "growth_scenario": "moderate", "market_gravity_weight": 0 }, "geometry": { "type": "Point", "coordinates": [ -109.586916389549188, 40.461238136151593 ] } },
{ "type": "Feature", "properties": { "id": "49_2", "growth_scenario": "moderate", "market_gravity_weight": 0 }, "geometry": { "type": "Point", "coordinates": [ -109.583776127326871, 40.464914481457896 ] } },
{ "type": "Feature", "properties": { "id": "49_3", "growth_scenario": "moderate", "market_gravity_weight": 0 }, "geometry": { "type": "Point", "coordinates": [ -111.278091583215286, 40.707961383203013 ] } },
{ "type": "Feature", "properties": { "id": "49_4", "growth_scenario": "moderate", "market_gravity_weight": 0 }, "geometry": { "type": "Point", "coordinates": [ -111.556149931628013, 40.732730017749795 ] } },
{ "type": "Feature", "properties": { "id": "51_0", "growth_scenario": "moderate", "market_gravity_weight": 0 }, "geometry": { "type": "Point", "coordinates": [ -81.130848942827328, 37.094834439331841 ] } },
{ "type": "Feature", "properties": { "id": "51_1", "growth_scenario": "moderate", "market_gravity_weight": 0 }, "geometry": { "type": "Point", "coordinates": [ -81.003651438573357, 36.962602251327496 ] } },
{ "type": "Feature", "properties": { "id": "51_10", "growth_scenario": "moderate", "market_gravity_weight": 0 }, "geometry": { "type": "Point", "coordinates": [ -79.234937090865373, 37.397538924803001 ] } },
{ "type": "Feature", "properties": { "id": "51_11", "growth_scenario": "moderate", "market_gravity_weight": 0 }, "geometry": { "type": "Point", "coordinates": [ -79.121112178839383, 37.39175822074062 ] } },
{ "type": "Feature", "properties": { "id": "51_12", "growth_scenario": "moderate", "market_gravity_weight": 0 }, "geometry": { "type": "Point", "coordinates": [ -79.231905748570213, 37.432193566973297 ] } },
{ "type": "Feature", "properties": { "id": "51_13", "growth_scenario": "moderate", "market_gravity_weight": 0 }, "geometry": { "type": "Point", "coordinates": [ -79.915567266086171, 37.339459159962544 ] } },
{ "type": "Feature", "properties": { "id": "51_14", "growth_scenario": "moderate", "market_gravity_weight": 0 }, "geometry": { "type": "Point", "coordinates": [ -79.920046478258897, 37.339062700665501 ] } },
{ "type": "Feature", "properties": { "id": "51_15", "growth_scenario": "moderate", "market_gravity_weight": 0 }, "geometry": { "type": "Point", "coordinates": [ -81.711804561315063, 36.792044623007868 ] } },
{ "type": "Feature", "properties": { "id": "51_16", "growth_scenario": "moderate", "market_gravity_weight": 0 }, "geometry": { "type": "Point", "coordinates": [ -81.932540006974648, 36.721388159903597 ] } },
{ "type": "Feature", "properties": { "id": "51_17", "growth_scenario": "moderate", "market_gravity_weight": 0 }, "geometry": { "type": "Point", "coordinates": [ -81.937527443886538, 36.719177873041545 ] } },
{ "type": "Feature", "properties": { "id": "51_18", "growth_scenario": "moderate", "market_gravity_weight": 0 }, "geometry": { "type": "Point", "coordinates": [ -81.126521264192988, 37.096917979560949 ] } },
{ "type": "Feature", "properties": { "id": "51_19", "growth_scenario": "moderate", "market_gravity_weight": 0 }, "geometry": { "type": "Point", "coordinates": [ -81.060908099654782, 36.951326247000686 ] } },
{ "type": "Feature", "properties": { "id": "51_2", "growth_scenario": "moderate", "market_gravity_weight": 0 }, "geometry": { "type": "Point", "coordinates": [ -81.063655210734794, 36.933686855103737 ] } },
{ "type": "Feature", "properties": { "id": "51_20", "growth_scenario": "moderate", "market_gravity_weight": 0 }, "geometry": { "type": "Point", "coordinates": [ -81.006361507556889, 36.959417238556277 ] } },
{ "type": "Feature", "properties": { "id": "51_21", "growth_scenario": "moderate", "market_gravity_weight": 0 }, "geometry": { "type": "Point", "coordinates": [ -82.475419164919273, 36.952114768444488 ] } },
{ "type": "Feature", "properties": { "id": "51_22", "growth_scenario": "moderate", "market_gravity_weight": 0 }, "geometry": { "type": "Point", "coordinates": [ -81.750310940440926, 36.898641612792034 ] } },
{ "type": "Feature", "properties": { "id": "51_23", "growth_scenario": "moderate", "market_gravity_weight": 0 }, "geometry": { "type": "Point", "coordinates": [ -81.525593360297847, 36.821105897168088 ] } },
{ "type": "Feature", "properties": { "id": "51_24", "growth_scenario": "moderate", "market_gravity_weight": 0 }, "geometry": { "type": "Point", "coordinates": [ -80.991530465723713, 36.716067891542735 ] } },
{ "type": "Feature", "properties": { "id": "51_25", "growth_scenario": "moderate", "market_gravity_weight": 0 }, "geometry": { "type": "Point", "coordinates": [ -80.443741406980848, 37.220530636560831 ] } },
{ "type": "Feature", "properties": { "id": "51_26", "growth_scenario": "moderate", "market_gravity_weight": 0 }, "geometry": { "type": "Point", "coordinates": [ -80.446245736187933, 37.229447541033174 ] } },
{ "type": "Feature", "properties": { "id": "51_27", "growth_scenario": "moderate", "market_gravity_weight": 0 }, "geometry": { "type": "Point", "coordinates": [ -80.3841746884099, 37.275393261851214 ] } },
{ "type": "Feature", "properties": { "id": "51_28", "growth_scenario": "moderate", "market_gravity_weight": 0 }, "geometry": { "type": "Point", "coordinates": [ -80.386326299130317, 37.205750454888481 ] } },
{ "type": "Feature", "properties": { "id": "51_29", "growth_scenario": "moderate", "market_gravity_weight": 0 }, "geometry": { "type": "Point", "coordinates": [ -80.387151518849933, 37.122726451951856 ] } },
{ "type": "Feature", "properties": { "id": "51_3", "growth_scenario": "moderate", "market_gravity_weight": 0 }, "geometry": { "type": "Point", "coordinates": [ -81.255364450870189, 36.888617851203414 ] } },
{ "type": "Feature", "properties": { "id": "51_30", "growth_scenario": "moderate", "market_gravity_weight": 0 }, "geometry": { "type": "Point", "coordinates": [ -79.190516791311154, 37.45913744140524 ] } },
{ "type": "Feature", "properties": { "id": "51_31", "growth_scenario": "moderate", "market_gravity_weight": 0 }, "geometry": { "type": "Point", "coordinates": [ -79.229818848309662, 37.428639502898207 ] } },
{ "type": "Feature", "properties": { "id": "51_32", "growth_scenario": "moderate", "market_gravity_weight": 0 }, "geometry": { "type": "Point", "coordinates": [ -79.217454863418894, 37.385309516750624 ] } },
{ "type": "Feature", "properties": { "id": "51_33", "growth_scenario": "moderate", "market_gravity_weight": 0 }, "geometry": { "type": "Point", "coordinates": [ -79.118352505935903, 37.389647997982699 ] } },
{ "type": "Feature", "properties": { "id": "51_34", "growth_scenario": "moderate", "market_gravity_weight": 0 }, "geometry": { "type": "Point", "coordinates": [ -79.128757752975588, 37.383675489198325 ] } },
{ "type": "Feature", "properties": { "id": "51_35", "growth_scenario": "moderate", "market_gravity_weight": 0 }, "geometry": { "type": "Point", "coordinates": [ -79.224862014433711, 37.431573648137828 ] } },
{ "type": "Feature", "properties": { "id": "51_36", "growth_scenario": "moderate", "market_gravity_weight": 0 }, "geometry": { "type": "Point", "coordinates": [ -79.165422513069373, 37.378846423104783 ] } },
{ "type": "Feature", "properties": { "id": "51_37", "growth_scenario": "moderate", "market_gravity_weight": 0 }, "geometry": { "type": "Point", "coordinates": [ -79.123595568216729, 37.382950488507213 ] } },
{ "type": "Feature", "properties": { "id": "51_38", "growth_scenario": "moderate", "market_gravity_weight": 0 }, "geometry": { "type": "Point", "coordinates": [ -78.852966341199732, 37.359943863035532 ] } },
{ "type": "Feature", "properties": { "id": "51_39", "growth_scenario": "moderate", "market_gravity_weight": 0 }, "geometry": { "type": "Point", "coordinates": [ -79.913714643262139, 37.342651297088238 ] } },
{ "type": "Feature", "properties": { "id": "51_4", "growth_scenario": "moderate", "market_gravity_weight": 0 }, "geometry": { "type": "Point", "coordinates": [ -81.058574696175413, 36.943534863175316 ] } },
{ "type": "Feature", "properties": { "id": "51_40", "growth_scenario": "moderate", "market_gravity_weight": 0 }, "geometry": { "type": "Point", "coordinates": [ -79.916569728117992, 37.247977504732049 ] } },
{ "type": "Feature", "properties": { "id": "51_41", "growth_scenario": "moderate", "market_gravity_weight": 0 }, "geometry": { "type": "Point", "coordinates": [ -79.028947416433894, 37.593939957451809 ] } },
{ "type": "Feature", "properties": { "id": "51_42", "growth_scenario": "moderate", "market_gravity_weight": 0 }, "geometry": { "type": "Point", "coordinates": [ -78.219387386833858, 38.127034221190456 ] } },
{ "type": "Feature", "properties": { "id": "51_43", "growth_scenario": "moderate", "market_gravity_weight": 0 }, "geometry": { "type": "Point", "coordinates": [ -78.5282447256469, 38.070005141355523 ] } },
{ "type": "Feature", "properties": { "id": "51_44", "growth_scenario": "moderate", "market_gravity_weight": 0 }, "geometry": { "type": "Point", "coordinates": [ -78.418837687758653, 38.12025894260902 ] } },
{ "type": "Feature", "properties": { "id": "51_45", "growth_scenario": "moderate", "market_gravity_weight": 0 }, "geometry": { "type": "Point", "coordinates": [ -79.868564322021669, 37.333430964944874 ] } },
{ "type": "Feature", "properties": { "id": "51_46", "growth_scenario": "moderate", "market_gravity_weight": 0 }, "geometry": { "type": "Point", "coordinates": [ -79.891120190296519, 37.369862718243553 ] } },
{ "type": "Feature", "properties": { "id": "51_47", "growth_scenario": "moderate", "market_gravity_weight": 0 }, "geometry": { "type": "Point", "coordinates": [ -82.061794194400946, 36.685740735362906 ] } },
{ "type": "Feature", "properties": { "id": "51_48", "growth_scenario": "moderate", "market_gravity_weight": 0 }, "geometry": { "type": "Point", "coordinates": [ -82.101450833945805, 36.661040543210838 ] } },
{ "type": "Feature", "properties": { "id": "51_49", "growth_scenario": "moderate", "market_gravity_weight": 0 }, "geometry": { "type": "Point", "coordinates": [ -81.938125936013179, 36.724482541415689 ] } },
{ "type": "Feature", "properties": { "id": "51_5", "growth_scenario": "moderate", "market_gravity_weight": 0 }, "geometry": { "type": "Point", "coordinates": [ -81.754736316541155, 36.898265675201891 ] } },
{ "type": "Feature", "properties": { "id": "51_50", "growth_scenario": "moderate", "market_gravity_weight": 0 }, "geometry": { "type": "Point", "coordinates": [ -82.005624091962545, 36.724017239901507 ] } },
{ "type": "Feature", "properties": { "id": "51_51", "growth_scenario": "moderate", "market_gravity_weight": 0 }, "geometry": { "type": "Point", "coordinates": [ -79.389102614663543, 36.851460718897734 ] } },
{ "type": "Feature", "properties": { "id": "51_52", "growth_scenario": "moderate", "market_gravity_weight": 0 }, "geometry": { "type": "Point", "coordinates": [ -79.39051870886837, 36.85437687820329 ] } },
{ "type": "Feature", "properties": { "id": "51_53", "growth_scenario": "moderate", "market_gravity_weight": 0 }, "geometry": { "type": "Point", "coordinates": [ -79.385109069248358, 36.850813995314383 ] } },
{ "type": "Feature", "properties": { "id": "51_54", "growth_scenario": "moderate", "market_gravity_weight": 0 }, "geometry": { "type": "Point", "coordinates": [ -79.385784001540458, 36.853445750163417 ] } },
{ "type": "Feature", "properties": { "id": "51_55", "growth_scenario": "moderate", "market_gravity_weight": 0 }, "geometry": { "type": "Point", "coordinates": [ -79.314931806923738, 37.095268276693538 ] } },
{ "type": "Feature", "properties": { "id": "51_56", "growth_scenario": "moderate", "market_gravity_weight": 0 }, "geometry": { "type": "Point", "coordinates": [ -79.388106449555622, 36.84769665489987 ] } },
{ "type": "Feature", "properties": { "id": "51_57", "growth_scenario": "moderate", "market_gravity_weight": 0 }, "geometry": { "type": "Point", "coordinates": [ -79.31598141645047, 37.092151677228706 ] } },
{ "type": "Feature", "properties": { "id": "51_58", "growth_scenario": "moderate", "market_gravity_weight": 0 }, "geometry": { "type": "Point", "coordinates": [ -81.25341715891976, 36.886300080033671 ] } },
{ "type": "Feature", "properties": { "id": "51_59", "growth_scenario": "moderate", "market_gravity_weight": 0 }, "geometry": { "type": "Point", "coordinates": [ -81.258137562819599, 36.88850793297523 ] } },
{ "type": "Feature", "properties": { "id": "51_6", "growth_scenario": "moderate", "market_gravity_weight": 0 }, "geometry": { "type": "Point", "coordinates": [ -81.42125147699042, 36.858098543915638 ] } },
{ "type": "Feature", "properties": { "id": "51_60", "growth_scenario": "moderate", "market_gravity_weight": 0 }, "geometry": { "type": "Point", "coordinates": [ -81.251764738874741, 36.894046010942255 ] } },
{ "type": "Feature", "properties": { "id": "51_61", "growth_scenario": "moderate", "market_gravity_weight": 0 }, "geometry": { "type": "Point", "coordinates": [ -81.420118765605181, 36.854528554768414 ] } },
{ "type": "Feature", "properties": { "id": "51_62", "growth_scenario": "moderate", "market_gravity_weight": 0 }, "geometry": { "type": "Point", "coordinates": [ -79.858646878985255, 36.732485498076194 ] } },
{ "type": "Feature", "properties": { "id": "51_63", "growth_scenario": "moderate", "market_gravity_weight": 0 }, "geometry": { "type": "Point", "coordinates": [ -79.897313654996125, 36.660923816480228 ] } },
{ "type": "Feature", "properties": { "id": "51_64", "growth_scenario": "moderate", "market_gravity_weight": 0 }, "geometry": { "type": "Point", "coordinates": [ -79.854772133730037, 36.628898169475654 ] } },
{ "type": "Feature", "properties": { "id": "51_65", "growth_scenario": "moderate", "market_gravity_weight": 0 }, "geometry": { "type": "Point", "coordinates": [ -79.885963852321083, 36.622348661805205 ] } },
{ "type": "Feature", "properties": { "id": "51_66", "growth_scenario": "moderate", "market_gravity_weight": 0 }, "geometry": { "type": "Point", "coordinates": [ -79.859178839935623, 36.727395542726519 ] } },
{ "type": "Feature", "properties": { "id": "51_67", "growth_scenario": "moderate", "market_gravity_weight": 0 }, "geometry": { "type": "Point", "coordinates": [ -80.98884632955712, 36.719164806290692 ] } },
{ "type": "Feature", "properties": { "id": "51_68", "growth_scenario": "moderate", "market_gravity_weight": 0 }, "geometry": { "type": "Point", "coordinates": [ -80.444542615956749, 37.218915937950911 ] } },
{ "type": "Feature", "properties": { "id": "51_69", "growth_scenario": "moderate", "market_gravity_weight": 0 }, "geometry": { "type": "Point", "coordinates": [ -79.142606780739186, 37.393506391693073 ] } },
{ "type": "Feature", "properties": { "id": "51_7", "growth_scenario": "moderate", "market_gravity_weight": 0 }, "geometry": { "type": "Point", "coordinates": [ -79.153528279701689, 37.38678850740618 ] } },
{ "type": "Feature", "properties": { "id": "51_70", "growth_scenario": "moderate", "market_gravity_weight": 0 }, "geometry": { "type": "Point", "coordinates": [ -79.129549593217277, 37.389316811350248 ] } },
{ "type": "Feature", "properties": { "id": "51_71", "growth_scenario": "moderate", "market_gravity_weight": 0 }, "geometry": { "type": "Point", "coordinates": [ -79.220004346937031, 37.385302991563108 ] } },
{ "type": "Feature", "properties": { "id": "51_72", "growth_scenario": "moderate", "market_gravity_weight": 0 }, "geometry": { "type": "Point", "coordinates": [ -79.184047633570742, 37.330781549677383 ] } },
{ "type": "Feature", "properties": { "id": "51_73", "growth_scenario": "moderate", "market_gravity_weight": 0 }, "geometry": { "type": "Point", "coordinates": [ -78.848694892239365, 37.359878002532092 ] } },
{ "type": "Feature", "properties": { "id": "51_74", "growth_scenario": "moderate", "market_gravity_weight": 0 }, "geometry": { "type": "Point", "coordinates": [ -79.861073195138985, 37.264159235036715 ] } },
{ "type": "Feature", "properties": { "id": "51_75", "growth_scenario": "moderate", "market_gravity_weight": 0 }, "geometry": { "type": "Point", "coordinates": [ -79.915093836674785, 37.336861011136222 ] } },
{ "type": "Feature", "properties": { "id": "51_8", "growth_scenario": "moderate", "market_gravity_weight": 0 }, "geometry": { "type": "Point", "coordinates": [ -79.122435958822308, 37.387501872976117 ] } },
{ "type": "Feature", "properties": { "id": "51_9", "growth_scenario": "moderate", "market_gravity_weight": 0 }, "geometry": { "type": "Point", "coordinates": [ -79.151788227177661, 37.381739857382179 ] } },
{ "type": "Feature", "properties": { "id": "53_0", "growth_scenario": "moderate", "market_gravity_weight": 0 }, "geometry": { "type": "Point", "coordinates": [ -119.905673078024009, 46.693883539390825 ] } },
{ "type": "Feature", "properties": { "id": "53_1", "growth_scenario": "moderate", "market_gravity_weight": 0 }, "geometry": { "type": "Point", "coordinates": [ -119.274403133640277, 47.614055653629485 ] } },
{ "type": "Feature", "properties": { "id": "53_10", "growth_scenario": "moderate", "market_gravity_weight": 0 }, "geometry": { "type": "Point", "coordinates": [ -118.136559083587869, 47.650934542586235 ] } },
{ "type": "Feature", "properties": { "id": "53_2", "growth_scenario": "moderate", "market_gravity_weight": 0 }, "geometry": { "type": "Point", "coordinates": [ -119.009773722328291, 47.936042568985073 ] } },
{ "type": "Feature", "properties": { "id": "53_3", "growth_scenario": "moderate", "market_gravity_weight": 0 }, "geometry": { "type": "Point", "coordinates": [ -119.279081252803252, 47.614187578685033 ] } },
{ "type": "Feature", "properties": { "id": "53_4", "growth_scenario": "moderate", "market_gravity_weight": 0 }, "geometry": { "type": "Point", "coordinates": [ -119.903597307589152, 46.691550060720338 ] } },
{ "type": "Feature", "properties": { "id": "53_5", "growth_scenario": "moderate", "market_gravity_weight": 0 }, "geometry": { "type": "Point", "coordinates": [ -119.151116613208856, 46.838893290430434 ] } },
{ "type": "Feature", "properties": { "id": "53_6", "growth_scenario": "moderate", "market_gravity_weight": 0 }, "geometry": { "type": "Point", "coordinates": [ -119.151457882537926, 46.842464311809287 ] } },
{ "type": "Feature", "properties": { "id": "53_7", "growth_scenario": "moderate", "market_gravity_weight": 0 }, "geometry": { "type": "Point", "coordinates": [ -119.199910785492264, 46.814112280239328 ] } },
{ "type": "Feature", "properties": { "id": "53_8", "growth_scenario": "moderate", "market_gravity_weight": 0 }, "geometry": { "type": "Point", "coordinates": [ -119.279177503682149, 47.609970720858229 ] } },
{ "type": "Feature", "properties": { "id": "53_9", "growth_scenario": "moderate", "market_gravity_weight": 0 }, "geometry": { "type": "Point", "coordinates": [ -120.307814309164442, 47.48642636254413 ] } },
{ "type": "Feature", "properties": { "id": "56_0", "growth_scenario": "moderate", "market_gravity_weight": 0 }, "geometry": { "type": "Point", "coordinates": [ -110.557534131647401, 41.790314603696494 ] } },
{ "type": "Feature", "properties": { "id": "56_1", "growth_scenario": "moderate", "market_gravity_weight": 0 }, "geometry": { "type": "Point", "coordinates": [ -110.557734983811628, 41.787759609812511 ] } },
{ "type": "Feature", "properties": { "id": "56_2", "growth_scenario": "moderate", "market_gravity_weight": 0 }, "geometry": { "type": "Point", "coordinates": [ -110.551242256962837, 41.792477740356738 ] } },
{ "type": "Feature", "properties": { "id": "56_3", "growth_scenario": "moderate", "market_gravity_weight": 0 }, "geometry": { "type": "Point", "coordinates": [ -110.295067039188851, 41.33370276153444 ] } }
]
}
